property_id;street_address;city;zipcode;state;latitude;longitude;beds;baths;living_area;lot_area
2148485912;942 S Rimpau Blvd;Los Angeles;90019;CA;34.057682;-118.332985;4;3;2159;7353
1449966788;7321 Dunfield Ave;Los Angeles;90045;CA;33.975139;-118.398287;5;3;3146;6151
1246134678;2631 Range Rd;Los Angeles;90065;CA;34.130146;-118.224001;3;2;1428;5402
1441038706;651 E 138th St;Los Angeles;90059;CA;33.906671;-118.263444;2;1;840;5001
2291993908;2334 Veteran Ave;Los Angeles;90064;CA;34.040078;-118.432124;3;3;2300;6480
1986706232;140 S Vista St;Los Angeles;90036;CA;34.072307;-118.351872;5;3;2687;7004
2920722144;2911 S Ridgeley Dr;Los Angeles;90016;CA;34.027319;-118.363611;4;4;2195;3001
2543209923;1332 Lucile Ave;Los Angeles;90026;CA;34.08787;-118.280329;2;1;1106;7349
1658289704;1656 S Hayworth Ave;Los Angeles;90035;CA;34.046056;-118.368717;3;1;1363;6374
1262732543;620 E 76th St;Los Angeles;90001;CA;33.970903;-118.264238;3;2;1172;5738
1934244009;1033 S Hudson Ave;Los Angeles;90019;CA;34.056095;-118.335664;4;3;2129;7061
2440923134;2043 W 41st Pl;Los Angeles;90062;CA;34.008386;-118.316931;3;2;1434;5884
2409370254;2866 Angelo Dr;Los Angeles;90077;CA;34.1264;-118.44151;3;3;2453;1244627
2513471701;933 Manzanita St;Los Angeles;90029;CA;34.089395;-118.283805;3;2;1653;7440
1482268137;728 Woodruff Ave;Los Angeles;90024;CA;34.068863;-118.432935;5;4;4007;9200
2424001249;2735 Federal Ave;Los Angeles;90064;CA;34.025491;-118.438953;3;1;1168;5397
1137851221;2256 Laurel Canyon Blvd;Los Angeles;90046;CA;34.110994;-118.372999;2;2;928;5249
9709937715;1408 N Stanley Ave;Los Angeles;90046;CA;34.096489;-118.355695;3;4;1880;1285
2104901206;2729 W 75th St;Los Angeles;90043;CA;33.972125;-118.324107;2;1;993;6702
2077510739;6748 3rd Ave;Los Angeles;90043;CA;33.976846;-118.320375;2;1;1144;4803
2173270913;701 N Vendome St;Los Angeles;90026;CA;34.079785;-118.27736;3;1;1458;6212
1833206500;2911 Antelo View Dr;Los Angeles;90077;CA;34.126383;-118.465133;9;14;15360;233482
2642394192;12323 23rd Helena Dr;Los Angeles;90049;CA;34.059788;-118.481678;4;4;3089;10202
1823672808;1441 Livonia Ave;Los Angeles;90035;CA;34.054078;-118.386694;4;5;2721;6399
2653368049;1716 Micheltorena St;Los Angeles;90026;CA;34.091953;-118.272644;4;4;3038;7527
2367750494;538 N Harper Ave;Los Angeles;90048;CA;34.081224;-118.368732;4;5;3520;5894
1926215384;9535 Defiance Ave;Los Angeles;90002;CA;33.949624;-118.245512;2;1;560;2926
1792111704;1468 12th Ave;Los Angeles;90019;CA;34.044586;-118.325709;6;3;2162;5488
2938340712;2374 Landa St;Los Angeles;90039;CA;34.096404;-118.250193;1;1;520;2200
2684370165;1326 E 43rd Pl;Los Angeles;90011;CA;34.004559;-118.251168;2;1;1152;4867
1589608572;1656 S Crescent Heights Blvd;Los Angeles;90035;CA;34.047399;-118.3732;4;3;1681;4400
2010357510;3131 Hyde Park Blvd;Los Angeles;90043;CA;33.980804;-118.327603;5;2;1012;2250
1740681554;1739 Preuss Rd;Los Angeles;90035;CA;34.047724;-118.385083;3;2;1508;5489
1391533790;6453 W 80th Pl;Los Angeles;90045;CA;33.966469;-118.401629;3;2;1831;6085
1332568919;8232 Holmes Ave;Los Angeles;90001;CA;33.963396;-118.240715;2;2;708;5746
2643808372;1021 W 108th St;Los Angeles;90044;CA;33.938341;-118.292824;4;3;1529;4554
2590827574;1743 W 59th Pl;Los Angeles;90047;CA;33.986953;-118.308211;3;2;1023;3350
1424474957;4622 Nob Hill Dr;Los Angeles;90065;CA;34.111909;-118.217985;3;3;1812;7658
2642512288;1184 N Normandie Ave;Los Angeles;90029;CA;34.093152;-118.300169;2;1;1188;6752
2600223666;4121 Zamora St;Los Angeles;90011;CA;34.00856;-118.253114;2;1;1048;2648
1083557892;2043 W 76th St;Los Angeles;90047;CA;33.971232;-118.314711;4;3;1700;6724
1262497575;12431 S Hoover St;Los Angeles;90044;CA;33.919348;-118.287165;3;2;1217;7667
1590681061;6201 Oak Crest Way;Los Angeles;90042;CA;34.125717;-118.184495;2;1;856;7241
1655449269;5910 Monte Vista St;Los Angeles;90042;CA;34.112757;-118.191774;4;4;2621;7312
1341956788;3133 Hollyridge Dr;Los Angeles;90068;CA;34.126139;-118.317233;3;2;1915;5162
2611144055;10031 LA Salle Ave;Los Angeles;90047;CA;33.944447;-118.30605;3;1;1222;6761
2537628255;4500 Don Timoteo Dr;Los Angeles;90008;CA;34.005233;-118.354269;4;3;2700;9579
1761610493;7728 Westlawn Ave;Los Angeles;90045;CA;33.970258;-118.410453;4;3;2438;5958
2569210179;733 N Alexandria Ave;Los Angeles;90029;CA;34.084526;-118.298106;3;1;1351;5619
1118392101;13325 Westcove Dr;Los Angeles;90049;CA;34.057306;-118.496909;4;3;2374;6839
1257699043;1457 Blue Jay Way;Los Angeles;90069;CA;34.098164;-118.387396;4;7;9800;28798
2484819266;1628 S Centinela Ave;Los Angeles;90025;CA;34.035521;-118.463595;2;1;816;7083
1028427041;5237 Rockland Ave;Los Angeles;90041;CA;34.142389;-118.21531;4;5;2481;6325
1367936225;10301 Strathmore Dr;Los Angeles;90024;CA;34.070657;-118.427852;7;11;10269;42876
1059434232;3927 Albright Ave;Los Angeles;90066;CA;34.008355;-118.418997;2;1;1122;6111
1299418678;2171 W 26th Pl;Los Angeles;90018;CA;34.032022;-118.313984;2;2;2148;6787
1564855763;1168 Oak Grove Dr;Los Angeles;90041;CA;34.131393;-118.192471;2;2;1611;14240
2030897342;1845 Calgary Ln;Los Angeles;90077;CA;34.104204;-118.444989;3;2;1645;18112
2764205186;1864 W 38th St;Los Angeles;90062;CA;34.017101;-118.315531;3;1;1160;5162
1497255343;5140 Baltimore St;Los Angeles;90042;CA;34.117993;-118.204085;3;3;1249;4408
2117342957;1836 W 46th St;Los Angeles;90062;CA;34.001636;-118.312683;3;2;1862;6309
2640379905;227 W 109th St;Los Angeles;90061;CA;33.937631;-118.277143;2;1;660;5227
1214693594;6413 LA Punta Dr;Los Angeles;90068;CA;34.114202;-118.328991;4;3;2227;4844
1802798806;330 S Windsor Blvd;Los Angeles;90020;CA;34.067938;-118.320999;4;4;7537;13512
1227441696;723 E 73rd St;Los Angeles;90001;CA;33.974118;-118.262142;6;3;2196;4806
1238228579;3922 Tampico Ave;Los Angeles;90032;CA;34.091262;-118.174099;3;3;1936;7770
1379148199;5944 Manola Way;Los Angeles;90068;CA;34.112429;-118.319074;2;2;1929;5310
2266008174;2633 Basil Ln;Los Angeles;90077;CA;34.119732;-118.448829;3;3;2214;4508
2161712173;10568 Blythe Ave;Los Angeles;90064;CA;34.041937;-118.420387;3;3;;6255
9697929472;2142 N Cahuenga Blvd;Los Angeles;90068;CA;34.109962;-118.330994;2;4;1700;4020
2074049378;327 E Century Blvd;Los Angeles;90003;CA;33.945861;-118.268551;2;1;903;4826
1369760330;835 E 82nd St;Los Angeles;90001;CA;33.964946;-118.259534;4;2;1763;5100
2927309993;2348 Eads St;Los Angeles;90031;CA;34.094093;-118.240492;5;5;2258;4826
2664441109;12300 Darlington Ave;Los Angeles;90049;CA;34.04559;-118.472363;4;5;3500;5502
1650596473;9144 LA Salle Ave;Los Angeles;90047;CA;33.953273;-118.305419;2;1;1320;5401
1069319153;2147 Stanley Hills Dr;Los Angeles;90046;CA;34.109895;-118.377322;4;2;2110;7501
2192227905;516 N Bronson Ave;Los Angeles;90004;CA;34.079403;-118.317621;3;2;1512;4138
1048453374;1857 W 70th St;Los Angeles;90047;CA;33.976428;-118.31087;3;2;1420;4567
1455026733;11409 Berwick St;Los Angeles;90049;CA;34.063251;-118.461043;3;3;2816;6059
2659695036;903 W 62nd St;Los Angeles;90044;CA;33.983962;-118.289403;4;2;1453;5699
1906753115;5207 S St Andrews Pl;Los Angeles;90062;CA;33.99481;-118.311688;3;2;1494;6495
2397795068;1550 E 47th St;Los Angeles;90011;CA;34.000768;-118.246632;3;2;1558;3001
2282006635;2055 Glendon Ave;Los Angeles;90025;CA;34.045765;-118.432374;3;2;1600;6752
2127020729;6115 Del Valle Dr;Los Angeles;90048;CA;34.061388;-118.362994;3;4;2900;8246
1411896739;123 E 138th St;Los Angeles;90061;CA;33.906913;-118.272937;2;1;1256;5502
2021789931;3525 May St;Los Angeles;90066;CA;34.006639;-118.443548;5;5;3757;5828
1451277394;2201 West Blvd;Los Angeles;90016;CA;34.037037;-118.339108;2;2;1837;6599
1976798566;3256 S Sherbourne Dr;Los Angeles;90034;CA;34.030789;-118.382194;3;2;1215;3615
1172852165;2515 Pennsylvania Ave;Los Angeles;90033;CA;34.043909;-118.207314;4;2;1092;5422
1922429024;6112 Damask Ave;Los Angeles;90056;CA;33.984691;-118.362235;3;3;2221;8337
2041506763;5407 Marburn Ave;Los Angeles;90043;CA;33.992536;-118.350139;4;4;3422;6068
9880768844;1143 W Alma Ln;Los Angeles;90038;CA;34.09203;-118.341099;3;4;2084;2098
2861601912;438 E 71st St;Los Angeles;90003;CA;33.975246;-118.266107;3;2;1282;4398
1325480412;1157 Irolo St;Los Angeles;90006;CA;34.049202;-118.301259;6;4;2202;3981
2760105932;3821 S Hobart Blvd;Los Angeles;90062;CA;34.016795;-118.308081;2;2;950;4961
1961892189;2617 S Beverly Dr;Los Angeles;90034;CA;34.039368;-118.395976;4;3;2511;8398
1195323528;2515 Gleason Ave;Los Angeles;90033;CA;34.042246;-118.208368;2;1;768;5746
2912585115;12507 Westminster Ave;Los Angeles;90066;CA;34.008827;-118.438925;3;3;2614;6752
2772570427;1830 N Stanley Ave;Los Angeles;90046;CA;34.104381;-118.356802;5;5;5290;22133
2840191910;725 N Crescent Heights Blvd;Los Angeles;90046;CA;34.084502;-118.366209;4;5;2679;6050
9282613134;3876 Arlington Ave;Los Angeles;90008;CA;34.015491;-118.318184;4;3;1730;8080
2062505159;135 N St Andrews Pl;Los Angeles;90004;CA;34.074081;-118.3117;4;4;2802;7915
2849785460;1530 N Ogden Dr;Los Angeles;90046;CA;34.099108;-118.359057;4;2;2518;8102
2058697735;2054 Roscomare Rd;Los Angeles;90077;CA;34.107564;-118.463058;5;6;4495;21018
1333500568;1606 E 82nd St;Los Angeles;90001;CA;33.964779;-118.245765;4;2;1699;4964
1921737173;548 Montecito Dr;Los Angeles;90031;CA;34.091739;-118.201097;5;4;4000;5245
1217379891;7763 Compton Ave;Los Angeles;90001;CA;33.968501;-118.248032;4;3;1634;5678
1919099515;976 Bel Air Rd;Los Angeles;90077;CA;34.091615;-118.442101;4;5;4466;5602
1965429305;7338 W 90th St;Los Angeles;90045;CA;33.954873;-118.4238;3;3;1968;6050
2563900745;5766 Brushton St;Los Angeles;90008;CA;34.01845;-118.371671;4;3;2404;12972
2591056244;3307 Compton Ave;Los Angeles;90011;CA;34.012245;-118.249099;3;2;1113;3668
1348444914;8055 Mulholland Dr;Los Angeles;90046;CA;34.125204;-118.374978;4;3;3058;11975
2651465805;2078 E 110th St;Los Angeles;90059;CA;33.934887;-118.235183;4;2;1406;3250
1165878359;848 W 75th St;Los Angeles;90044;CA;33.971426;-118.288794;3;1;933;5600
2437781423;4725 Compton Ave;Los Angeles;90011;CA;34.000423;-118.248031;2;1;1029;2731
2964154637;1715 Crisler Way;Los Angeles;90069;CA;34.100511;-118.373861;3;4;3288;6077
1091641452;2326 Stanley Hills Dr;Los Angeles;90046;CA;34.112801;-118.375388;3;4;1657;7050
1422456299;10981 Bellagio Rd;Los Angeles;90077;CA;34.080261;-118.456689;4;7;6211;32404
9208213882;4601 S Hoover St;Los Angeles;90037;CA;34.001556;-118.287343;3;2;1100;2855
1146070792;Franklin Ave;Los Angeles;90069;CA;34.097925;-118.378605;4;4;5376;5135
1951598565;1175 N Stone St;Los Angeles;90063;CA;34.052008;-118.194371;2;1;788;4504
1702250921;16226 Napa St;Los Angeles;91343;CA;34.226338;-118.486274;3;2;1374;7500
2209432175;3206 W 78th Pl;Los Angeles;90043;CA;33.967907;-118.328978;2;2;1565;6169
2037648775;445 N LA Jolla Ave;Los Angeles;90048;CA;34.079428;-118.36827;4;5;2400;5998
1657871555;1130 Nolden St;Los Angeles;90042;CA;34.122669;-118.194547;3;2;1698;3751
2457179309;5431 S Chariton Ave;Los Angeles;90056;CA;33.992209;-118.370294;5;5;5821;10058
2853445746;1411 Albany St;Los Angeles;90015;CA;34.041454;-118.275517;2;1;1400;5937
1723926401;2500 LA Condesa Dr;Los Angeles;90049;CA;34.080187;-118.509803;4;3;2851;18186
2876757779;321 W 120th St;Los Angeles;90061;CA;33.924012;-118.279064;2;1;1200;5301
2293843907;1638 W 105th St;Los Angeles;90047;CA;33.940663;-118.306088;2;1;1221;5710
1797359904;7331 W 82nd St;Los Angeles;90045;CA;33.962444;-118.425007;3;2;1708;6077
2371485312;5608 Hooper Ave;Los Angeles;90011;CA;33.991794;-118.251934;1;1;572;1650
2331398131;8441 Franklin Ave;Los Angeles;90069;CA;34.099593;-118.373658;0;0;;7588
1100298523;2662 W Avenue 32;Los Angeles;90065;CA;34.110303;-118.239039;3;1;1357;7499
2234730675;1611 W 48th St;Los Angeles;90062;CA;34.00036;-118.307223;3;2;1730;5615
2714286493;1323 N June St;Los Angeles;90028;CA;34.095066;-118.334579;1;1;766;6634
2742699588;12720 Montana Ave;Los Angeles;90049;CA;34.045968;-118.480603;5;8;5598;8995
1578534290;7945 Chase Ave;Los Angeles;90045;CA;33.967128;-118.412472;3;2;1680;6181
2685107260;1322 N June St;Los Angeles;90028;CA;34.095067;-118.333929;3;1;1124;5120
1038798346;8937 Wonderland Park Ave;Los Angeles;90046;CA;34.114751;-118.389021;3;3;1600;32417
2559093438;5628 Aladdin St;Los Angeles;90008;CA;34.016652;-118.368818;3;3;2219;6756
2997246794;1314 Sunset Plaza Dr;Los Angeles;90069;CA;34.096063;-118.382757;5;5;5002;8564
2808998849;3927 Brighton Ave;Los Angeles;90062;CA;34.014147;-118.301568;2;1;900;5767
2317619578;539 W 106th St;Los Angeles;90044;CA;33.940171;-118.284097;2;1;1081;4835
2188320056;10567 Northvale Rd;Los Angeles;90064;CA;34.036426;-118.41777;3;3;3138;6625
2900776642;2671 Benedict St;Los Angeles;90039;CA;34.099297;-118.24599;2;1;720;5409
2955760354;12447 Hammack St;Los Angeles;90066;CA;33.98378;-118.414373;4;3;1898;5554
2025070802;7334 Woodrow Wilson Dr;Los Angeles;90046;CA;34.123312;-118.353573;4;5;2709;20146
2603170825;3018 Castle St;Los Angeles;90039;CA;34.093402;-118.268185;4;4;2674;7475
2258833517;1348 Portia St;Los Angeles;90026;CA;34.076653;-118.253274;2;1;1410;7673
2346826631;625 W 41st Dr;Los Angeles;90037;CA;34.008998;-118.285052;2;1;1680;5402
1291398277;5064 Raphael St;Los Angeles;90042;CA;34.113536;-118.206113;2;1;858;4802
1450153118;7449 Kentwood Ave;Los Angeles;90045;CA;33.975018;-118.401578;3;3;1839;6046
1807539804;1762 Crenshaw Blvd;Los Angeles;90019;CA;34.041795;-118.329566;8;4;3788;7350
2433943031;151 E 47th St;Los Angeles;90011;CA;34.001345;-118.272749;3;2;2051;7126
2438473029;10919 Anzac Ave;Los Angeles;90059;CA;33.936557;-118.238236;2;1;1048;6503
2401186268;795 E 46th St;Los Angeles;90011;CA;34.001899;-118.261735;4;2;1251;6133
2124784773;1143 S Alfred St;Los Angeles;90035;CA;34.055658;-118.375298;3;2;2124;6373
1521921025;16354 San Fernando Mission Blvd;Los Angeles;91344;CA;34.271703;-118.488747;3;2;1493;10376
1593775905;2023 S West View St;Los Angeles;90016;CA;34.038111;-118.345423;4;4;2312;6599
2696811915;665 W 61st St;Los Angeles;90044;CA;33.984445;-118.285501;3;2;1194;5401
2830928893;1610 N Ogden Dr;Los Angeles;90046;CA;34.100317;-118.359061;5;5;3395;8102
1048524757;2223 Ridgemont Dr;Los Angeles;90046;CA;34.111637;-118.387753;2;2;1522;6970
2206483091;1623 W 45th St;Los Angeles;90062;CA;34.003059;-118.307655;3;2;1681;5606
2429359320;4828 McKinley Ave;Los Angeles;90011;CA;33.999421;-118.26057;2;1;1140;5239
1795806107;11507 S St Andrews Pl;Los Angeles;90047;CA;33.929802;-118.311925;4;2;1597;5357
1953562288;3509 Galena St;Los Angeles;90032;CA;34.084748;-118.192749;2;1;750;1636
1634726256;5126 Ithaca Ave;Los Angeles;90032;CA;34.072567;-118.174635;2;1;884;4813
2910474010;1774 W 37th St;Los Angeles;90018;CA;34.020812;-118.311199;2;1;938;3602
2961416554;3416 11th Ave;Los Angeles;90018;CA;34.025039;-118.329042;4;3;1608;5326
1142595368;3061 Delevan Dr;Los Angeles;90065;CA;34.123277;-118.230558;1;1;536;9252
2843570271;1432 Malvern Ave;Los Angeles;90006;CA;34.04385;-118.282158;4;3;2717;6366
2987379543;221 S Benton Way;Los Angeles;90057;CA;34.068319;-118.278857;2;2;1722;4107
2886727381;2446 Hidalgo Ave;Los Angeles;90039;CA;34.101343;-118.256036;3;3;1672;7493
1013010314;8977 St Ives Dr;Los Angeles;90069;CA;34.093863;-118.387931;2;2;1672;6334
1082697626;8148 Cornett Dr;Los Angeles;90046;CA;34.120257;-118.376273;3;2;1278;5301
2581417206;4181 York Blvd;Los Angeles;90065;CA;34.124122;-118.226714;3;1;956;5946
1214601393;2906 S Hobart Blvd;Los Angeles;90018;CA;34.028806;-118.30747;6;4;2420;6650
1208601576;2824 S Norton Ave;Los Angeles;90018;CA;34.030432;-118.332406;4;2;1457;5300
1292600478;3132 Hollyridge Dr;Los Angeles;90068;CA;34.126124;-118.316816;3;4;2438;9971
2297951384;545 N Poinsettia Pl;Los Angeles;90036;CA;34.081552;-118.348911;4;3;2356;4932
1050726596;2067 W 65th Pl;Los Angeles;90047;CA;33.980056;-118.315665;3;2;1317;5637
1276331463;2511 Mount Beacon Ter;Los Angeles;90068;CA;34.116219;-118.314104;2;3;2695;13103
1309311823;2700 Hollyridge Dr;Los Angeles;90068;CA;34.115934;-118.319115;2;2;1431;9270
2959794522;1943 Sunset Plaza Dr;Los Angeles;90069;CA;34.104277;-118.381637;3;3;1746;16143
1065368963;2611 Laurel Pass;Los Angeles;90046;CA;34.117334;-118.384303;5;6;4413;74901
1833465528;5004 O Sullivan Dr;Los Angeles;90032;CA;34.067437;-118.174139;3;2;1404;4801
2847756897;718 N Kilkea Dr;Los Angeles;90046;CA;34.084364;-118.366625;5;6;4687;5898
1708498301;13600 Bayliss Rd;Los Angeles;90049;CA;34.075318;-118.507798;5;7;6901;32640
1353417028;1846 W 25th St;Los Angeles;90018;CA;34.033382;-118.304596;8;3;2423;6636
2502151078;4183 4th Ave;Los Angeles;90008;CA;34.008102;-118.32165;2;2;1265;3951
1829163497;1421 E 122nd St;Los Angeles;90059;CA;33.922314;-118.249119;3;1;1144;5401
1951457725;2737 Monte Mar Ter;Los Angeles;90064;CA;34.044173;-118.402305;4;4;2446;6902
2627539602;1159 E 43rd Pl;Los Angeles;90011;CA;34.00509;-118.254996;3;1;1440;4844
2900809444;10101 W Sunset Blvd;Los Angeles;90077;CA;34.081085;-118.426931;5;6;8182;24189
2961521044;1908 N Alvarado St;Los Angeles;90039;CA;34.088511;-118.256474;3;4;2500;5201
2227194731;706 Echo Park Ave;Los Angeles;90026;CA;34.071615;-118.259695;3;2;1155;3942
2395358260;9515 Oakmore Rd;Los Angeles;90035;CA;34.047941;-118.395838;7;6;4376;7078
1003974286;3748 S Muirfield Rd;Los Angeles;90016;CA;34.018674;-118.341936;3;2;1783;5993
2191064437;1921 W 94th Pl;Los Angeles;90047;CA;33.950729;-118.312201;3;1;1015;5150
1094318303;816 Glenmere Way;Los Angeles;90049;CA;34.072285;-118.49199;6;8;8520;16866
1696163274;12148 Travis St;Los Angeles;90049;CA;34.075964;-118.482255;5;8;5056;14641
1266046063;6696 Lakeridge Rd;Los Angeles;90068;CA;34.122776;-118.340534;3;4;2851;16919
1295262562;3350 Charleston Way;Los Angeles;90068;CA;34.132373;-118.346298;2;2;1397;4792
1582173054;3659 Shannon Rd;Los Angeles;90027;CA;34.119096;-118.275499;7;7;6408;17267
2846029823;802 E 25th St;Los Angeles;90011;CA;34.02138;-118.258786;5;1;2026;163437120
2244557512;2995 San Marino St;Los Angeles;90006;CA;34.054733;-118.294757;2;1;840;3622
2333720391;14342 Mulholland Dr;Los Angeles;90077;CA;34.129257;-118.444781;5;5;3232;27905
1269038711;135 S Avenue 53;Los Angeles;90042;CA;34.106068;-118.197395;6;6;1963;10110
2287181527;7220 Rosewood Ave;Los Angeles;90036;CA;34.080092;-118.347044;2;1;1057;2622
1225388920;6662 Emmet Ter;Los Angeles;90068;CA;34.105783;-118.335347;3;2;1884;5249
1681778620;2220 Jeffersonia Way;Los Angeles;90049;CA;34.076126;-118.504364;4;6;5443;10876
2403972990;633 N Crescent Heights Blvd;Los Angeles;90048;CA;34.082546;-118.366203;5;7;6000;6247
1831498656;1510 Glenville Dr;Los Angeles;90035;CA;34.052129;-118.392847;4;3;2494;7022
1563470625;120 N Glenroy Ave;Los Angeles;90049;CA;34.075185;-118.459401;9;13;14543;21497
2645785393;655 N Bundy Dr;Los Angeles;90049;CA;34.072037;-118.477799;4;4;5389;20312
2029711130;206 N Wilton Pl;Los Angeles;90004;CA;34.074934;-118.313249;3;2;1864;6887
1376771402;2243 Johnston St;Los Angeles;90031;CA;34.071439;-118.210506;3;2;911;2255
1151080631;2437 Apollo Dr;Los Angeles;90046;CA;34.115572;-118.365817;4;4;4550;11744
2409653861;2515 Veteran Ave;Los Angeles;90064;CA;34.03761;-118.430448;2;1;1034;5820
1902825670;2671 Anchor Ave;Los Angeles;90064;CA;34.042417;-118.3999;3;3;1668;14937
1412120334;143 E 136th St;Los Angeles;90061;CA;33.908425;-118.272299;3;1;1064;5759
2082322417;10332 Avalon Blvd;Los Angeles;90003;CA;33.94267;-118.264621;3;2;1884;7418
2956294672;1151 W 66th St;Los Angeles;90044;CA;33.979355;-118.295484;4;3;1696;4997
2399517524;10729 Esther Ave;Los Angeles;90064;CA;34.038673;-118.423711;4;5;3041;6451
1167567402;16401 Mulholland Dr;Los Angeles;90049;CA;34.132345;-118.489467;6;8;8367;151284
9788411970;844 E Kensington Rd;Los Angeles;90026;CA;34.0722;-118.252281;5;5;3629;16940
1423271075;2250 Bronson Hill Dr;Los Angeles;90068;CA;34.111173;-118.316151;3;3;2628;5219
2405565980;5540 Bedford Ave;Los Angeles;90056;CA;33.991185;-118.375256;6;5;3699;9121
1992180687;1750 Viewmont Dr;Los Angeles;90069;CA;34.10249;-118.380427;4;6;5000;5602
1863945920;1037 and 1039 Casiano Rd;Los Angeles;90049;CA;34.081008;-118.470291;5;4;3439;39439
2792734451;1730 E 69th St;Los Angeles;90001;CA;33.976936;-118.242261;5;2;2100;6777
2560804523;1912 S Westgate Ave;Los Angeles;90025;CA;34.036533;-118.453724;3;1;1022;7376
2194799255;526 N Plymouth Blvd;Los Angeles;90004;CA;34.079796;-118.320271;5;6;4273;6751
2824958118;127 W 118th St;Los Angeles;90061;CA;33.926727;-118.274975;3;1;888;5210
1001271542;8960 Crescent Dr;Los Angeles;90046;CA;34.109674;-118.386138;4;4;2318;2623
2088674074;1360 Hauser Blvd;Los Angeles;90019;CA;34.049483;-118.356135;2;2;1572;5397
1314138725;2754 Kenwood Ave;Los Angeles;90007;CA;34.029302;-118.298809;5;4;3502;9004
2380847287;2801 Overland Ave;Los Angeles;90064;CA;34.035305;-118.420211;5;4;2588;7353
1168383400;3838 Toland Way;Los Angeles;90065;CA;34.118318;-118.229202;5;4;2494;5100
2961125763;6240 W 5th St;Los Angeles;90048;CA;34.06749;-118.364398;3;2;2126;6098
1382920861;2230 Glendale Blvd;Los Angeles;90039;CA;34.095434;-118.258889;5;4;3340;3711
1355339113;7759 Skyhill Dr;Los Angeles;90068;CA;34.134029;-118.36447;4;3;2864;17189
2750743957;3018 Glenhurst Ave;Los Angeles;90039;CA;34.110018;-118.25342;4;2;1313;6993
2031464555;7248 W 90th St;Los Angeles;90045;CA;33.955859;-118.420316;4;3;2103;6599
2220276565;7325 8th Ave;Los Angeles;90043;CA;33.973022;-118.326787;5;3;2152;6075
2521523618;1866 W Martin Luther King Jr Blvd;Los Angeles;90062;CA;34.010541;-118.313637;3;3;2176;6220
1620539304;1463 S Crescent Heights Blvd;Los Angeles;90035;CA;34.050801;-118.372947;3;2;1750;3498
2433069467;10702 S Van Ness Ave;Los Angeles;90047;CA;33.938789;-118.317524;4;2;1633;6437
2824548193;145 W 115th St;Los Angeles;90061;CA;33.930324;-118.275497;3;2;1762;4986
1860151091;354 S Lucerne Blvd;Los Angeles;90020;CA;34.067317;-118.323922;6;6;5998;14401
2309764688;607 N Fuller Ave;Los Angeles;90036;CA;34.082124;-118.350049;3;2;1676;3979
2226578880;10514 S Manhattan Pl;Los Angeles;90047;CA;33.940446;-118.309849;3;2;1363;6665
1001125627;1458 W 70th St;Los Angeles;90047;CA;33.975947;-118.302262;4;2;1100;4680
1156840649;1430 Sunset Plaza Dr;Los Angeles;90069;CA;34.09587;-118.38181;5;7;5650;12057
2219643044;3132 W 74th St;Los Angeles;90043;CA;33.972457;-118.327668;3;2;1423;5433
1358465601;6240 Mulholland Hwy;Los Angeles;90068;CA;34.128341;-118.323616;3;4;2013;11421
2154543814;1500 W 93rd St;Los Angeles;90047;CA;33.951677;-118.302618;4;2;1417;4835
2802793657;4322 7th Ave;Los Angeles;90008;CA;34.00489;-118.324517;3;2;1450;4434
1750072572;2328 S Holt Ave;Los Angeles;90034;CA;34.038407;-118.381252;5;4;3742;6003
1219839443;234 E 76th St;Los Angeles;90003;CA;33.971066;-118.270602;4;2;810;5100
1021432417;2199 Sunset Plaza Dr;Los Angeles;90069;CA;34.105161;-118.385885;2;2;1657;7100
2056608917;918 E 97th St;Los Angeles;90002;CA;33.948137;-118.257929;2;2;1000;4800
2135778226;954 Schumacher Dr;Los Angeles;90048;CA;34.060095;-118.374318;6;5;4600;10746
2002761556;1940 Bel Air Rd;Los Angeles;90077;CA;34.104279;-118.45118;8;15;17013;25657
2740819844;7120 Macapa Dr;Los Angeles;90068;CA;34.11822;-118.345798;4;4;5268;10964
2728003508;7833 Torreyson Dr;Los Angeles;90046;CA;34.129285;-118.370847;5;6;5707;13077
2149588146;7308 Pacific View Dr;Los Angeles;90068;CA;34.120605;-118.352141;4;3;3422;9143
2526224877;4238 Edgehill Dr;Los Angeles;90008;CA;34.007255;-118.330203;3;3;2446;5149
2020655506;340 N Crescent Heights Blvd;Los Angeles;90048;CA;34.077351;-118.365519;4;2;2247;6556
1526509108;818 North Avenue 51;Los Angeles;90042;CA;34.115569;-118.206075;3;3;1211;6061
1504295457;4683 Paula St;Los Angeles;90032;CA;34.087415;-118.184704;2;1;1379;4844
2081241705;731 W 99th St;Los Angeles;90044;CA;33.946605;-118.288126;3;2;980;4959
1958226828;9522 Hickory St;Los Angeles;90002;CA;33.949858;-118.234832;3;1;1260;5408
2099502016;540 W 101st St;Los Angeles;90044;CA;33.944359;-118.284062;3;2;1401;5100
1160574000;12127 Beatrice St;Los Angeles;90230;CA;33.983561;-118.409213;3;2;1682;5698
2371021674;606 W 108th St;Los Angeles;90044;CA;33.937963;-118.285113;3;2;736;4792
1146155229;941 N Norman Pl;Los Angeles;90049;CA;34.078534;-118.479414;5;6;4508;26437
2721475059;594 S Mapleton Dr;Los Angeles;90024;CA;34.073273;-118.42822;14;27;56500;200450
1857020752;435 S Plymouth Blvd;Los Angeles;90020;CA;34.066088;-118.323304;6;7;8086;18008
1204645088;7164 Knowlton Pl;Los Angeles;90045;CA;33.970305;-118.371411;3;2;1373;12497
1763771917;7706 Westlawn Ave;Los Angeles;90045;CA;33.9708;-118.410628;3;2;1212;5968
1238432000;6438 Georgius Way;Los Angeles;90068;CA;34.115547;-118.329438;4;5;4151;6452
1248534219;1118 E 77th Pl;Los Angeles;90001;CA;33.968647;-118.255779;2;1;570;5634
2029730726;5608 Arch Crest Dr;Los Angeles;90043;CA;33.990596;-118.356764;3;3;1960;9492
2708968835;3795 Valleybrink Rd;Los Angeles;90039;CA;34.119175;-118.266749;3;2;1372;4800
1180345768;3651 Lavell Dr;Los Angeles;90065;CA;34.111881;-118.229291;2;2;1436;5724
2448663078;1380 E 48th Pl;Los Angeles;90011;CA;33.999055;-118.250237;4;2;1118;5003
1086949092;2101 W 76th St;Los Angeles;90047;CA;33.971235;-118.315735;2;1;1378;6700
2053188673;367 N Kilkea Dr;Los Angeles;90048;CA;34.078031;-118.367217;3;3;2234;6551
1431079253;2317 S Harcourt Ave;Los Angeles;90016;CA;34.035033;-118.345109;6;5;2525;8389
2136059906;715 E 103rd St;Los Angeles;90002;CA;33.943556;-118.261864;4;2;1230;5502
2425681365;1853 W 43rd St;Los Angeles;90062;CA;34.005742;-118.313177;7;4;2826;5749
2582282301;428 E 111th St;Los Angeles;90061;CA;33.934552;-118.26625;2;1;856;5224
2678378571;975 S Bundy Dr;Los Angeles;90049;CA;34.047114;-118.469662;2;2;1072;7619
2285728155;741 N Martel Ave;Los Angeles;90046;CA;34.084905;-118.35144;3;3;1892;6996
1696349604;13404 Chalon Rd;Los Angeles;90049;CA;34.07375;-118.500478;4;2;2666;15507
2587874118;247 N Kenter Ave;Los Angeles;90049;CA;34.062318;-118.481535;3;4;2191;12741
1081699669;1512 E Cesar E Chavez Ave;Los Angeles;90033;CA;34.051896;-118.219765;6;2;2404;4740
2667406488;2326 Kelton Ave;Los Angeles;90064;CA;34.040834;-118.431434;3;3;2856;6347
1730895133;12119 Travis St;Los Angeles;90049;CA;34.076055;-118.481034;6;8;7075;8063
1113218433;2362 Apollo Dr;Los Angeles;90046;CA;34.114696;-118.363934;4;4;3155;12441
2493309145;8634 Hickory St;Los Angeles;90002;CA;33.958833;-118.234803;2;1;760;3400
2174071167;118 W 94th St;Los Angeles;90003;CA;33.950778;-118.274795;2;1;992;4241
1877734319;870 Linda Flora Dr;Los Angeles;90049;CA;34.082443;-118.464511;5;6;5142;56480
2890405337;8347 Yucca Trl;Los Angeles;90046;CA;34.104295;-118.371951;2;2;1644;5423
2841643814;1782 W 36th Pl;Los Angeles;90018;CA;34.021636;-118.311401;4;2;1405;3842
2869372975;1955 1/2 Purdue Ave;Los Angeles;90025;CA;34.039974;-118.446107;3;4;3913;10423
2487589541;11307 Monitor Ave;Los Angeles;90059;CA;33.931782;-118.240521;4;2;1310;7466
1732001739;4716 St Charles Pl;Los Angeles;90019;CA;34.045288;-118.340104;0;0;;5802
2346873343;634 W 108th St;Los Angeles;90044;CA;33.937958;-118.286059;3;2;1090;4979
1336148376;530 S Mapleton Dr;Los Angeles;90024;CA;34.075272;-118.428786;11;27;33652;56232
1267611233;6523 Lakeridge Rd;Los Angeles;90068;CA;34.123408;-118.338075;3;3;2446;15982
1015341866;7825 Hillside Ave;Los Angeles;90046;CA;34.103061;-118.360247;5;5;3700;9296
1452119989;701 Nimes Rd;Los Angeles;90077;CA;34.089161;-118.440077;7;9;11050;38890
1020037375;2260 Maravilla Dr;Los Angeles;90068;CA;34.1113;-118.34315;4;4;4079;11626
1657656183;1640 S Orange Dr;Los Angeles;90019;CA;34.044165;-118.347987;5;3;2418;5604
1546067430;159 Beloit Ave;Los Angeles;90049;CA;34.070726;-118.466513;3;2;1501;6000
1351576476;133 S Mapleton Dr;Los Angeles;90024;CA;34.081723;-118.433416;9;14;30000;48090
2318886620;716 W 105th St;Los Angeles;90044;CA;33.940481;-118.287612;3;1;1350;4802
2068062859;10450 Tennessee Ave;Los Angeles;90064;CA;34.047644;-118.419872;3;3;1859;6504
2262391451;1240 W 101st St;Los Angeles;90044;CA;33.944727;-118.297677;4;2;2194;7449
1652203188;1654 Blue Jay Way;Los Angeles;90069;CA;34.103629;-118.386589;4;6;8751;18526
2705036315;1502 W 110th St;Los Angeles;90047;CA;33.935267;-118.302522;3;1;1400;5250
1325120806;3323 Estrada St;Los Angeles;90023;CA;34.0215;-118.20637;2;1;624;5007
1430239806;1927 N Wilton Pl;Los Angeles;90068;CA;34.106149;-118.313961;4;4;3000;6887
2405194543;2310 E 105th St;Los Angeles;90002;CA;33.940348;-118.230266;3;1;1003;6501
1363835045;8471 Zamora Ave;Los Angeles;90001;CA;33.961293;-118.250703;2;1;940;5789
1243210264;3218 Inez St;Los Angeles;90023;CA;34.030996;-118.202209;3;2;967;4999
1753466921;1638 S Van Ness Ave;Los Angeles;90019;CA;34.042375;-118.316033;3;3;2028;6948
2773808427;2301 Wall St;Los Angeles;90011;CA;34.025346;-118.263187;3;2;1043;4993
1067810845;2669 Clyde Ave;Los Angeles;90016;CA;34.03063;-118.367868;3;2;1464;5001
2118483680;10597 Cushdon Ave;Los Angeles;90064;CA;34.041108;-118.421102;4;4;3186;6229
2172953189;1509 W 98th St;Los Angeles;90047;CA;33.947154;-118.302932;2;1;1137;4604
1456494625;2112 S Mansfield Ave;Los Angeles;90016;CA;34.038163;-118.349335;3;2;1542;5998
2525571760;806 N Oxford Ave;Los Angeles;90029;CA;34.084767;-118.307467;3;2;1492;5972
2243225076;7333 Woodrow Wilson Dr;Los Angeles;90046;CA;34.123645;-118.354136;5;6;5289;22477
1131042926;2043 Panamint Dr;Los Angeles;90065;CA;34.109336;-118.225537;3;2;1519;5893
1335807908;2161 Argyle Ave;Los Angeles;90068;CA;34.110037;-118.325375;4;7;6615;7471
2181053197;10240 Century Woods Dr;Los Angeles;90067;CA;34.054808;-118.415234;3;4;4666;310374
1736792598;323 W 91st St;Los Angeles;90003;CA;33.954475;-118.279164;4;2;1188;4264
2980554801;1222 W 66th St;Los Angeles;90044;CA;33.978965;-118.29671;2;1;885;2870
2013672253;5353 Huntington Dr N;Los Angeles;90032;CA;34.091749;-118.164141;2;2;1054;7500
2883138478;8474 Harold Way;Los Angeles;90069;CA;34.097195;-118.375396;4;7;4250;6020
2324298405;720 N Orange Grove Ave;Los Angeles;90046;CA;34.084442;-118.36019;4;3;2704;6499
2189388173;3141 Oakcrest Dr;Los Angeles;90068;CA;34.126014;-118.346312;4;2;2001;3550
2895705325;146 S Mountain View Ave;Los Angeles;90057;CA;34.065044;-118.270255;3;2;1332;6242
1702423953;2072 Stoney Hill Rd;Los Angeles;90049;CA;34.10467;-118.489565;5;5;3830;
2267633354;3573 Greenfield Ave;Los Angeles;90034;CA;34.019258;-118.417126;5;4;2607;5953
2209828802;2523 Bellevue Ave;Los Angeles;90026;CA;34.07555;-118.272309;3;2;976;3358
1168503422;2740 S Sycamore Ave;Los Angeles;90016;CA;34.030051;-118.35491;5;4;2003;4807
1962055774;5529 Bradna Dr;Los Angeles;90043;CA;33.991906;-118.350604;4;3;2283;5754
2672009244;4015 3rd Ave;Los Angeles;90008;CA;34.011331;-118.320663;2;1;1192;5201
1118476080;1316 W 74th St;Los Angeles;90044;CA;33.972443;-118.298786;3;2;1000;5594
2032162458;1131 E 106th St;Los Angeles;90002;CA;33.94036;-118.255464;3;1;940;5414
2198430499;3245 Purdue Ave;Los Angeles;90066;CA;34.021404;-118.43049;3;2;1942;7571
1007718550;1302 Devlin Dr;Los Angeles;90069;CA;34.093795;-118.386108;4;4;3460;11491
9740217810;1240 S Citrus Ave;Los Angeles;90019;CA;34.05212;-118.342682;4;4;2429;6000
1175807546;3022 Wellington Rd;Los Angeles;90016;CA;34.026848;-118.338088;2;1;1011;5040
2510211894;11721 Chenault St;Los Angeles;90049;CA;34.056047;-118.468465;5;6;5785;8250
2171545307;614 N Van Ness Ave;Los Angeles;90004;CA;34.082229;-118.315562;2;1;690;1546
1802543019;1422 S Crest Dr;Los Angeles;90035;CA;34.054548;-118.387104;5;6;3885;6399
2549571027;1242 Gordon St;Los Angeles;90038;CA;34.093695;-118.319618;3;4;1956;1542
1461397283;853 W 83rd St;Los Angeles;90044;CA;33.9638;-118.288949;4;1;1399;4649
2091448201;6702 3rd Ave;Los Angeles;90043;CA;33.978055;-118.320366;3;2;1008;4803
2719805001;9032 Wonderland Park Ave;Los Angeles;90046;CA;34.11624;-118.391825;3;2;1747;19145
1953372809;5750 5th Ave;Los Angeles;90043;CA;33.989471;-118.322219;3;3;1664;5399
2324700107;10427 S Denker Ave;Los Angeles;90047;CA;33.941437;-118.304972;2;1;1198;5144
1030533530;145 N Toluca St;Los Angeles;90026;CA;34.062633;-118.258083;2;1;840;3676
1175489823;2004 N Curson Ave;Los Angeles;90046;CA;34.108251;-118.355279;3;3;1828;6730
1180988091;6745 Gill Way;Los Angeles;90068;CA;34.119594;-118.340204;3;4;1859;3242
1798074255;4715 Mascot St;Los Angeles;90019;CA;34.041095;-118.342799;2;2;2148;7529
1140757965;1884 Laurel Canyon Blvd;Los Angeles;90046;CA;34.105917;-118.366489;6;6;4888;8308
1810028399;535 S Norton Ave;Los Angeles;90020;CA;34.064295;-118.317323;4;5;4100;7168
2897161845;2700 Knox Ave;Los Angeles;90039;CA;34.100483;-118.246608;2;1;680;5000
1616615008;1909 Boca Ave;Los Angeles;90032;CA;34.064518;-118.186435;2;2;878;4805
2197958637;9711 Haas Ave;Los Angeles;90047;CA;33.947963;-118.316983;3;3;1542;5501
1737006747;916 W 57th St;Los Angeles;90037;CA;33.990267;-118.289885;3;2;1496;4532
2550661431;642 E 104th St;Los Angeles;90002;CA;33.941642;-118.263609;1;1;800;8101
1123283386;7842 S Halldale Ave;Los Angeles;90047;CA;33.967841;-118.302137;3;2;1711;5253
2027253503;7338 W 91st St;Los Angeles;90045;CA;33.954119;-118.424096;3;2;1578;5489
2311423985;1100 W 45th St;Los Angeles;90037;CA;34.002377;-118.293907;10;9;3973;7428
2261281696;823 N Cherokee Ave;Los Angeles;90038;CA;34.085985;-118.335524;5;6;4953;6255
2347450703;8225 Lincoln Ter;Los Angeles;90069;CA;34.097912;-118.369956;2;3;2269;2571
2162486534;813 S Alma Ave;Los Angeles;90023;CA;34.025027;-118.191464;3;2;915;7296
1410044814;734 E 83rd St;Los Angeles;90001;CA;33.963514;-118.261716;3;1;1112;
2296405810;1100 W 50th St;Los Angeles;90037;CA;33.997521;-118.293904;5;2;2134;6133
2781999261;5151 Cimarron St;Los Angeles;90062;CA;33.995875;-118.316337;3;2;1406;5200
2304319030;277 St Pierre Rd;Los Angeles;90077;CA;34.083576;-118.436816;8;20;36000;47990
2833992924;209 E 31st St;Los Angeles;90011;CA;34.020579;-118.269508;2;1;1028;6281
1903622776;5313 5th Ave;Los Angeles;90043;CA;33.994552;-118.322839;3;2;1447;5402
2314557473;11332 Bolas St;Los Angeles;90049;CA;34.06484;-118.460493;2;2;1462;5288
2137476715;7240 Sunnydip Trl;Los Angeles;90068;CA;34.122655;-118.349467;4;5;1747;7148
2559010683;937 Micheltorena St;Los Angeles;90026;CA;34.084765;-118.27807;3;2;2000;11404
1806389635;1839 W 117th St;Los Angeles;90047;CA;33.926853;-118.310494;3;2;1212;4794
2579836047;1348 Club View Dr;Los Angeles;90024;CA;34.065571;-118.423401;5;7;8558;8107
1164880402;3783 Lavell Dr;Los Angeles;90065;CA;34.114698;-118.227977;3;3;1409;5227
1945490100;143 S Laurel Ave;Los Angeles;90048;CA;34.072914;-118.365061;4;4;2450;6586
2208435441;1144 S Hicks Ave;Los Angeles;90023;CA;34.019669;-118.189971;3;1;1056;5850
1729940739;5329 Hyde St;Los Angeles;90032;CA;34.082382;-118.166155;3;2;1456;7510
1886580868;1714 Walton Ave;Los Angeles;90006;CA;34.04223;-118.294869;2;2;720;2400
2075912675;638 E 106th St;Los Angeles;90002;CA;33.939892;-118.263773;3;1;1305;5200
2596119338;5939 Cimarron St;Los Angeles;90047;CA;33.98619;-118.315994;3;2;1340;4800
2959946735;1322 W 71st St;Los Angeles;90044;CA;33.975149;-118.298896;3;2;1066;4679
2679362007;501 N Rockingham Ave;Los Angeles;90049;CA;34.064011;-118.490867;4;5;4759;23440
2989357787;3551 Tacoma Ave;Los Angeles;90065;CA;34.097805;-118.225454;2;3;1160;5296
2904293610;2371 Santa Ana S;Los Angeles;90059;CA;33.93425;-118.230316;4;3;1843;3604
2716528992;4332 Alla Rd;Los Angeles;90066;CA;33.989377;-118.433888;2;1;763;2496
2286131783;10435 Oletha Ln;Los Angeles;90077;CA;34.107659;-118.447594;4;3;3054;6238
1897253449;3255 Pyrites St;Los Angeles;90032;CA;34.083239;-118.192363;3;2;1071;6001
1655564214;4546 S Centinela Ave;Los Angeles;90066;CA;33.992248;-118.422041;2;2;2457;4935
9558304749;1444 Forest Knoll Dr;Los Angeles;90069;CA;34.097225;-118.379868;7;11;12748;53779
1476300511;2529 Aberdeen Ave;Los Angeles;90027;CA;34.116322;-118.289265;3;3;3003;10986
2712601302;1959 Lohengrin St;Los Angeles;90047;CA;33.934431;-118.313511;4;2;1470;6595
2726054307;1458 W 112th St;Los Angeles;90047;CA;33.932348;-118.302205;3;1;1036;5250
1333742079;5280 Los Bonitos Way;Los Angeles;90027;CA;34.109311;-118.305761;5;6;4453;13800
1150989897;1443 Devlin Dr;Los Angeles;90069;CA;34.095616;-118.387495;4;6;6500;13303
1354654751;6756 Gill Way;Los Angeles;90068;CA;34.119209;-118.340945;3;4;1859;5410
2044133049;211 S Citrus Ave;Los Angeles;90036;CA;34.070611;-118.340004;5;3;3226;6752
1032027317;1134 Isabel St;Los Angeles;90065;CA;34.096179;-118.223715;3;2;1386;2966
1770657893;2110 Country Hill Ln;Los Angeles;90049;CA;34.104155;-118.485085;4;5;4437;7744
1731752249;2498 Mandeville Canyon Rd;Los Angeles;90049;CA;34.082846;-118.502985;5;4;3144;9910
1466984025;4763 Bryn Mawr Rd;Los Angeles;90027;CA;34.115692;-118.294802;2;2;2023;12606
2531116162;845 E 111th Pl;Los Angeles;90059;CA;33.935879;-118.25935;2;1;1045;4826
2435031967;2533 Coolidge Ave;Los Angeles;90064;CA;34.029449;-118.440757;4;4;2411;5401
2056455481;6214 6th Ave;Los Angeles;90043;CA;33.983185;-118.323247;3;2;1415;4801
2018150464;601 E 103rd St;Los Angeles;90002;CA;33.943918;-118.264609;3;1;1327;7646
2393148197;4279 S Harvard Blvd;Los Angeles;90062;CA;34.005221;-118.307051;3;2;1571;5852
1821165841;6426 Fairfield St;Los Angeles;90022;CA;34.010979;-118.134617;2;1;877;3990
2459816967;3408 W Martin Luther King Jr Blvd;Los Angeles;90008;CA;34.010616;-118.331803;4;3;2524;6852
1005967050;1489 Stebbins Ter;Los Angeles;90069;CA;34.097428;-118.382003;3;4;3564;6974
1114001018;2600 Zorada Dr;Los Angeles;90046;CA;34.118618;-118.361786;5;6;4690;11003
1172129680;4957 W Melrose Hill;Los Angeles;90029;CA;34.085374;-118.307086;7;6;5004;12994
1942889707;1259 S Bronson Ave;Los Angeles;90019;CA;34.048286;-118.325438;3;1;1284;7484
1789606662;455 Lorraine Blvd;Los Angeles;90020;CA;34.065679;-118.320397;6;8;9329;35972
2715386801;W St;Los Angeles;90062;CA;34.017099;-118.314475;2;2;1160;5158
2137552470;2355 Buckingham Ln;Los Angeles;90077;CA;34.112998;-118.476965;4;4;2960;5197
1394326810;4856 Toland Way;Los Angeles;90042;CA;34.116798;-118.213755;4;3;1718;7841
1947991993;2241 S Beverly Dr;Los Angeles;90034;CA;34.04239;-118.395503;4;3;2241;7410
1291518298;2035 W 29th Pl;Los Angeles;90018;CA;34.028499;-118.310043;3;2;1584;6255
1191190157;400 W Avenue 45;Los Angeles;90065;CA;34.099639;-118.211325;3;2;1118;6630
2740140833;1923 Van Wick St;Los Angeles;90047;CA;33.936986;-118.312341;3;1;1164;6201
1090004900;1858 W 78th Pl;Los Angeles;90047;CA;33.967903;-118.310995;4;3;1760;6700
1706388664;3615 Patio Pl;Los Angeles;90032;CA;34.087092;-118.166797;3;2;1002;3611
1664161276;611 W 91st St;Los Angeles;90044;CA;33.954445;-118.285097;3;2;884;6041
2077222058;3985 Strang St;Los Angeles;90063;CA;34.032009;-118.180544;4;2;1280;2848
1934828891;812 Record Ave;Los Angeles;90063;CA;34.045743;-118.182085;1;1;400;2222
1751216444;10486 Sandal Ln;Los Angeles;90077;CA;34.098745;-118.444706;3;4;2835;9500
1694858966;1336 N Tigertail Rd;Los Angeles;90049;CA;34.081345;-118.487676;4;5;2995;16156
1268794297;12808 Greene Ave;Los Angeles;90066;CA;33.988145;-118.42874;5;4;2414;6050
1489363187;1630 S Ridgeley Dr;Los Angeles;90019;CA;34.043109;-118.357514;4;4;1566;5257
1326204667;784 Terrace 49;Los Angeles;90042;CA;34.112183;-118.208784;3;2;1468;6561
2826682409;1760 Courtney Ave;Los Angeles;90046;CA;34.10352;-118.357191;7;8;11137;45172
2045325560;211 S Muirfield Rd;Los Angeles;90004;CA;34.071091;-118.329222;8;12;10179;30222
2873945163;2334 Vestal Ave;Los Angeles;90026;CA;34.093884;-118.248775;3;3;2514;6250
1884072219;4715 Los Feliz Blvd;Los Angeles;90027;CA;34.111382;-118.292517;6;7;10050;17006
2698244468;3963 3rd Ave;Los Angeles;90008;CA;34.012211;-118.320664;2;1;1296;5200
2503753514;4131 Don Mariano Dr;Los Angeles;90008;CA;34.006618;-118.3434;4;3;3193;7784
1015544398;1345 Londonderry Pl;Los Angeles;90069;CA;34.094436;-118.379434;4;5;3865;8873
1444587194;2720 Glendower Ave;Los Angeles;90027;CA;34.116675;-118.295532;4;3;3662;21144
2321457970;757 W 108th St;Los Angeles;90044;CA;33.938494;-118.288935;3;2;1076;4802
1112928529;2695 Dobinson St;Los Angeles;90033;CA;34.051745;-118.198372;2;1;816;3450
2103075175;2717 W 76th St;Los Angeles;90043;CA;33.971225;-118.323779;2;1;1137;6708
1739978574;4855 Ascot Ave;Los Angeles;90011;CA;33.999085;-118.250105;2;1;700;1174
2107490227;2942 Motor Ave;Los Angeles;90064;CA;34.038471;-118.407393;5;5;3860;6874
2442212921;1649 Selby Ave;Los Angeles;90024;CA;34.053243;-118.43643;3;2;1589;6669
2016026305;851 E 105th St;Los Angeles;90002;CA;33.941254;-118.259091;3;2;1071;5394
1266707404;12430 Short Ave;Los Angeles;90066;CA;33.992238;-118.42409;4;2;1302;4600
2768519812;3414 Hollydale Dr;Los Angeles;90039;CA;34.113598;-118.261483;3;2;1058;5397
2328119127;4249 S Budlong Ave;Los Angeles;90037;CA;34.005896;-118.296195;3;1;1367;5994
2695263192;3995 Dublin Ave;Los Angeles;90008;CA;34.011767;-118.322486;3;2;1699;8631
9801738687;6521 Homewood Ave;Los Angeles;90028;CA;34.09548;-118.331253;3;4;2140;5983
2724732329;3170 Glenmanor Pl;Los Angeles;90039;CA;34.118133;-118.261819;5;3;1820;4526
2702670891;3952 Revere Ave;Los Angeles;90039;CA;34.125102;-118.263442;3;2;1783;5401
2493924751;10975 Hickory St;Los Angeles;90059;CA;33.935368;-118.236162;3;2;1056;5005
2951931408;1635 Sunset Plaza Dr;Los Angeles;90069;CA;34.100872;-118.381856;3;3;1991;5058
1467841142;5160 Linwood Dr;Los Angeles;90027;CA;34.106738;-118.302733;4;5;4825;14052
1903818552;9807 Defiance Ave;Los Angeles;90002;CA;33.947295;-118.245489;2;1;624;3327
2175114614;1312 W 93rd St;Los Angeles;90044;CA;33.951799;-118.298639;3;1;1729;9252
2554696057;5616 Aladdin St;Los Angeles;90008;CA;34.016591;-118.368575;2;2;1764;7096
2766498187;3762 Brilliant Dr;Los Angeles;90065;CA;34.112525;-118.226416;3;4;1937;4899
2620256296;540 W 109th St;Los Angeles;90044;CA;33.937101;-118.2841;3;2;1230;4887
2904213332;3609 3rd Ave;Los Angeles;90018;CA;34.022543;-118.320426;3;3;1958;5807
2557806800;1075 N Wilton Pl;Los Angeles;90038;CA;34.090324;-118.313869;3;2;1260;5016
1726624070;3123 Stockbridge Ave;Los Angeles;90032;CA;34.081743;-118.163667;3;1;1432;5001
2421951622;2800 Veteran Ave;Los Angeles;90064;CA;34.032379;-118.425532;5;3;1778;8302
2649753253;2023 Kenilworth Ave;Los Angeles;90039;CA;34.095864;-118.267433;2;2;1773;11953
1321300084;2856 Palmer Dr;Los Angeles;90065;CA;34.132267;-118.228527;3;3;1974;4960
1124392008;3723 Carlota Blvd;Los Angeles;90031;CA;34.088685;-118.209366;3;3;1496;4997
1791959491;1925 S Sherbourne Dr;Los Angeles;90034;CA;34.043017;-118.382401;3;3;1981;6595
2310576315;716 W 107th St;Los Angeles;90044;CA;33.938831;-118.287615;2;1;864;4803
1280505249;2606 Canyon Dr;Los Angeles;90068;CA;34.11828;-118.315939;3;4;2581;9283
2833696842;8661 Hillside Ave;Los Angeles;90069;CA;34.101415;-118.374575;3;6;4668;8941
1558105797;2718 Forrester Dr;Los Angeles;90064;CA;34.043797;-118.403774;6;10;4874;6477
2161326918;3180 Oakshire Dr;Los Angeles;90068;CA;34.127881;-118.351864;4;3;2922;5628
2290229110;1021 W 101st St;Los Angeles;90044;CA;33.945205;-118.292628;2;1;901;6920
1990619156;410 N Kilkea Dr;Los Angeles;90048;CA;34.078473;-118.366596;5;4;4500;6307
2611936545;5272 Veronica St;Los Angeles;90008;CA;34.01277;-118.360794;4;3;2894;9797
1678312888;2468 Pesquera Dr;Los Angeles;90049;CA;34.08046;-118.508523;2;2;1665;7640
2957114523;1018 W 65th Pl;Los Angeles;90044;CA;33.979637;-118.292539;3;2;1032;3001
1026529627;1423 W 122nd St;Los Angeles;90047;CA;33.922396;-118.301145;3;2;1562;7000
1262878458;3396 Tareco Dr;Los Angeles;90068;CA;34.129298;-118.34151;3;4;3206;9152
2561909203;6006 S Wilton Pl;Los Angeles;90047;CA;33.985039;-118.314564;2;2;1020;4106
2432306478;2004 Allesandro St;Los Angeles;90039;CA;34.09163;-118.257215;2;1;952;16622
1073366770;167 W 89th St;Los Angeles;90003;CA;33.955782;-118.276138;6;3;2808;5401
2838654315;2366 Edgewater Ter;Los Angeles;90039;CA;34.099094;-118.259968;3;2;1178;3589
1985679233;1849 Walgrove Ave;Los Angeles;90066;CA;34.003469;-118.451348;2;2;758;5624
1257003738;8007 Handley Ave;Los Angeles;90045;CA;33.965895;-118.379213;3;3;1368;5597
9810757814;3325 Thelma Ave;Los Angeles;90032;CA;34.084309;-118.179253;3;2;1325;4801
1075972086;2912 S Genesee Ave;Los Angeles;90016;CA;34.028865;-118.370634;4;3;1831;5455
1435009847;2401 N Commonwealth Ave;Los Angeles;90027;CA;34.114517;-118.285958;4;3;3165;6800
2236566153;1936 W 92nd St;Los Angeles;90047;CA;33.952451;-118.312699;2;2;1282;5417
1826571328;833 N Sydney Dr;Los Angeles;90022;CA;34.046093;-118.173003;3;2;1116;3986
2306588859;1644 W 106th St;Los Angeles;90047;CA;33.939756;-118.306228;3;2;1360;5810
2306748622;2397 Yorkshire Dr;Los Angeles;90065;CA;34.110643;-118.231045;3;3;2103;9487
2142038904;6421 W Olympic Blvd;Los Angeles;90048;CA;34.059278;-118.3705;3;2;1524;7000
1120190313;1232 W 74th St;Los Angeles;90044;CA;33.97245;-118.297414;3;1;1230;5593
1600370206;6295 Church St;Los Angeles;90042;CA;34.124648;-118.179785;3;2;1368;6035
2762865080;248 S Van Ness Ave;Los Angeles;90004;CA;34.069709;-118.315208;5;6;4141;17864
1199715834;125 E 75th St;Los Angeles;90003;CA;33.972383;-118.272965;3;2;1632;3848
1342076810;2106 Charlotte St;Los Angeles;90033;CA;34.057479;-118.204757;2;1;834;3581
1507644317;1323 W 80th St;Los Angeles;90044;CA;33.966697;-118.299112;3;2;1974;4683
1266587382;2937 S Harvard Blvd;Los Angeles;90018;CA;34.027984;-118.306969;3;2;1652;6368
2139203544;1907 Fairburn Ave;Los Angeles;90025;CA;34.053162;-118.426539;3;2;1815;6033
2141099032;582 N Bronson Ave;Los Angeles;90004;CA;34.081247;-118.317612;2;2;1102;4848
1538666029;1908 S Curson Ave;Los Angeles;90016;CA;34.040357;-118.362918;3;2;1345;5750
1029220999;9274 Warbler Way;Los Angeles;90069;CA;34.098737;-118.39162;5;6;5000;6186
1330722070;1470 W Adams Blvd;Los Angeles;90007;CA;34.032397;-118.293595;12;8;4313;12763
1712858416;4047 Mandeville Canyon Rd;Los Angeles;90049;CA;34.125478;-118.508544;4;3;2764;20970
2650171402;3807 Olmsted Ave;Los Angeles;90008;CA;34.017118;-118.328368;3;2;1423;6020
2825152672;1334 N Genesee Ave;Los Angeles;90046;CA;34.095432;-118.357848;3;2;2146;6747
1277849921;12448 Gilmore Ave;Los Angeles;90066;CA;33.991417;-118.423963;4;3;1751;4800
9291455940;5666 W Lexington Ave Unit 1;Los Angeles;90038;CA;34.092489;-118.313211;5;1;2799;7501
2399716449;546 W 105th St;Los Angeles;90044;CA;33.940499;-118.284358;3;2;1229;4783
1995227538;5830 Madden Ave;Los Angeles;90043;CA;33.988145;-118.325156;3;1;1016;1016
1491508164;112 W 81st St;Los Angeles;90003;CA;33.96581;-118.274425;2;2;783;2249
2931546938;8401 Hillside Ave;Los Angeles;90069;CA;34.099375;-118.37256;3;4;2295;3968
1351869529;2536 Vasanta Way;Los Angeles;90068;CA;34.115768;-118.323796;2;2;1362;6504
1032707795;2307 Castilian Dr;Los Angeles;90068;CA;34.112156;-118.343672;4;5;3695;21693
1741660524;226 E 78th St;Los Angeles;90003;CA;33.968512;-118.270856;3;2;1340;5400
2324837490;1877 Rising Glen Rd;Los Angeles;90069;CA;34.103984;-118.384938;4;7;8339;23091
2833250754;3005 Finch St;Los Angeles;90039;CA;34.112375;-118.260899;4;3;2227;7094
2443635325;2419 Berkeley Ave;Los Angeles;90026;CA;34.085528;-118.263777;3;3;1534;7998
1051211053;1912 W 74th St;Los Angeles;90047;CA;33.972495;-118.311689;3;2;1528;6702
1822133532;11350 W Sunset Blvd;Los Angeles;90049;CA;34.073283;-118.46454;4;4;2817;12994
2075175580;357 N Harper Ave;Los Angeles;90048;CA;34.077733;-118.369272;3;4;2900;6360
1988333338;5930 7th Ave;Los Angeles;90043;CA;33.986352;-118.324196;4;3;2016;4800
2516751104;966 Maltman Ave;Los Angeles;90026;CA;34.086039;-118.279242;2;2;1762;5841
1060788401;1926 W 74th St;Los Angeles;90047;CA;33.972496;-118.312184;3;2;2088;6703
1648588391;2143 Sunset Plaza Dr;Los Angeles;90069;CA;34.105706;-118.384672;3;5;4111;5976
1985948318;5922 7th Ave;Los Angeles;90043;CA;33.986572;-118.324195;2;1;1079;4801
2489749743;5402 Shenandoah Ave;Los Angeles;90056;CA;33.993223;-118.37756;3;4;2578;8978
1468866918;2215 Virginia Rd;Los Angeles;90016;CA;34.036224;-118.337304;10;5;3586;6984
2825507661;1667 W 35th St;Los Angeles;90018;CA;34.023995;-118.308022;2;1;1375;6800
1981020990;3612 Maplewood Ave;Los Angeles;90066;CA;34.002906;-118.446841;3;2;1416;4900
2488672179;1375 N Doheny Dr;Los Angeles;90069;CA;34.095942;-118.392296;5;9;10613;17433
1296753200;3346 N Knoll Dr;Los Angeles;90068;CA;34.129392;-118.344552;2;3;2100;5789
2328506308;639 S Ford Blvd;Los Angeles;90022;CA;34.026897;-118.170233;3;2;818;4096
2142246756;3000 Passmore Dr;Los Angeles;90068;CA;34.126656;-118.351412;2;2;1604;5336
1863163335;855 N Beverly Glen Blvd;Los Angeles;90077;CA;34.091003;-118.438964;3;2;1441;8908
9565710314;1109 Oneonta Dr;Los Angeles;90065;CA;34.116294;-118.216306;4;4;3740;17285
1955052926;4714 Via Mia;Los Angeles;90032;CA;34.091042;-118.183292;1;1;828;5715
2376338108;2605 S Bentley Ave;Los Angeles;90064;CA;34.033182;-118.431756;3;2;1432;5131
2766011621;6857 Sunny Cv;Los Angeles;90068;CA;34.120965;-118.343536;2;1;982;9039
1147598696;1654 N Doheny Dr;Los Angeles;90069;CA;34.101026;-118.38875;4;5;5120;13451
2424394727;812 N Kilkea Dr;Los Angeles;90046;CA;34.085887;-118.366636;3;3;1781;6551
1034670050;1149 Marietta St;Los Angeles;90023;CA;34.026962;-118.21464;3;2;1248;4999
1015332174;1016 Del Rio Ave;Los Angeles;90065;CA;34.095709;-118.221707;3;4;1349;4800
1352577582;3133 Deronda Dr;Los Angeles;90068;CA;34.127099;-118.321516;4;5;3660;8429
1949027215;825 N Bonnie Beach Pl;Los Angeles;90063;CA;34.045904;-118.181447;2;2;1000;7262
2764036526;2125 Rockledge Rd;Los Angeles;90068;CA;34.109263;-118.338224;3;2;1640;2465
2580120876;10816 Willowbrook Ave;Los Angeles;90059;CA;33.937423;-118.241938;2;1;912;7842
2425540525;5326 Shenandoah Ave;Los Angeles;90056;CA;33.993624;-118.377569;5;3;2816;8978
1259412726;3438 Troy Dr;Los Angeles;90068;CA;34.134939;-118.344248;2;2;1110;4648
1971605302;911 E 94th St;Los Angeles;90002;CA;33.951397;-118.25818;4;2;1587;5027
1879156722;6716 Colgate Ave;Los Angeles;90048;CA;34.070265;-118.374277;3;2;1575;6046
1585838414;7315 Ogelsby Ave;Los Angeles;90045;CA;33.9762;-118.400253;3;2;1782;6203
9515676103;7824 S San Pedro St;Los Angeles;90003;CA;33.968014;-118.269165;2;1;1530;6140
1033953773;2644 Greenvalley Rd;Los Angeles;90046;CA;34.117357;-118.390918;4;3;3024;19484
1261041055;2760 Fyler Pl;Los Angeles;90065;CA;34.131448;-118.226605;3;1;972;4973
1307139025;1860 Chickasaw Ave;Los Angeles;90041;CA;34.13751;-118.207909;3;2;992;2750
2899145164;3423 S Gramercy Pl;Los Angeles;90018;CA;34.024818;-118.314139;3;3;1719;5288
1445523917;720 Holmby Ave;Los Angeles;90024;CA;34.069571;-118.431812;5;6;4975;14109
2033648724;3477 W 71st St;Los Angeles;90043;CA;33.975894;-118.333336;2;1;835;3842
1261909544;3440 Troy Dr;Los Angeles;90068;CA;34.134763;-118.344121;4;3;4750;9196
1971793557;1785 Bel Air Rd;Los Angeles;90077;CA;34.100871;-118.450885;3;2;2271;569329
1010516644;1637 W 67th St;Los Angeles;90047;CA;33.978688;-118.305866;4;2;1147;4054
2072236645;3067 Dannyhill Dr;Los Angeles;90064;CA;34.036179;-118.402946;5;6;5343;10302
2590881287;4600 Don Zarembo Dr;Los Angeles;90008;CA;34.004809;-118.355528;3;3;2076;6896
1360377536;2685 Cunard St;Los Angeles;90065;CA;34.127355;-118.225333;4;2;1707;6933
1135412733;1618 Sunset Plaza Dr;Los Angeles;90069;CA;34.100849;-118.380987;5;6;4275;5101
1837158005;630 S Rossmore Ave;Los Angeles;90005;CA;34.062765;-118.327025;4;4;4597;30013
2370900429;1301 W 41st Pl;Los Angeles;90037;CA;34.008442;-118.298201;7;3;2632;6351
1757316686;555 N Tigertail Rd;Los Angeles;90049;CA;34.069901;-118.47936;7;9;8135;37963
2568493902;425 E 111th Pl;Los Angeles;90061;CA;33.934194;-118.266332;4;3;2086;6536
2547827751;421 E 41st St;Los Angeles;90011;CA;34.009406;-118.268347;4;3;1274;4278
2158717599;443 W 99th St;Los Angeles;90003;CA;33.946716;-118.281791;2;1;1157;5424
2868288963;1253 W 37th Dr;Los Angeles;90007;CA;34.019296;-118.296063;3;2;2212;6600
1680098504;12907 Zanja St;Los Angeles;90066;CA;33.997248;-118.43972;4;2;1638;3337
2276925169;1505 W 103rd St;Los Angeles;90047;CA;33.94346;-118.302555;3;2;1827;8642
2977797121;1538 W 64th St;Los Angeles;90047;CA;33.98117;-118.303751;3;1;1024;4761
1487621134;13819 Stanford Ave;Los Angeles;90059;CA;33.905849;-118.262962;3;1;759;2299
2827213671;2566 Armstrong Ave;Los Angeles;90039;CA;34.103522;-118.262998;3;2;1555;7618
2410141467;4325 S Van Ness Ave;Los Angeles;90062;CA;34.004714;-118.317396;3;1;1076;5063
1841890779;550 S Lucerne Blvd;Los Angeles;90020;CA;34.063853;-118.323991;5;5;4562;11949
2644461489;2229 Kenilworth Ave;Los Angeles;90039;CA;34.099895;-118.267527;3;3;2277;5484
9931432044;5506 W Olympic Blvd;Los Angeles;90036;CA;34.057087;-118.349564;2;3;1474;1542
1189837211;2913 Westbrook Ave;Los Angeles;90046;CA;34.123088;-118.361706;4;6;3100;7270
1988457731;411 N Laurel Ave;Los Angeles;90048;CA;34.07848;-118.365093;4;5;4093;6569
1960378807;5511 S Saint Andrews Pl;Los Angeles;90062;CA;33.991921;-118.311692;2;1;1443;9513
1113665624;2514 Apollo Dr;Los Angeles;90046;CA;34.116829;-118.366064;3;3;2364;13026
2064964711;144 S Hobart Blvd;Los Angeles;90004;CA;34.072441;-118.305167;2;2;1339;7048
1807786144;1714 Stone Canyon Rd;Los Angeles;90077;CA;34.104495;-118.459908;8;13;17415;207851
9091331077;140 S Vendome St;Los Angeles;90057;CA;34.070614;-118.282677;7;2;1675;4230
2416923868;4164 Arlington Ave;Los Angeles;90008;CA;34.008448;-118.317878;3;2;1776;7410
1946825376;1234 Stradella Rd;Los Angeles;90077;CA;34.095165;-118.454301;3;3;3131;196020
2126258963;323 E 97th St;Los Angeles;90003;CA;33.948569;-118.26868;3;2;1038;5084
2708503974;215 S Medio Dr;Los Angeles;90049;CA;34.054543;-118.481732;3;4;2277;6277
1251875559;12439 Culver Blvd;Los Angeles;90066;CA;33.990468;-118.422052;4;2;1808;5008
2070141529;4118 E 2nd St;Los Angeles;90063;CA;34.033946;-118.176752;3;2;1597;5977
1495162153;616 Perugia Way;Los Angeles;90077;CA;34.080645;-118.448621;5;7;5987;28340
2212557440;1633 W 48th St;Los Angeles;90062;CA;34.000362;-118.307949;2;1;1316;5615
2043538720;7303 W 89th St;Los Angeles;90045;CA;33.956039;-118.422549;4;5;3890;8002
1131404486;6239 Crestwood Way;Los Angeles;90042;CA;34.131925;-118.185919;3;4;2064;4661
2643742064;1335 N Normandie Ave;Los Angeles;90027;CA;34.096262;-118.300814;3;2;2130;5736
2427306544;10820 Wellworth Ave;Los Angeles;90024;CA;34.05745;-118.439803;6;4;3362;6617
9015669808;658 Lillian Way;Los Angeles;90004;CA;34.083179;-118.327446;3;2;2088;7157
2797206364;401 E 61st St;Los Angeles;90003;CA;33.984535;-118.267242;1;1;789;5419
9584070030;;Los Angeles;90038;CA;34.093018;-118.336945;3;4;1924;1500
1078933766;2120 Stanley Hills Dr;Los Angeles;90046;CA;34.109191;-118.377147;3;2;1580;3751
1151468514;16501 Mulholland Dr;Los Angeles;90049;CA;34.1319;-118.492965;8;12;11325;128846
2030326981;5435 Alviso Ave;Los Angeles;90043;CA;33.991971;-118.344148;2;1;1410;5960
1024089671;2675 Carleton Ave;Los Angeles;90065;CA;34.091801;-118.225195;3;2;1108;4006
1242470020;5966 Abernathy Dr;Los Angeles;90045;CA;33.971377;-118.387538;6;7;5463;13839
1668847338;2333 Mandeville Canyon Rd;Los Angeles;90049;CA;34.078398;-118.502024;6;8;10600;26785
1696808168;11001 W Sunset Blvd;Los Angeles;90049;CA;34.075886;-118.456102;5;6;5000;35998
9115220024;809 N Detroit St;Los Angeles;90046;CA;34.085552;-118.345441;3;3;1934;6604
1737319396;5040 Williams Pl;Los Angeles;90032;CA;34.067835;-118.174948;1;2;601;4857
1112510380;2235 Hercules Dr;Los Angeles;90046;CA;34.111244;-118.364986;5;7;6162;13778
1407781741;7728 Henefer Ave;Los Angeles;90045;CA;33.972211;-118.403154;5;5;3522;7392
1754380900;8424 Loyola Blvd;Los Angeles;90045;CA;33.961046;-118.416341;3;3;1218;7876
1739056374;2794 Mandeville Canyon Rd;Los Angeles;90049;CA;34.090301;-118.502992;6;6;6099;36015
2609945003;1632 W 60th Pl;Los Angeles;90047;CA;33.984791;-118.305696;2;1;1324;4690
1963497773;1022 S Longwood Ave;Los Angeles;90019;CA;34.056256;-118.338369;5;4;2858;6190
2386761200;1732 Midvale Ave;Los Angeles;90024;CA;34.051004;-118.438965;5;4;3359;6630
2596558551;750 Marzella Ave;Los Angeles;90049;CA;34.075421;-118.47717;3;2;2340;20695
1076370639;2131 Judson St;Los Angeles;90033;CA;34.052862;-118.207395;3;2;1197;5727
2818567972;2237 Brier Ave;Los Angeles;90039;CA;34.10039;-118.257684;1;1;576;7492
2068604178;6658 Madden Ave;Los Angeles;90043;CA;33.978313;-118.325321;2;1;736;2600
2330737190;1160 W 103rd St;Los Angeles;90044;CA;33.943002;-118.29603;2;1;1129;4409
1144803750;1790 Viewmont Dr;Los Angeles;90069;CA;34.103315;-118.381038;3;3;2850;5789
1494565898;10770 Chalon Rd;Los Angeles;90077;CA;34.082397;-118.452094;4;5;;25213
2101166389;12613 Brooklake St;Los Angeles;90066;CA;34.012017;-118.444249;4;5;3440;5698
1526162342;3950 Franklin Ave;Los Angeles;90027;CA;34.105153;-118.277859;2;1;1247;4225
1463806974;4215 Lyceum Ave;Los Angeles;90066;CA;33.991479;-118.435502;3;2;1517;5515
2566791041;5918 S Van Ness Ave;Los Angeles;90047;CA;33.98673;-118.317364;3;1;1032;4826
2192829235;3113 Gilmerton Ave;Los Angeles;90064;CA;34.034149;-118.412666;3;3;2296;6412
1361223280;6210 Temple Hill Dr;Los Angeles;90068;CA;34.111067;-118.324558;5;7;4529;6325
1999545312;5317 Valley Ridge Ave;Los Angeles;90043;CA;33.993661;-118.344619;4;5;2080;8259
1529237745;1883 S Cochran Ave;Los Angeles;90019;CA;34.042071;-118.354958;3;2;2085;8682
2887833987;8303 Marmont Ln;Los Angeles;90069;CA;34.098258;-118.370508;4;3;2826;3528
1617489795;6404 Planada Ave;Los Angeles;90042;CA;34.120625;-118.177547;2;1;887;8297
1780953287;2331 Chislehurst Dr;Los Angeles;90027;CA;34.112158;-118.299511;7;11;9976;16954
2723920702;3839 S Van Ness Ave;Los Angeles;90062;CA;34.016211;-118.317392;2;1;867;5099
1378361363;1518 Bel Air Rd;Los Angeles;90077;CA;34.098098;-118.446081;6;10;9310;18772
2029325875;6001 2nd Ave;Los Angeles;90043;CA;33.985338;-118.319916;3;3;2039;4800
1016297940;1916 W Court St;Los Angeles;90026;CA;34.068367;-118.266986;3;3;1724;2006
1210855753;652 N Cahuenga Blvd;Los Angeles;90004;CA;34.08301;-118.328524;4;4;3326;6923
1232571800;12464 Sanford St;Los Angeles;90066;CA;33.98456;-118.416108;4;3;2057;5009
2549739687;4024 Don Felipe Dr;Los Angeles;90008;CA;34.006928;-118.345764;3;2;1783;9008
1008091209;8718 Lookout Mountain Ave;Los Angeles;90046;CA;34.10914;-118.382914;2;2;1356;5005
2520048177;1673 E Imperial Hwy;Los Angeles;90059;CA;33.929786;-118.243702;4;1;1410;12863
2934465054;112 E Avenue 38;Los Angeles;90031;CA;34.089658;-118.210791;3;3;2577;7845
2452115757;11797 Chaparal St;Los Angeles;90049;CA;34.065838;-118.472881;5;6;6357;17498
2972654421;6617 Raymond Ave;Los Angeles;90044;CA;33.978641;-118.298325;4;2;1376;4522
2337146932;735 W 104th Pl;Los Angeles;90044;CA;33.941765;-118.288243;3;2;1270;4806
2492701546;4230 N Barrett Rd;Los Angeles;90032;CA;34.094282;-118.164528;5;6;4000;11143
1002844935;320 N Bonnie Brae St;Los Angeles;90026;CA;34.068721;-118.265634;4;2;1332;2999
2198786711;415 N Arden Blvd;Los Angeles;90004;CA;34.077955;-118.326346;4;5;2707;7288
2454042214;2127 Valentine St;Los Angeles;90026;CA;34.089578;-118.248209;3;2;1473;5873
2288192782;2322 Selby Ave;Los Angeles;90064;CA;34.043504;-118.426947;3;2;1734;6617
1663954127;1569 S Crescent Heights Blvd;Los Angeles;90035;CA;34.048797;-118.373495;2;1;1236;4134
2956481002;1218 W 69th St;Los Angeles;90044;CA;33.976777;-118.29657;2;1;816;4681
1945099770;5320 Valley Ridge Ave;Los Angeles;90043;CA;33.993681;-118.344083;3;2;1369;5801
1379383167;4427 Mont Eagle Pl;Los Angeles;90041;CA;34.120172;-118.218853;4;3;2696;7754
1239140053;6335 Longview Ave;Los Angeles;90068;CA;34.10816;-118.327858;2;2;;6347
2954987216;8555 Hollywood Blvd;Los Angeles;90069;CA;34.098363;-118.37533;3;4;2761;9487
2949143371;10250 W Sunset Blvd;Los Angeles;90077;CA;34.081067;-118.431533;14;25;30000;122565
9769565677;1120 W Panorama Way;Los Angeles;90012;CA;34.070302;-118.246884;2;3;2066;2111
1312118141;4924 San Rafael Ave;Los Angeles;90042;CA;34.112668;-118.208725;2;1;1316;5868
1188359871;5939 W 76th St;Los Angeles;90045;CA;33.972455;-118.387391;3;4;1805;7048
1678361526;11172 Ophir Dr;Los Angeles;90024;CA;34.068302;-118.455548;5;3;2398;11221
2184604834;12106 Stanwood Dr;Los Angeles;90066;CA;34.017413;-118.439969;4;3;2278;8054
1155750246;2364 Yorkshire Dr;Los Angeles;90065;CA;34.110094;-118.230867;4;3;2997;5014
1168856485;2630 Zorada Dr;Los Angeles;90046;CA;34.119191;-118.362795;4;4;3056;23187
2106578174;2515 W 76th St;Los Angeles;90043;CA;33.971231;-118.321469;3;2;2128;7392
1340134609;3935 Kentucky Dr;Los Angeles;90068;CA;34.135789;-118.363896;3;4;2300;11252
1971269908;9920 Graham Ave;Los Angeles;90002;CA;33.945987;-118.242677;2;1;1076;6651
2369793824;2401 S Holt Ave;Los Angeles;90034;CA;34.038042;-118.382025;2;2;1405;6260
1614241360;2006 S Point View St;Los Angeles;90034;CA;34.039397;-118.373623;3;2;1446;7001
1340999246;4001 Verdugo View Dr;Los Angeles;90065;CA;34.118201;-118.226308;3;2;1545;10589
2786619687;7846 Granito Dr;Los Angeles;90046;CA;34.104506;-118.361238;4;6;5920;9627
1055269892;8871 Sunset Crest Pl;Los Angeles;90046;CA;34.111664;-118.389888;3;3;1911;9814
2228923606;11906 Olive Glen Ln;Los Angeles;90047;CA;33.924902;-118.303164;4;4;2010;1491276600
2339540176;448 N Laurel Ave;Los Angeles;90048;CA;34.079582;-118.364468;3;2;2297;6538
2962403138;1924 Sunset Plaza Dr;Los Angeles;90069;CA;34.103456;-118.381432;4;5;6179;19079
1893794014;9917 Anzac Ave;Los Angeles;90002;CA;33.946137;-118.238195;4;3;1527;6747
2002730587;418 N Crescent Heights Blvd;Los Angeles;90048;CA;34.078753;-118.365527;4;3;2417;6547
2483544000;210 W 50th St;Los Angeles;90037;CA;33.997142;-118.276598;2;1;1304;5463
2197450212;10340 Walavista Rd;Los Angeles;90064;CA;34.031714;-118.412156;3;2;2005;9732
1328321305;7745 Skyhill Dr;Los Angeles;90068;CA;34.133675;-118.364723;4;3;2010;13538
1954066341;2301 Duxbury Cir;Los Angeles;90034;CA;34.042436;-118.396671;8;9;11000;9666
1909387625;1059 S St Andrews Pl;Los Angeles;90019;CA;34.051007;-118.311448;3;2;2202;9196
2664481524;3706 Cherrywood Ave;Los Angeles;90018;CA;34.019691;-118.328758;4;3;1724;5898
2550929048;1924 Federal Ave;Los Angeles;90025;CA;34.039227;-118.448832;2;1;884;6098
1922095311;1180 S Lucerne Blvd;Los Angeles;90019;CA;34.051711;-118.329567;3;2;1780;6041
1247648060;4569 Glenalbyn Dr;Los Angeles;90065;CA;34.098792;-118.20809;1;1;700;27269
1761286472;8419 Loyola Blvd;Los Angeles;90045;CA;33.961213;-118.417018;4;3;1954;7505
1163584317;2527 West Blvd;Los Angeles;90016;CA;34.033532;-118.3413;2;1;1252;4787
2089020840;5107 11th Ave;Los Angeles;90043;CA;33.99656;-118.329733;4;2;2300;7950
2639401544;4532 Don Milagro Dr;Los Angeles;90008;CA;34.009116;-118.35244;3;3;2279;6351
1004223775;134 S Clarence St;Los Angeles;90033;CA;34.04639;-118.22383;4;1;1118;3498
2047710580;130 N Windsor Blvd;Los Angeles;90004;CA;34.074107;-118.319202;4;2;2412;7593
2042107449;2768 Wright Ln;Los Angeles;90068;CA;34.119178;-118.339282;3;4;2194;3394
2444798792;4252 7th Ave;Los Angeles;90008;CA;34.005695;-118.324524;3;2;1270;4273
1510865636;1714 S Marvin Ave;Los Angeles;90019;CA;34.043107;-118.360891;4;3;1708;6660
1536765466;1733 S Crescent Heights Blvd;Los Angeles;90035;CA;34.04583;-118.374413;2;2;1600;7095
1784844845;4670 Mascot St;Los Angeles;90019;CA;34.040545;-118.341934;3;2;1729;5589
1281101504;2531 Mount Beacon Ter;Los Angeles;90068;CA;34.116286;-118.314749;4;4;3081;10938
1018919396;7869 Fareholm Dr;Los Angeles;90046;CA;34.103385;-118.361028;3;4;4580;18487
2575705825;1180 N Hoover St;Los Angeles;90029;CA;34.093162;-118.284294;2;1;840;5500
2121340562;3310 Oakley Dr;Los Angeles;90068;CA;34.130776;-118.355534;4;3;2400;14819
1240186648;1149 E 77th Pl;Los Angeles;90001;CA;33.96917;-118.254844;4;2;1654;5479
1012190463;1254 Sunset Plaza Dr;Los Angeles;90069;CA;34.094155;-118.381875;5;6;6778;10877
1354019581;1357 Neola St;Los Angeles;90041;CA;34.134034;-118.195301;5;3;2147;4363
1653764078;1437 W 88th Pl;Los Angeles;90047;CA;33.95768;-118.301636;4;2;1590;4520
1621976229;8838 Haas Ave;Los Angeles;90047;CA;33.956849;-118.316785;2;2;1536;5015
2541317584;4236 Don Tapia Pl;Los Angeles;90008;CA;34.006288;-118.349144;3;3;2888;6752
2333049604;10423 Scenario Ln;Los Angeles;90077;CA;34.108932;-118.447597;0;1;655;4674
2019098560;1025 S Burnside Ave;Los Angeles;90019;CA;34.056551;-118.352026;4;3;2520;7366
1687681160;5180 Templeton St;Los Angeles;90032;CA;34.084525;-118.170234;3;2;1099;3620
1551101481;2119 Gates St;Los Angeles;90031;CA;34.069685;-118.206687;2;2;854;3642
1593901062;101 S Mariposa Ave;Los Angeles;90004;CA;34.072627;-118.29969;4;2;1890;4796
2818407536;1328 N Spaulding Ave;Los Angeles;90046;CA;34.095231;-118.356756;2;2;1336;6782
1909138136;5415 8th Ave;Los Angeles;90043;CA;33.992653;-118.326114;2;2;1350;6075
1334477706;3839 Sunbeam Dr;Los Angeles;90065;CA;34.117584;-118.228554;3;4;2868;6780
2268623087;428 N Las Palmas Ave;Los Angeles;90004;CA;34.079218;-118.335313;6;4;4405;13726
1900576415;8819 S Budlong Ave;Los Angeles;90044;CA;33.957301;-118.29606;2;1;827;2473
2286148777;1548 Chia Way;Los Angeles;90041;CA;34.122751;-118.221787;3;3;1883;1512
2072798783;1137 S Curson Ave;Los Angeles;90019;CA;34.054186;-118.358769;4;2;2207;6050
1853984541;1325 W 57th St;Los Angeles;90037;CA;33.991149;-118.298883;3;1;1087;3300
1537353497;6041 Crestwood Way;Los Angeles;90042;CA;34.131079;-118.189357;2;1;762;2153
1586458637;3812 Shannon Rd;Los Angeles;90027;CA;34.118828;-118.277932;3;3;2199;7153
2254915791;8517 Franklin Ave;Los Angeles;90069;CA;34.100902;-118.376026;4;6;7640;4622
1002948509;1340 Londonderry Pl;Los Angeles;90069;CA;34.094631;-118.378896;4;5;3743;7627
1808844112;2224 W 20th St;Los Angeles;90018;CA;34.038496;-118.312649;4;2;2912;7802
1515698836;3746 Hellman Ave;Los Angeles;90032;CA;34.089171;-118.184234;3;2;1555;7498
2241801300;322 W 63rd Pl;Los Angeles;90003;CA;33.9817;-118.27921;2;1;626;1613
9709577634;6113 Monterey Rd;Los Angeles;90042;CA;34.107025;-118.183732;3;4;2281;1235
1921808556;5728 6th Ave;Los Angeles;90043;CA;33.990014;-118.323305;2;1;1203;5401
1791131417;1566 Rollins Dr;Los Angeles;90063;CA;34.059837;-118.169489;6;2;1820;5661
2300754553;918 S Kingsley Dr;Los Angeles;90006;CA;34.05518;-118.302742;3;1;2144;6751
2001119928;711 E 98th St;Los Angeles;90002;CA;33.94774;-118.26255;2;1;1077;4800
2648073137;1673 E 33rd St;Los Angeles;90011;CA;34.010797;-118.243662;4;2;1054;4818
1554037267;4026 Baywood St;Los Angeles;90039;CA;34.134966;-118.270341;5;3;1863;7000
1685892395;3538 Lowell Ave;Los Angeles;90032;CA;34.08742;-118.162118;2;1;1462;5397
1591609561;2112 McPherson Ave;Los Angeles;90032;CA;34.068277;-118.181994;2;2;1094;5158
1459654007;5012 Range View Ave;Los Angeles;90042;CA;34.123716;-118.205686;4;2;1828;5201
2625567656;1832 Redcliff St;Los Angeles;90026;CA;34.093345;-118.270494;3;3;2756;6499
2085357405;1329 Carmona Ave;Los Angeles;90019;CA;34.050623;-118.357116;3;2;1657;4757
1115047613;7526 S Hobart Blvd;Los Angeles;90047;CA;33.971191;-118.307546;3;1;1462;5230
1180566215;2839 Cincinnati St;Los Angeles;90033;CA;34.044912;-118.200429;5;3;2382;5899
1785128451;1643 N Beverly Glen Blvd;Los Angeles;90077;CA;34.100331;-118.444609;2;2;1250;4038
1896858045;6426 Maryland Dr;Los Angeles;90048;CA;34.067146;-118.36872;5;5;4047;6203
2235364196;5163 Cimarron St;Los Angeles;90062;CA;33.995545;-118.316337;2;2;1118;5201
1044127376;8718 Crescent Dr;Los Angeles;90046;CA;34.110183;-118.38355;3;2;;8268
1868088737;6115 W 6th St;Los Angeles;90048;CA;34.065203;-118.362048;5;5;5278;7932
2648291657;6061 Raymond Ave;Los Angeles;90044;CA;33.984763;-118.298216;2;1;624;6419
1474328565;438 E 83rd St;Los Angeles;90003;CA;33.963496;-118.265924;4;2;1200;5206
1210092214;2180 W 31st St;Los Angeles;90018;CA;34.026214;-118.314515;4;3;1958;5850
1622199825;9105 S Hobart Blvd;Los Angeles;90047;CA;33.954258;-118.308155;3;2;1229;5628
2975967941;8495 Hillside Ave;Los Angeles;90069;CA;34.101425;-118.372781;3;2;;6970
1678734185;547 Cashmere Ter;Los Angeles;90049;CA;34.066167;-118.457412;3;3;1866;8790
2352755064;4118 4th Ave;Los Angeles;90008;CA;34.010083;-118.321083;4;3;2090;5314
2234348111;840-1/2 W Gage Ave;Los Angeles;90044;CA;33.981487;-118.288458;1;1;450;2366
2655257240;1412 N Mariposa Ave;Los Angeles;90027;CA;34.096961;-118.299093;4;2;1596;6788
2339353846;735 N Orlando Ave;Los Angeles;90069;CA;34.084709;-118.373475;3;4;3227;7802
2921373335;1617 Viewmont Dr;Los Angeles;90069;CA;34.10067;-118.379344;4;4;3750;5053
1466607759;8066 Clinton St;Los Angeles;90048;CA;34.081447;-118.365541;5;4;4300;5345
2232893272;912 S Victoria Ave;Los Angeles;90019;CA;34.056281;-118.323057;4;5;2911;8590
2698861541;434 W 63rd Pl;Los Angeles;90003;CA;33.981685;-118.281709;2;1;572;1409
2180319251;3384 McLaughlin Ave;Los Angeles;90066;CA;34.017547;-118.431453;4;4;2349;6192
1044006131;3837 Coolidge Ave;Los Angeles;90066;CA;34.008026;-118.423321;3;3;1707;5205
1946355440;1255 S Lucerne Blvd;Los Angeles;90019;CA;34.049587;-118.331341;3;1;1380;6142
2129539069;3856 Broadlawn Dr;Los Angeles;90068;CA;34.131854;-118.356446;3;2;1889;7427
2932350891;2391 Yorkshire Dr;Los Angeles;90065;CA;34.1105;-118.231213;3;3;2280;10685
1852531169;1118 W 53rd St;Los Angeles;90037;CA;33.993871;-118.294369;3;2;1893;5171
2309967340;7195 Formosa Fusion Ct;Los Angeles;90046;CA;34.085695;-118.345898;3;4;1548;1159
9142649925;869 Tione Rd;Los Angeles;90077;CA;34.085384;-118.452938;10;23;34380;115434
2132398397;5121 11th Ave;Los Angeles;90043;CA;33.996085;-118.329737;4;2;1654;7523
2276044085;2306 Pelham Ave;Los Angeles;90064;CA;34.044282;-118.424936;5;6;4303;6752
2881062958;2430 Echo Park Ave;Los Angeles;90026;CA;34.095066;-118.24823;5;5;2578;7453
1430798795;2967 Glendower Ave;Los Angeles;90027;CA;34.114903;-118.299629;3;4;2553;18875
2237063909;2017 Parnell Ave;Los Angeles;90025;CA;34.049787;-118.427793;6;6;4289;6761
2044315006;1055 W 110th St;Los Angeles;90044;CA;33.935763;-118.293796;3;2;1014;8122
9534601422;1147 W Alma Ln;Los Angeles;90038;CA;34.092029;-118.341286;3;4;2084;1176
1901396266;9513 Grape St;Los Angeles;90002;CA;33.950099;-118.236612;2;1;722;3376
2459117138;5625 S Sherbourne Dr;Los Angeles;90056;CA;33.990143;-118.375267;5;4;4013;9848
2884405520;8297 Presson Pl;Los Angeles;90069;CA;34.099215;-118.370431;2;3;1812;4961
2000860993;948 Bel Air Rd;Los Angeles;90077;CA;34.09064;-118.44026;0;0;16000;43730
1610179372;1943 S Spaulding Ave;Los Angeles;90016;CA;34.040756;-118.366552;2;1;1095;6734
2136646715;1842 W 51st St;Los Angeles;90062;CA;33.996644;-118.31284;3;2;1252;8058
2130483313;2014 Fairburn Ave;Los Angeles;90025;CA;34.051462;-118.425849;5;6;4114;6077
1377892529;4611 Toland Way;Los Angeles;90041;CA;34.121023;-118.216094;4;3;2084;3642
2989570010;1541 Rising Glen Rd;Los Angeles;90069;CA;34.099771;-118.384488;3;4;2698;9187
2602023804;4223 Don Carlos Dr;Los Angeles;90008;CA;34.00958;-118.356201;4;5;4869;13734
1275176219;3180 Lindo St;Los Angeles;90068;CA;34.131532;-118.34342;5;7;4863;10507
1463896027;419 St Cloud Rd;Los Angeles;90077;CA;34.085695;-118.438454;8;16;;26994
2402370555;822 N Laurel Ave;Los Angeles;90046;CA;34.086176;-118.364512;5;7;3914;6530
2451833832;2233 Aaron St;Los Angeles;90026;CA;34.087598;-118.260719;6;6;2600;7475
1422628107;4121 Michael Ave;Los Angeles;90066;CA;33.991602;-118.438257;2;1;1072;5502
2417818251;1752 W 42nd St;Los Angeles;90062;CA;34.007002;-118.310829;3;2;1134;6159
1251421612;2443 Solar Dr;Los Angeles;90046;CA;34.115642;-118.354856;3;3;2466;5602
1997678866;3464 Greenwood Ave;Los Angeles;90066;CA;34.006651;-118.447322;5;5;3000;5021
1143472081;1774 Westridge Rd;Los Angeles;90049;CA;34.065942;-118.494112;6;5;5868;22303
2325991820;3582 Kelton Ave;Los Angeles;90034;CA;34.020223;-118.414765;3;2;1478;5854
2201964157;7065 Hillside Ave;Los Angeles;90068;CA;34.105546;-118.34549;4;6;5612;14776
1133697031;2942 Virginia Rd;Los Angeles;90016;CA;34.028141;-118.339142;4;3;1836;5298
2388788082;4027 LA Salle Ave;Los Angeles;90062;CA;34.009882;-118.305992;3;2;1701;5185
2089651212;12421 Brooklake St;Los Angeles;90066;CA;34.013285;-118.441874;3;1;1157;6808
2470658208;2712 Butler Ave;Los Angeles;90064;CA;34.027709;-118.435913;3;2;1438;5401
2196644882;1812 W 51st St;Los Angeles;90062;CA;33.996647;-118.311849;5;2;2029;8030
1288182033;3298 N Knoll Dr;Los Angeles;90068;CA;34.129123;-118.342784;4;5;4622;7954
2065147892;4341 Dozier St;Los Angeles;90022;CA;34.041732;-118.172261;1;1;528;3224
2137811405;9236 S Harvard Blvd;Los Angeles;90047;CA;33.951562;-118.306487;3;2;1819;6656
2221630734;543 Wilcox Ave;Los Angeles;90004;CA;34.080199;-118.331283;4;3;2498;13199
1983085138;1957 Linda Flora Dr;Los Angeles;90077;CA;34.105775;-118.466436;6;7;5536;14161
2515578190;9405 Sierra Mar Pl;Los Angeles;90069;CA;34.096892;-118.394313;3;5;5009;18896
2768657503;7911 Hillside Ave;Los Angeles;90046;CA;34.102303;-118.362026;3;4;2300;4195
2642884947;1216 N Virgil Ave;Los Angeles;90029;CA;34.094024;-118.28626;4;4;1826;5751
1804059550;10412 Hebron Ln;Los Angeles;90077;CA;34.104113;-118.446306;3;2;1872;5310
1855604646;6611 W 5th St;Los Angeles;90048;CA;34.068742;-118.371159;4;5;3041;6003
2841168803;12203 S Central Ave;Los Angeles;90059;CA;33.921147;-118.254809;2;2;1380;6727
1994052697;3218 Oakhurst Ave;Los Angeles;90034;CA;34.03223;-118.396382;3;2;1484;5153
1679244536;13240 Chalon Rd;Los Angeles;90049;CA;34.077646;-118.501785;5;6;4349;21850
2581490270;3832 S Cochran Ave;Los Angeles;90008;CA;34.016966;-118.361122;2;2;1656;7205
2976925483;1691 Hill Dr;Los Angeles;90041;CA;34.143963;-118.203383;5;4;2735;8435
2630569516;5347 Stillwater Dr;Los Angeles;90008;CA;34.015789;-118.362703;2;2;1697;8599
1316249125;8919 Thrasher Ave;Los Angeles;90069;CA;34.097588;-118.384934;0;0;;96403
1047121949;5810 S Halm Ave;Los Angeles;90056;CA;33.987473;-118.374821;3;3;2540;8019
1248803304;224 S Avenue 55;Los Angeles;90042;CA;34.105456;-118.194871;2;1;864;7671
1038425686;8968 Wonderland Ave W;Los Angeles;90046;CA;34.108062;-118.389632;3;4;2517;3210
2850948928;2512 Stanford Ave;Los Angeles;90011;CA;34.021229;-118.258883;2;1;1176;2500
1796356872;1903 Preuss Rd;Los Angeles;90034;CA;34.044414;-118.385748;3;2;2630;7871
1000861616;2020 Rosilla Pl;Los Angeles;90046;CA;34.107599;-118.385881;1;2;768;3001
1799166339;1112 W 58th St;Los Angeles;90037;CA;33.989451;-118.294168;3;2;893;4176
1438704250;10633 Le Conte Ave;Los Angeles;90024;CA;34.064801;-118.436888;4;3;3254;8136
2985590778;255 S Coronado St;Los Angeles;90057;CA;34.066754;-118.277626;3;1;1414;3179
2233865335;1069 W Kensington Rd;Los Angeles;90026;CA;34.071922;-118.257945;3;2;1367;9657
2248313149;748 N Detroit St;Los Angeles;90046;CA;34.08485;-118.344832;5;6;5345;6665
2591420680;516 N Virgil Ave;Los Angeles;90004;CA;34.079975;-118.286438;3;1;1036;7004
1487075443;160 N Thurston Ave;Los Angeles;90049;CA;34.075852;-118.463955;4;5;3236;12441
1268494243;4726 College View Ave;Los Angeles;90041;CA;34.132954;-118.220761;2;1;1070;6316
2403470863;1910 W 42nd Pl;Los Angeles;90062;CA;34.006115;-118.314309;4;2;1699;5502
1027767627;8620 Skyline Dr;Los Angeles;90046;CA;34.115791;-118.384491;3;4;3717;10398
2832605860;8010 Fareholm Dr;Los Angeles;90046;CA;34.102269;-118.363389;3;2;2285;4657
2744922246;221 E 59th Pl;Los Angeles;90003;CA;33.986331;-118.271082;3;2;1358;5353
2378027671;10414 Anzac Ave;Los Angeles;90002;CA;33.94107;-118.237664;2;1;798;3251
1353491560;1781 W 24th St;Los Angeles;90018;CA;34.034815;-118.302788;4;2;1271;6651
2941012487;8437 Brier Dr;Los Angeles;90046;CA;34.104715;-118.374551;4;3;2545;6647
2105630078;815 S Spaulding Ave;Los Angeles;90036;CA;34.060346;-118.358858;3;2;1969;5528
1080759797;8115 Amor Rd;Los Angeles;90046;CA;34.120798;-118.375034;2;2;1700;16967
1153394268;1041 W 76th St;Los Angeles;90044;CA;33.971298;-118.29329;3;2;1070;5933
2109841130;1364 S Ridgeley Dr;Los Angeles;90019;CA;34.049201;-118.355201;3;4;1588;6033
1584901691;1916 Jones Ave;Los Angeles;90032;CA;34.064737;-118.186832;3;2;1424;4805
1186036085;2644 Larmar Rd;Los Angeles;90068;CA;34.1163;-118.349411;5;4;3000;12484
1495383822;1320 W 81st Pl;Los Angeles;90044;CA;33.964933;-118.299112;3;3;1812;6608
1173666941;129 E 74th St;Los Angeles;90003;CA;33.973228;-118.27287;4;2;964;3894
1900282904;1800 Melhill Way;Los Angeles;90049;CA;34.066648;-118.500764;2;2;1706;15111
2149095373;2260 Hercules Dr;Los Angeles;90046;CA;34.111937;-118.364803;5;6;4549;15324
2906094299;8430 Grand View Dr;Los Angeles;90046;CA;34.102358;-118.374676;3;3;3226;9196
1431557412;8210 Alverstone Ave;Los Angeles;90045;CA;33.96404;-118.396591;5;4;2238;6791
1674004560;4832 Klamath St;Los Angeles;90032;CA;34.075554;-118.178851;3;2;1486;7478
2838464837;727 S Rampart Blvd;Los Angeles;90057;CA;34.058691;-118.283864;4;2;2128;2936
2432158819;4800 Venice Blvd;Los Angeles;90019;CA;34.046372;-118.340759;2;1;772;2521
2062745202;12566 Indianapolis St;Los Angeles;90066;CA;34.012577;-118.443896;3;4;2063;5700
1475224873;634 Stone Canyon Rd;Los Angeles;90077;CA;34.084206;-118.44364;7;5;7106;94037
1743330585;1743 Virginia Rd;Los Angeles;90019;CA;34.04227;-118.334078;5;5;4230;9692
1763700534;1469 Bel Air Rd;Los Angeles;90077;CA;34.097071;-118.447084;7;12;12339;50314
2370453238;1847 W 43rd Pl;Los Angeles;90062;CA;34.004857;-118.313027;4;2;1348;5626
1727690262;3582 Mandeville Canyon Rd;Los Angeles;90049;CA;34.113971;-118.500342;3;3;1816;10755
2790701271;3863 S Harvard Blvd;Los Angeles;90062;CA;34.015526;-118.307028;3;1;1380;4966
1764303087;128 S Madison Ave;Los Angeles;90004;CA;34.072541;-118.288664;3;2;1320;6242
2220363692;301 N Gower St;Los Angeles;90004;CA;34.076402;-118.322934;3;5;3670;9592
1753679145;5030 Cavanagh Rd;Los Angeles;90032;CA;34.068659;-118.174533;2;1;1008;5105
1315024884;4524 San Andreas Ave;Los Angeles;90065;CA;34.109458;-118.217042;2;1;784;13094
2666866544;3867 Degnan Blvd;Los Angeles;90008;CA;34.015455;-118.330305;3;2;1508;5897
1200657633;5735 W 75th St;Los Angeles;90045;CA;33.971703;-118.381439;3;3;1578;7614
1343256266;1155 S Rimpau Blvd;Los Angeles;90019;CA;34.053104;-118.335666;4;4;2602;7331
1447886193;2101 Arlington Ave;Los Angeles;90018;CA;34.03786;-118.317954;4;2;2047;4199
1212031510;1901 Weepah Way;Los Angeles;90046;CA;34.10618;-118.37401;4;4;2137;3977
1873202395;2731 W 14th St;Los Angeles;90006;CA;34.046577;-118.301321;4;3;1768;
2390476422;10518 Wellworth Ave;Los Angeles;90024;CA;34.060994;-118.430692;3;3;2072;6253
2935012670;1610 Viewmont Dr;Los Angeles;90069;CA;34.10057;-118.378963;6;5;4339;6220
2462347291;470 Layton Way;Los Angeles;90049;CA;34.072678;-118.473198;8;10;25000;198737
1050072256;3501 Hillcrest Dr;Los Angeles;90016;CA;34.023467;-118.343519;3;1;1073;5933
1634534852;8614 S Wilton Pl;Los Angeles;90047;CA;33.959447;-118.314691;2;1;1338;5410
2948610550;6115 Pine Crest Dr;Los Angeles;90042;CA;34.106738;-118.182598;4;3;4314;6561
2962552202;1600 Sunset Plaza Dr;Los Angeles;90069;CA;34.100101;-118.380373;3;3;2511;6338
2563341756;4040 Mantova Dr;Los Angeles;90008;CA;34.011721;-118.359923;3;4;2100;5963
2100205698;7023 6th Ave;Los Angeles;90043;CA;33.97568;-118.32388;2;1;1128;6002
1133614276;3174 Weldon Ave;Los Angeles;90065;CA;34.121188;-118.240276;2;1;704;5724
2500175983;4342 Don Luis Dr;Los Angeles;90008;CA;34.005828;-118.349299;3;3;1746;8965
2899042812;1002 W 124th St;Los Angeles;90044;CA;33.919979;-118.292022;3;2;1674;5353
1211696117;1941 Weepah Way;Los Angeles;90046;CA;34.107166;-118.374489;4;5;2358;5027
2280564636;3524 Military Ave;Los Angeles;90034;CA;34.020188;-118.41841;4;4;2520;5911
2370974961;4247 Kenwood Ave;Los Angeles;90037;CA;34.005913;-118.299402;4;2;1776;6050
2083883215;6520 6th Ave;Los Angeles;90043;CA;33.980079;-118.32327;4;3;2265;4800
2352419671;2627 S Cloverdale Ave;Los Angeles;90016;CA;34.031722;-118.358003;3;2;1175;3607
1885365613;530 Montecito Dr;Los Angeles;90031;CA;34.092081;-118.20196;2;1;1024;7118
2975558016;8803 Appian Way;Los Angeles;90046;CA;34.105888;-118.380889;4;4;3439;9675
2657874079;1536 E 33rd St;Los Angeles;90011;CA;34.01147;-118.24779;3;1;1404;7109
1301555677;2746 W 14th St;Los Angeles;90006;CA;34.046053;-118.301745;4;3;1440;5433
2932489959;2350 Glover Pl;Los Angeles;90031;CA;34.091844;-118.234757;2;2;666;4593
1759291781;12444 Rochedale Ln;Los Angeles;90049;CA;34.072648;-118.486601;3;3;2085;9265
2421935175;8207 Clinton St;Los Angeles;90048;CA;34.081678;-118.36842;2;2;1050;3459
1509387838;216 W 52nd Pl;Los Angeles;90037;CA;33.994493;-118.276718;2;1;960;2958
2651708752;621 W 113th St;Los Angeles;90044;CA;33.932215;-118.285656;4;2;1716;5327
1396898160;1125 Oban Dr;Los Angeles;90065;CA;34.116583;-118.218409;2;3;1432;3441
1525574311;2137 Alta St;Los Angeles;90031;CA;34.070144;-118.204097;3;2;1258;7044
1874913479;1716 S Crest Dr;Los Angeles;90035;CA;34.048605;-118.387332;4;3;2366;7009
1818891395;2239 Stradella Rd;Los Angeles;90077;CA;34.113564;-118.462987;5;6;3900;16291
1896336321;449 S Mansfield Ave;Los Angeles;90036;CA;34.065493;-118.341085;4;3;2292;6756
1133653468;5657 W 63rd St;Los Angeles;90056;CA;33.982491;-118.380946;4;4;2815;9705
2770371736;1960 Hillcrest Rd;Los Angeles;90068;CA;34.106649;-118.339577;6;6;4080;11199
2247137085;11523 Vienna Way;Los Angeles;90066;CA;34.015294;-118.427933;5;4;2515;5131
1943698186;1219 Dodds Cir;Los Angeles;90063;CA;34.05241;-118.191769;3;3;2016;10036
2233001921;10542 Butterfield Rd;Los Angeles;90064;CA;34.039433;-118.415846;3;3;2000;5754
2745646746;1397 W 38th St;Los Angeles;90062;CA;34.017577;-118.303176;4;2;1208;5288
2849599130;1324 N Fairfax Ave;Los Angeles;90046;CA;34.095147;-118.361164;4;2;2704;6551
2753072115;424 E 118th Pl;Los Angeles;90061;CA;33.925308;-118.26663;2;1;1278;5772
2595746678;6213 Haas Ave;Los Angeles;90047;CA;33.982961;-118.317047;2;1;988;4791
2995644359;1525 Blue Jay Way;Los Angeles;90069;CA;34.100301;-118.387465;4;6;6200;24816
2291019919;745 N Sierra Bonita Ave;Los Angeles;90046;CA;34.085069;-118.354575;5;6;3342;6499
2124172774;3436 Bonnie Hill Dr;Los Angeles;90068;CA;34.129326;-118.352727;4;3;2246;22987
1443887365;4112 Telluride St;Los Angeles;90031;CA;34.081213;-118.198892;3;1;1158;4474
1482305402;320 St Pierre Rd;Los Angeles;90077;CA;34.084561;-118.436084;8;11;;41225
2754690998;2415 S San Pedro St;Los Angeles;90011;CA;34.022967;-118.260779;2;1;1553;5323
1835983165;1454 E 121st St;Los Angeles;90059;CA;33.922611;-118.248789;2;1;864;5400
2930962055;2242 Dorris Pl;Los Angeles;90031;CA;34.090856;-118.237225;4;3;2126;4822
2514644615;11229 Hooper Ave;Los Angeles;90059;CA;33.932241;-118.2525;2;1;794;4983
1967619772;2370 Brookshire Ln;Los Angeles;90077;CA;34.113024;-118.477447;4;4;;7536
2064182127;165 S Hudson Ave;Los Angeles;90004;CA;34.072108;-118.333791;6;7;9198;19637
1801625892;1052 W 56th St;Los Angeles;90037;CA;33.991141;-118.293366;4;2;1216;5120
2805774382;1719 N Orange Grove Ave;Los Angeles;90046;CA;34.102124;-118.360794;5;7;4014;8429
1283945088;5030 Montezuma St;Los Angeles;90042;CA;34.111289;-118.205248;2;1;912;8418
2004804885;5835 Arlington Ave;Los Angeles;90043;CA;33.988079;-118.318922;3;2;1300;4801
1136008988;1663 N Crescent Heights Blvd;Los Angeles;90069;CA;34.101208;-118.369281;5;5;4499;9479
1019013279;1506 W 68th St;Los Angeles;90047;CA;33.977562;-118.302711;2;1;945;4683
1668500572;1455 Carmona Ave;Los Angeles;90019;CA;34.047619;-118.358649;2;1;800;2452
1468895961;735 Milo Ter;Los Angeles;90042;CA;34.114727;-118.20676;3;1;1153;4870
2521994229;1225 N Cahuenga Blvd;Los Angeles;90038;CA;34.093189;-118.329039;2;2;1574;3490
1439266388;3209 Johnston St;Los Angeles;90031;CA;34.08315;-118.207035;1;1;734;12062
1889636675;1153 S Kingsley Dr;Los Angeles;90006;CA;34.049317;-118.30342;2;1;1320;5902
2904181812;2122 Santa Ana N;Los Angeles;90059;CA;33.935992;-118.234331;4;3;1843;2671
2066434530;13137 Warren Ave;Los Angeles;90066;CA;34.010194;-118.453476;3;2;1459;8276
2387530486;10327 Anzac Ave;Los Angeles;90002;CA;33.94231;-118.238222;3;3;1688;3252
1074461853;8171 Willow Glen Rd;Los Angeles;90046;CA;34.11612;-118.374118;6;6;4749;15965
2854790468;2270 Silver Lake Blvd;Los Angeles;90039;CA;34.097563;-118.260574;3;2;1998;6146
1841965311;6430 Colgate Ave;Los Angeles;90048;CA;34.069293;-118.36567;4;4;3786;6050
2006327714;5103 Southridge Ave;Los Angeles;90043;CA;33.996228;-118.349351;4;3;3700;6512
2759865889;124 W 64th St;Los Angeles;90003;CA;33.981164;-118.274749;2;2;1176;5250
2032362086;10511 Almayo Ave;Los Angeles;90064;CA;34.045952;-118.42016;3;2;1725;6499
2643045383;1736 Westerly Ter;Los Angeles;90026;CA;34.090361;-118.268612;3;4;1742;4805
2192257651;2924 Park Center Dr;Los Angeles;90068;CA;34.123818;-118.343881;3;3;2128;3926
1586246414;6162 Oak Crest Way;Los Angeles;90042;CA;34.124889;-118.185379;3;2;1344;6512
1405179423;4758 Hickory St;Los Angeles;90016;CA;34.029496;-118.346272;5;4;2321;4320
2203573199;11607 Clover Ave;Los Angeles;90066;CA;34.022939;-118.436494;4;3;1927;7061
1242365988;3585 Wonder View Dr;Los Angeles;90068;CA;34.13308;-118.336673;3;6;5043;17812
2576766941;423 E 112th St;Los Angeles;90061;CA;33.933245;-118.266456;4;3;1552;3419
1293000712;5064 San Rafael Ave;Los Angeles;90042;CA;34.112993;-118.205758;1;1;624;2846
2333838487;320 N Martel Ave;Los Angeles;90036;CA;34.076826;-118.350722;4;2;3071;8228
1041834770;10295 Century Woods Dr;Los Angeles;90067;CA;34.054808;-118.415234;6;9;7145;310374
2549329761;4557 Don Timoteo Dr;Los Angeles;90008;CA;34.003997;-118.355666;4;3;2673;6787
1887993825;1451 Beverwil Dr;Los Angeles;90035;CA;34.053357;-118.398857;5;5;3350;6247
1817489811;1609 S Wilton Pl;Los Angeles;90019;CA;34.043177;-118.314845;5;3;2688;7628
1296827732;5712 Spring Oak Dr;Los Angeles;90068;CA;34.117631;-118.31389;5;5;3325;6678
1872076193;6347 W 6th St;Los Angeles;90048;CA;34.065723;-118.366586;6;4;4536;6172
1318947499;2174 Beachwood Ter;Los Angeles;90068;CA;34.110045;-118.320144;3;3;1317;4565
2944899517;2246 Duvall St;Los Angeles;90031;CA;34.087152;-118.229072;5;3;2261;5101
2084446576;220 W 101st St;Los Angeles;90003;CA;33.944379;-118.277041;2;1;796;4054
2370748217;2616 Tilden Ave;Los Angeles;90064;CA;34.033561;-118.430246;5;4;2817;5449
9748859498;8409 N Fusion Way;Los Angeles;91325;CA;34.22315;-118.535314;3;4;1643;1189
2942621465;3136 S Bentley Ave;Los Angeles;90034;CA;34.026187;-118.425435;4;5;2288;5502
1712422598;11222 Bellagio Rd;Los Angeles;90049;CA;34.081324;-118.461262;4;4;2446;25465
1202874083;2003 LA Brea Ter;Los Angeles;90046;CA;34.106825;-118.347314;8;11;10199;286625
2875203981;917 W 70th St;Los Angeles;90044;CA;33.976611;-118.289957;3;2;1300;4681
2805264031;2564 Lake View Ave;Los Angeles;90039;CA;34.103344;-118.254808;3;3;1912;2430
1634124926;8759 S Harvard Blvd;Los Angeles;90047;CA;33.957178;-118.307139;4;3;2054;6504
2040510945;436 W 52nd St;Los Angeles;90037;CA;33.995526;-118.281809;5;2;1481;5001
2820066834;1204 W 37th Dr;Los Angeles;90007;CA;34.01878;-118.294736;4;3;1171;5458
2247911447;901 S Bronson Ave;Los Angeles;90019;CA;34.055932;-118.321346;3;3;2004;7240
2479729821;12235 Tweed Ln;Los Angeles;90049;CA;34.052295;-118.47714;4;4;2737;5036
1880804647;2801 W 12th St;Los Angeles;90006;CA;34.049206;-118.300432;1;1;796;1751
1149575014;2230 Avon St;Los Angeles;90026;CA;34.091064;-118.245506;4;3;2898;4988
2741871514;521 E 23rd St;Los Angeles;90011;CA;34.025341;-118.261947;2;1;756;3691
1620166645;1643 S Fairfax Ave;Los Angeles;90019;CA;34.046389;-118.368202;3;2;1424;6374
2611340290;4433 Don Felipe Dr;Los Angeles;90008;CA;34.007281;-118.352191;2;2;1931;11208
1755699729;2142 Hillsboro Ave;Los Angeles;90034;CA;34.042806;-118.389177;4;3;2300;5937
2337208869;2737 Dunleer Pl;Los Angeles;90064;CA;34.036287;-118.420206;4;3;2033;9884
1681307003;10704 Ashton Ave;Los Angeles;90024;CA;34.059496;-118.435406;4;4;2153;8324
1431294625;4192 Division St;Los Angeles;90065;CA;34.116275;-118.221039;3;2;1332;4812
2148626752;616 N Mariposa Ave;Los Angeles;90004;CA;34.081812;-118.298914;5;2;1998;7123
2258959956;1200 N Beverly Glen Blvd;Los Angeles;90077;CA;34.095157;-118.440355;8;4;3623;16810
1643598699;223 N Avenue 59;Los Angeles;90042;CA;34.112435;-118.191832;3;2;1128;3753
2314290314;2939 Kelton Ave;Los Angeles;90064;CA;34.0307;-118.423769;4;2;1450;5574
1794012267;2736 W 14th St;Los Angeles;90006;CA;34.046054;-118.301469;3;2;1005;5434
2739211111;1333 Brinkley Ave;Los Angeles;90049;CA;34.051806;-118.496829;5;7;5950;8425
2018677262;3253 Blanchard St;Los Angeles;90063;CA;34.046267;-118.19159;3;1;1076;4525
2971909102;1709 W 67th St;Los Angeles;90047;CA;33.978686;-118.307109;2;1;818;4047
1635320585;508 S Sadler Ave;Los Angeles;90022;CA;34.025083;-118.147078;3;1;1072;5480
1826508169;1942 W 20th St;Los Angeles;90018;CA;34.037875;-118.301611;3;1;1338;6791
1448500118;2120 N Berendo St;Los Angeles;90027;CA;34.110124;-118.293713;5;5;3346;6419
2540833126;4615 Don Zarembo Dr;Los Angeles;90008;CA;34.004714;-118.356131;3;2;2068;6382
2194675715;1215 Hilldale Ave;Los Angeles;90069;CA;34.091953;-118.386734;1;1;;6000
1729080474;1260 Bel Air Rd;Los Angeles;90077;CA;34.096635;-118.444656;6;9;8000;76975
1386389164;1411 Hazelwood Ave;Los Angeles;90041;CA;34.121156;-118.215623;5;2;2082;7727
1704421117;698 Moulton Ave;Los Angeles;90031;CA;34.063321;-118.219921;3;4;9180;22843
1510846040;2125 Ames St;Los Angeles;90027;CA;34.110334;-118.280772;4;2;2203;10128
2553736589;11216 Unit St;Los Angeles;90059;CA;33.932356;-118.263953;2;1;838;4458
2201710816;6721 W Hepburn Way;Los Angeles;90038;CA;34.093008;-118.336929;3;4;1969;1538
2260914112;2149 Prosser Ave;Los Angeles;90025;CA;34.048215;-118.425096;3;2;1647;6068
1041614355;2165 Castilian Dr;Los Angeles;90068;CA;34.110554;-118.345113;5;7;7528;20931
1577339853;1811 N Avenue 56;Los Angeles;90042;CA;34.126981;-118.196803;5;3;2392;6877
2997284060;1601 Blue Jay Way;Los Angeles;90069;CA;34.101754;-118.387143;3;4;2658;27042
2925044994;3745 Dalton Ave;Los Angeles;90018;CA;34.019253;-118.304312;3;2;1684;5536
1046113843;3039 Future St;Los Angeles;90065;CA;34.10052;-118.229309;3;2;1234;3911
2413020391;1918 E 105th St;Los Angeles;90002;CA;33.940386;-118.238312;4;1;1188;3251
1214497818;12600 Rosy Cir;Los Angeles;90066;CA;33.982813;-118.419705;4;3;2096;5009
2378763543;2015 W 43rd St;Los Angeles;90062;CA;34.005733;-118.316051;3;1;1250;5501
1957684286;1057 S Gramercy Pl;Los Angeles;90019;CA;34.051214;-118.313636;5;3;3601;8250
1725912869;1492 Stone Canyon Rd;Los Angeles;90077;CA;34.100603;-118.453379;9;13;12817;339768
1323663062;3751 Lankershim Blvd;Los Angeles;90068;CA;34.136761;-118.364596;3;3;1611;6358
2459627489;2710 Sawtelle Blvd;Los Angeles;90064;CA;34.029596;-118.433684;5;4;2074;6094
2952043206;8900 Evanview Dr;Los Angeles;90069;CA;34.097681;-118.382589;3;4;;41452
1713389586;225 W 87th St;Los Angeles;90003;CA;33.958827;-118.276974;3;2;1036;4317
1986455518;9314 Sierra Mar Dr;Los Angeles;90069;CA;34.095518;-118.394332;5;5;3929;5999
2100549223;8581 Cole Crest Dr;Los Angeles;90046;CA;34.103578;-118.378447;5;5;4000;3001
1151733748;2939 11th Ave;Los Angeles;90018;CA;34.028755;-118.32963;3;2;1462;6752
2107673407;7901 Abigail Pl;Los Angeles;90045;CA;33.964885;-118.37711;2;1;1134;5359
2437167498;5335 S Garth Ave;Los Angeles;90056;CA;33.993107;-118.37118;4;4;3069;9034
2511410702;6349 LA Mirada Ave;Los Angeles;90038;CA;34.093363;-118.328388;3;3;1182;2818
2984467725;1427 W 66th St;Los Angeles;90047;CA;33.979344;-118.301192;3;2;1317;4004
2264875674;3283 Tilden Ave;Los Angeles;90034;CA;34.023392;-118.422657;3;2;2213;5776
2133451290;641 W 103rd St;Los Angeles;90044;CA;33.943277;-118.286327;2;2;1406;5110
2495629538;4108 S Bronson Ave;Los Angeles;90008;CA;34.009793;-118.332987;3;2;1732;4896
2890219007;8383 Grand View Dr;Los Angeles;90046;CA;34.103017;-118.373532;5;6;4323;6865
2061051787;150 S June St;Los Angeles;90004;CA;34.07212;-118.334372;6;6;6410;15316
2431467031;215 E 107th St;Los Angeles;90003;CA;33.939555;-118.271149;2;1;930;5201
1743889574;4620 Pickford St;Los Angeles;90019;CA;34.04051;-118.340435;3;1;1632;5502
2819571004;1734 S Burlington Ave;Los Angeles;90006;CA;34.040357;-118.281834;3;2;1231;4497
2513638435;1372 E 111th St;Los Angeles;90059;CA;33.934505;-118.25044;2;1;1105;7549
2683765686;1756 N Serrano Ave;Los Angeles;90027;CA;34.103478;-118.306954;3;2;1382;5410
1019236875;1519 W 69th St;Los Angeles;90047;CA;33.97724;-118.303108;3;1;1120;4683
1817151268;8693 Cadillac Ave;Los Angeles;90034;CA;34.039281;-118.380318;2;1;1000;2993
1331206527;1750 Orchard Ave;Los Angeles;90006;CA;34.041829;-118.288437;3;2;1408;6586
1767616607;2046 Barnett Way;Los Angeles;90032;CA;34.066735;-118.173043;3;3;2732;5225
2479596959;1456 Angelus Ave;Los Angeles;90026;CA;34.08486;-118.268501;2;2;1171;4504
1196154751;3005 7th Ave;Los Angeles;90018;CA;34.027347;-118.325104;3;2;1150;5602
2542892200;11310 Hooper Ave;Los Angeles;90059;CA;33.931692;-118.251863;2;1;796;6123
1922186290;3702 W 59th Pl;Los Angeles;90043;CA;33.985991;-118.337971;2;2;1128;6750
2374155407;10310 Chrysanthemum Ln;Los Angeles;90077;CA;34.106363;-118.445088;4;3;2103;9862
2615812203;3918 S Sycamore Ave;Los Angeles;90008;CA;34.015456;-118.357011;5;5;2768;9727
1379503188;1632 Magnolia Ave;Los Angeles;90006;CA;34.043284;-118.286067;5;2;1524;3478
1294815371;2477 Canyon Oak Dr;Los Angeles;90068;CA;34.115194;-118.313478;4;4;4804;20417
1212925893;8041 Bulwer Dr;Los Angeles;90046;CA;34.120067;-118.37352;5;5;4730;6606
1978980196;3841 Cazador St;Los Angeles;90065;CA;34.112275;-118.225152;3;4;2033;5751
1217041349;2276 Chelan Dr;Los Angeles;90068;CA;34.113407;-118.347746;4;4;3279;14336
1800554626;742 E 91st St;Los Angeles;90002;CA;33.953539;-118.26148;3;2;1265;4631
2052877951;6002 2nd Ave;Los Angeles;90043;CA;33.985342;-118.319339;2;1;947;4800
1566089391;7825 Troost Ave;Los Angeles;91605;CA;34.212805;-118.387004;2;1;768;5459
1995455505;1105 E 102nd St;Los Angeles;90002;CA;33.944358;-118.256239;3;1;817;3301
2618922946;963 N Mariposa Ave;Los Angeles;90029;CA;34.088078;-118.299509;3;2;2012;9001
2480024555;1810 E 108th St;Los Angeles;90059;CA;33.937665;-118.240401;3;2;1254;3129
1550963790;2404 S Cochran Ave;Los Angeles;90016;CA;34.035302;-118.356996;3;1;1288;5552
2601597431;1729 W 59th Pl;Los Angeles;90047;CA;33.986952;-118.307815;2;1;694;3351
1652728855;503 Oleander Dr;Los Angeles;90042;CA;34.124318;-118.182364;3;2;1197;3193
2536147064;10967 Grape St;Los Angeles;90059;CA;33.935627;-118.2372;5;2;1254;3250
1574313089;2152 W 82nd St;Los Angeles;90047;CA;33.964313;-118.317396;2;1;1228;5654
2171098116;379 N Wilton Pl;Los Angeles;90004;CA;34.078173;-118.313833;4;3;2574;6799
1425704733;1223 El Paso Dr;Los Angeles;90065;CA;34.11745;-118.217938;3;2;1598;5207
1397310011;6395 W 80th St;Los Angeles;90045;CA;33.969644;-118.399537;3;3;1573;8912
2432883137;10931 Anzac Ave;Los Angeles;90059;CA;33.936282;-118.238237;5;1;1188;6503
2453734395;1438 Coronado Ter;Los Angeles;90026;CA;34.08326;-118.264954;2;1;954;5005
1612303531;1759 S Crescent Heights Blvd;Los Angeles;90035;CA;34.045167;-118.374626;4;3;2612;7113
2293051875;1311 W 42nd St;Los Angeles;90037;CA;34.007579;-118.298531;3;3;1403;6286
2821202482;1871 N Stanley Ave;Los Angeles;90046;CA;34.104261;-118.357857;6;9;10365;30100
1790919194;1946 S LA Salle Ave;Los Angeles;90018;CA;34.038887;-118.302011;7;4;3970;7501
1410898782;2252 Verde Oak Dr;Los Angeles;90068;CA;34.111027;-118.311464;2;2;1552;9631
1897637481;4331 Milburn Dr;Los Angeles;90063;CA;34.055244;-118.173326;3;1;1027;4657
1455729711;5239 Los Hermosos Way;Los Angeles;90027;CA;34.112994;-118.304988;4;3;3561;14479
1135683588;1036 North Avenue 50;Los Angeles;90042;CA;34.117839;-118.206682;3;3;1481;4433
1483400636;2402 Alsace Ave;Los Angeles;90016;CA;34.035094;-118.353836;5;3;1705;5279
1825464722;1415 S Kenmore Ave;Los Angeles;90006;CA;34.045833;-118.297178;4;2;2296;3315
2477453205;10823 Weigand Ave;Los Angeles;90059;CA;33.93642;-118.230641;3;1;1363;6229
1878622404;4216 W 59th Pl;Los Angeles;90043;CA;33.985918;-118.34867;3;3;1695;5332
2565867616;1142 N Hoover St;Los Angeles;90029;CA;34.092036;-118.284303;3;1;1219;3926
1082362233;8155 Willow Glen Rd;Los Angeles;90046;CA;34.116483;-118.373732;3;4;3345;5850
2560882203;4564 Don Milagro Dr;Los Angeles;90008;CA;34.0088;-118.353521;3;3;4578;7270
2725205414;7082 LA Presa Dr;Los Angeles;90068;CA;34.10835;-118.342105;3;3;3793;11282
2170129201;578 N Gower St;Los Angeles;90004;CA;34.081254;-118.322418;5;3;2040;5615
2955956130;1460 N Doheny Dr;Los Angeles;90069;CA;34.097396;-118.39022;6;7;5156;8446
2745965693;9003 W Wonderland Ave;Los Angeles;90046;CA;34.108461;-118.390636;2;1;776;10110
2794970407;1901 E 70th St;Los Angeles;90001;CA;33.976579;-118.238843;2;1;968;6245
1521358184;1119 W 82nd St;Los Angeles;90044;CA;33.9646;-118.294849;4;4;2968;4589
1422350799;4621 Palmero Dr;Los Angeles;90065;CA;34.114461;-118.216373;2;2;1596;6747
2059081767;2235 Patricia Ave;Los Angeles;90064;CA;34.047751;-118.421519;3;4;2192;6991
1780407049;1843 S Bedford St;Los Angeles;90035;CA;34.044364;-118.382909;4;2;1959;8211
1193589699;5025 Sierra Villa Dr;Los Angeles;90041;CA;34.139767;-118.223236;4;3;1611;6534
2063900446;3424 Halderman St;Los Angeles;90066;CA;34.008881;-118.446186;3;2;1443;6525
1651350015;1417 Nolden St;Los Angeles;90042;CA;34.125515;-118.195623;5;5;3032;9161
2412108338;2326 Ewing St;Los Angeles;90039;CA;34.092132;-118.262389;4;4;1990;7510
2196790797;3113 Granville Ave;Los Angeles;90066;CA;34.020753;-118.439629;4;3;2292;5279
2891990103;1975 Exposition Blvd;Los Angeles;90018;CA;34.018865;-118.31615;2;1;1308;3946
1235441278;12860 Admiral Ave;Los Angeles;90066;CA;33.985537;-118.42829;4;5;3000;5628
1123273940;790 Halliday Ave;Los Angeles;90049;CA;34.074628;-118.47801;3;2;2723;18443
1228519259;6360 Deep Dell Pl;Los Angeles;90068;CA;34.114997;-118.327342;4;3;1750;4678
1331580654;5470 Los Feliz Blvd;Los Angeles;90027;CA;34.107452;-118.308927;5;6;5866;14837
2561731097;1321 Sanborn Ave;Los Angeles;90027;CA;34.096486;-118.278989;5;2;1786;6700
1524038183;2009 N Commonwealth Ave;Los Angeles;90027;CA;34.107961;-118.285413;3;2;1516;6346
2698373935;1308 N Mansfield Ave;Los Angeles;90028;CA;34.094722;-118.340331;3;4;2197;1307
1400986041;5660 Valley Oak Dr;Los Angeles;90068;CA;34.110017;-118.312537;2;2;1882;7680
2052890546;242 S Rimpau Blvd;Los Angeles;90004;CA;34.069389;-118.3299;6;8;6000;17563
2216544895;1515 W 49th St;Los Angeles;90062;CA;33.999403;-118.304049;4;2;1442;5760
1933328807;3744 W 59th Pl;Los Angeles;90043;CA;33.985981;-118.339421;2;2;1254;5807
2244772884;547 N Highland Ave;Los Angeles;90036;CA;34.081719;-118.338941;6;3;3688;7653
1329249102;2780 Creston Dr;Los Angeles;90068;CA;34.119656;-118.326081;6;6;7550;22808
1138599689;7807 Dalton Ave;Los Angeles;90047;CA;33.968827;-118.303843;3;2;1382;5401
2022126792;7228 Woodrow Wilson Dr;Los Angeles;90068;CA;34.124253;-118.349557;2;3;2236;3187
1431594678;6349 W 78th St;Los Angeles;90045;CA;33.971306;-118.397921;5;7;4100;11857
1956133638;1170 Montecito Dr;Los Angeles;90031;CA;34.087637;-118.20031;2;1;1064;9221
1032652614;2126 W 73rd St;Los Angeles;90047;CA;33.973408;-118.316557;2;1;1142;6701
1637644372;4800 Pickford St;Los Angeles;90019;CA;34.041367;-118.343391;2;2;1160;3833
1014309792;4032 LA Salle Ave;Los Angeles;90062;CA;34.009728;-118.305346;5;3;2564;7068
2204720219;836 S Muirfield Rd;Los Angeles;90005;CA;34.059831;-118.329556;4;6;3662;7806
1118455261;3007 S Genesee Ave;Los Angeles;90016;CA;34.027897;-118.371232;3;2;1558;5506
2459034383;4339 2nd Ave;Los Angeles;90008;CA;34.004361;-118.319584;3;2;1456;6520
1450334373;2412 Medford St;Los Angeles;90033;CA;34.063286;-118.196825;1;1;800;5003
2024203994;843 S Citrus Ave;Los Angeles;90036;CA;34.059245;-118.340837;4;3;3749;7657
9231916271;11701 Compton Ave;Los Angeles;90059;CA;33.927582;-118.24653;3;2;1184;4274
1752933826;3209 Dorchester Ave;Los Angeles;90032;CA;34.082614;-118.16465;2;2;1116;5040
1190843391;2036 Holly Hill Ter;Los Angeles;90068;CA;34.10787;-118.33167;4;2;1980;6199
1427030105;765 McCarthy Vis;Los Angeles;90048;CA;34.061918;-118.367282;3;3;2629;9213
1403892785;4745 Cromwell Ave;Los Angeles;90027;CA;34.113507;-118.293774;4;5;;21414
2031949012;7236 W 91st St;Los Angeles;90045;CA;33.954635;-118.420915;3;2;1040;6582
2936879116;1211 W 69th St;Los Angeles;90044;CA;33.977264;-118.296305;3;2;1040;4680
2123472241;103 S Serrano Ave;Los Angeles;90004;CA;34.073545;-118.307075;16;16;4019;7971
2130955175;3079 Passmore Dr;Los Angeles;90068;CA;34.127155;-118.353567;3;3;1946;7532
2808021711;3414 Ferncroft Rd;Los Angeles;90039;CA;34.112423;-118.262848;5;5;2794;9892
1930804169;1129 N Alma Ave;Los Angeles;90063;CA;34.051128;-118.19234;2;1;792;6150
2683247111;5904 S Flower St;Los Angeles;90003;CA;33.98722;-118.281261;2;1;1178;5001
1470478800;329 W 121st St;Los Angeles;90061;CA;33.922837;-118.279332;4;3;2138;8166
2854306011;2230 Kenilworth Ave;Los Angeles;90039;CA;34.099929;-118.267127;3;2;1579;5249
1627773635;2100 Vine St;Los Angeles;90068;CA;34.108735;-118.326332;6;7;6494;15782
2838792007;1444 N Genesee Ave;Los Angeles;90046;CA;34.097493;-118.357855;4;2;2208;6747
2582714420;11720 Avalon Blvd;Los Angeles;90061;CA;33.926668;-118.264921;3;2;1383;1491
2618475755;811 N Kenmore Ave;Los Angeles;90029;CA;34.086244;-118.29727;3;2;1555;5149
1817722853;1842 E 123rd St;Los Angeles;90059;CA;33.920629;-118.239854;2;1;820;5480
2691685662;3874 Arlington Ave;Los Angeles;90008;CA;34.015567;-118.317867;4;3;1730;8082
2911058435;2011 E 120th St;Los Angeles;90059;CA;33.92366;-118.2369;3;3;1492;157805
2788147591;1627 Courtney Ave;Los Angeles;90046;CA;34.100704;-118.357526;4;3;3092;6730
9154625988;824 Cynthia Ave;Los Angeles;90065;CA;34.111191;-118.214312;3;4;2471;5693
1783835516;8920 Cadillac Ave;Los Angeles;90034;CA;34.040292;-118.385444;4;4;2304;4243
1065116325;320 S Pecan St;Los Angeles;90033;CA;34.044614;-118.221552;2;1;755;2749
2037548563;678 Milford St;Los Angeles;90042;CA;34.106389;-118.179922;4;3;3158;6713
1961052742;3741 Harriman Ave;Los Angeles;90032;CA;34.090282;-118.181918;3;1;1116;7514
2976024803;3438 10th Ave;Los Angeles;90018;CA;34.024409;-118.327998;2;2;1255;5807
1733056557;360 N Kenter Ave;Los Angeles;90049;CA;34.064972;-118.482909;3;4;2985;13369
2649959178;439 S Bundy Dr;Los Angeles;90049;CA;34.054648;-118.475835;3;3;2000;7000
1593923198;6130 Poppy Peak Dr;Los Angeles;90042;CA;34.128299;-118.186385;2;1;806;1995
2529774588;1329 E 111th St;Los Angeles;90059;CA;33.93503;-118.251274;4;2;1121;2833
1065824378;1317 Warren St;Los Angeles;90033;CA;34.051853;-118.220093;3;1;782;2040
1796716234;8753 Prince Ave;Los Angeles;90002;CA;33.958083;-118.2484;4;2;1809;5367
2716739747;118 S Cliffwood Ave;Los Angeles;90049;CA;34.056596;-118.485152;6;8;8723;19114
2979769067;1450 Blue Jay Way;Los Angeles;90069;CA;34.097804;-118.386786;5;7;6377;8407
2049039559;6038 5th Ave;Los Angeles;90043;CA;33.984332;-118.322265;2;1;884;4796
2940045161;670 Crenshaw Blvd;Los Angeles;90005;CA;34.060879;-118.31914;8;5;4903;6194
2012078041;2238 Stradella Rd;Los Angeles;90077;CA;34.113753;-118.462348;5;6;6767;14296
2603749410;12227 Tweed Ln;Los Angeles;90049;CA;34.052653;-118.477092;4;4;2838;11883
1196955006;2669 Harlesden Ct;Los Angeles;90046;CA;34.119738;-118.369604;4;4;4311;14810
2544410657;4571 Don Timoteo Dr;Los Angeles;90008;CA;34.00362;-118.355838;3;2;1960;7070
1916419516;3842 Woolwine Dr;Los Angeles;90063;CA;34.054672;-118.181827;2;1;1476;5891
1587323977;1856 N Rowan Ave;Los Angeles;90032;CA;34.064575;-118.187789;2;1;949;5800
2522994112;9422 Sierra Mar Dr;Los Angeles;90069;CA;34.094839;-118.395744;5;6;;11356
1216986413;2376 W 30th St;Los Angeles;90018;CA;34.027128;-118.320353;3;2;1220;4996
2611153960;3903 S Orange Dr;Los Angeles;90008;CA;34.015848;-118.356387;3;2;1942;8185
2770483534;1714 N Fairfax Ave;Los Angeles;90046;CA;34.101821;-118.361255;4;5;3761;7031
1004226924;3405 E Maceo St;Los Angeles;90065;CA;34.094425;-118.223576;5;4;3066;5600
2557955864;1110 N Ardmore Ave;Los Angeles;90029;CA;34.091266;-118.301026;3;3;996;3025
2482746894;1417 Bluebird Ave;Los Angeles;90069;CA;34.097156;-118.392184;4;4;3714;7396
2179193049;962 S Plymouth Blvd;Los Angeles;90019;CA;34.056077;-118.326077;3;2;1730;6604
1377043636;2925 Potomac Ave;Los Angeles;90016;CA;34.028624;-118.344237;3;1;1229;5850
1073878896;5912 S Corning Ave;Los Angeles;90056;CA;33.986112;-118.373457;3;4;2552;8476
2051499111;6415 Madden Ave;Los Angeles;90043;CA;33.981351;-118.325784;4;3;1450;4802
2060228788;4316 Dozier St;Los Angeles;90022;CA;34.041209;-118.17304;3;1;1232;6713
2545546305;956 N Wilton Pl;Los Angeles;90038;CA;34.087854;-118.313224;3;1;1570;6077
1232249002;700 E 76th Pl;Los Angeles;90001;CA;33.970003;-118.262788;2;1;1027;5100
1095193089;3373 Cazador St;Los Angeles;90065;CA;34.107302;-118.230069;3;3;1421;3034
2101179687;3201 Bonnie Hill Dr;Los Angeles;90068;CA;34.129198;-118.358712;4;4;1915;24603
1243192594;12608 Gilmore Ave;Los Angeles;90066;CA;33.98977;-118.427282;5;3;1966;4297
2918850624;2230 Shoredale Ave;Los Angeles;90031;CA;34.088188;-118.23478;6;4;2016;5510
1986573615;13042 Rose Ave;Los Angeles;90066;CA;34.008919;-118.451351;5;4;3014;6701
2875267141;1122 W 124th St;Los Angeles;90044;CA;33.919929;-118.294855;3;2;1331;7501
1855199796;9430 Cresta Dr;Los Angeles;90035;CA;34.046735;-118.394278;6;10;11706;14196
2100762761;747 S Avenue 60;Los Angeles;90042;CA;34.104639;-118.17928;3;3;1853;5609
2145787020;2965 Passmore Dr;Los Angeles;90068;CA;34.125452;-118.351889;3;4;3049;5415
2269331140;315 N McCadden Pl;Los Angeles;90004;CA;34.076807;-118.337594;5;6;4926;11556
1636890830;712 Burwood Ter;Los Angeles;90042;CA;34.128501;-118.18328;2;1;880;2810
1166298064;3420 Blair Dr;Los Angeles;90068;CA;34.134609;-118.345505;6;5;4932;6688
2210749078;758 N Cherokee Ave;Los Angeles;90038;CA;34.085149;-118.334905;3;2;1650;6352
1690461585;13571 Bayliss Rd;Los Angeles;90049;CA;34.075;-118.506414;3;3;2060;27857
1216210126;4533 Yosemite Way;Los Angeles;90065;CA;34.133674;-118.224077;3;2;1392;8509
1587931605;1632 S Sycamore Ave;Los Angeles;90019;CA;34.04421;-118.349191;4;3;1697;5004
1160790839;1271 St Ives Pl;Los Angeles;90069;CA;34.093524;-118.389701;4;6;4401;10903
2662368737;224 N Bowling Green Way;Los Angeles;90049;CA;34.062168;-118.477126;4;4;1609;7000
2056273523;10505 McKinley Ave;Los Angeles;90002;CA;33.94063;-118.261037;3;2;924;3622
2730041763;1857 Lohengrin St;Los Angeles;90047;CA;33.93552;-118.311112;4;2;1815;7654
2165748267;3330 Keeshen Dr;Los Angeles;90066;CA;34.015001;-118.436602;5;5;4220;5785
2621439360;3816 S Dunsmuir Ave;Los Angeles;90008;CA;34.017778;-118.362803;4;2;2001;8124
2748545266;3903 Boyce Ave;Los Angeles;90039;CA;34.123795;-118.262898;3;2;1376;6753
1864530802;5739 2nd Ave;Los Angeles;90043;CA;33.989819;-118.319607;3;2;1209;4922
1382393485;701 E 80th St;Los Angeles;90001;CA;33.966754;-118.262778;2;1;1363;5355
2351457054;420 W 107th St;Los Angeles;90003;CA;33.938921;-118.281241;3;1;1140;5314
1391535379;10985 Bellagio Rd;Los Angeles;90077;CA;34.080509;-118.456324;8;13;14679;28279
2724806861;3012 Hyperion Ave;Los Angeles;90027;CA;34.11091;-118.269259;4;3;3284;7226
2170954127;10630 Putney Rd;Los Angeles;90064;CA;34.038134;-118.419563;4;2;1919;6037
1884531241;1801 S Berendo St;Los Angeles;90006;CA;34.04128;-118.293657;4;2;1653;4144
2352717798;4191 LA Salle Ave;Los Angeles;90062;CA;34.007186;-118.305994;3;1;1264;5207
2951735632;6573 Kentwood Bluffs Dr;Los Angeles;90045;CA;33.979486;-118.40148;4;3;2632;7087
1523860077;4750 Topaz St;Los Angeles;90032;CA;34.083454;-118.188065;3;2;1078;3115
2963449733;7026 Denver Ave;Los Angeles;90044;CA;33.975286;-118.283454;3;2;1346;5400
1772957009;1827 Virginia Rd;Los Angeles;90019;CA;34.041214;-118.334659;6;7;3844;8947
1230222120;2361 Loy Ln;Los Angeles;90041;CA;34.138068;-118.219187;2;1;1196;6098
1161503722;4461 Caledonia Way;Los Angeles;90065;CA;34.131966;-118.235277;3;2;1639;5336
2227638774;867 S Bronson Ave;Los Angeles;90005;CA;34.057085;-118.320724;4;3;2432;7035
2790163101;1748 E 66th St;Los Angeles;90001;CA;33.979469;-118.241726;1;1;456;1210
1836268697;1728 S Holt Ave;Los Angeles;90035;CA;34.046837;-118.37925;2;2;1374;6120
2939358415;1139-1/2 Exposition Blvd;Los Angeles;90007;CA;34.018575;-118.2958;1;1;578;1456
2082620544;730 E 102nd St;Los Angeles;90002;CA;33.943829;-118.261359;3;2;1357;5000
1413557962;8410 Alverstone Ave;Los Angeles;90045;CA;33.962484;-118.396605;5;3;1882;7000
2801778702;339 E El Segundo Blvd;Los Angeles;90061;CA;33.916907;-118.268116;4;1;684;9235
1963646837;4424 Victoria Park Dr;Los Angeles;90019;CA;34.047006;-118.331399;4;4;3574;6312
1284828098;3236 Primera Ave;Los Angeles;90068;CA;34.129327;-118.345318;4;4;3651;6639
1594138570;2128 W 82nd St;Los Angeles;90047;CA;33.964312;-118.316565;3;3;1766;5654
1710186641;1601 Lindamere Pl;Los Angeles;90077;CA;34.103419;-118.458106;5;5;4975;27669
2711417015;1351 N McCadden Pl;Los Angeles;90028;CA;34.09582;-118.337787;4;2;1742;5523
2592690871;5820 Cimarron St;Los Angeles;90047;CA;33.988434;-118.315424;2;1;918;4200
2672764009;230 E 110th St;Los Angeles;90061;CA;33.935413;-118.270553;2;2;762;3992
1302437219;2921 Walton Ave;Los Angeles;90007;CA;34.027998;-118.295112;9;3;2010;6252
1632370278;4130 Parva Ave;Los Angeles;90027;CA;34.11601;-118.283275;5;6;5492;7960
1715355235;2456 Arbutus Dr;Los Angeles;90049;CA;34.079419;-118.503803;5;6;4418;12563
1847373948;1706 S Sherbourne Dr;Los Angeles;90035;CA;34.047594;-118.380129;3;2;1867;5672
1286542332;3412 Troy Dr;Los Angeles;90068;CA;34.13473;-118.345108;3;2;1379;4748
1010140836;9233 Swallow Dr;Los Angeles;90069;CA;34.104923;-118.389417;5;8;7308;15146
2963260255;1953 Sunset Plaza Dr;Los Angeles;90069;CA;34.104397;-118.381523;3;3;1734;15059
1266834486;2305 Canyonback Rd;Los Angeles;90049;CA;34.109735;-118.495308;4;5;4488;97749
1174867674;3558 Division St;Los Angeles;90065;CA;34.107085;-118.223928;3;3;1728;4927
1023783320;1849 W 66th St;Los Angeles;90047;CA;33.97933;-118.310685;3;2;1394;4000
1735627907;615 N Tigertail Rd;Los Angeles;90049;CA;34.071476;-118.480728;5;9;12704;87120
2340240005;2039 W 99th St;Los Angeles;90047;CA;33.946514;-118.314845;3;1;1134;5416
1360709781;934 S Mott St;Los Angeles;90023;CA;34.032119;-118.21338;4;2;1980;3369
1740856512;11630 Moraga Ln;Los Angeles;90049;CA;34.086886;-118.467835;7;13;19127;47184
2918805134;1132 W 65th Pl;Los Angeles;90044;CA;33.979631;-118.294874;2;1;1060;4003
2387679550;10512 Parmelee Ave;Los Angeles;90002;CA;33.940567;-118.250204;3;1;997;5600
1049829065;2357 Hermits Gln;Los Angeles;90046;CA;34.111334;-118.383344;3;2;1750;22960
2964198139;444 Museum Dr;Los Angeles;90065;CA;34.103854;-118.208374;3;3;1704;3929
2129104473;1938 Fairburn Ave;Los Angeles;90025;CA;34.05241;-118.425707;6;6;5700;6665
1045059024;8755 Skyline Dr;Los Angeles;90046;CA;34.115386;-118.385553;4;5;4428;6098
1472640225;626 E 137th St;Los Angeles;90059;CA;33.907051;-118.264236;3;2;1334;5001
2223464988;55 Fremont Pl;Los Angeles;90005;CA;34.060362;-118.326845;7;8;10567;68716
1198315288;2124 Scott Ave;Los Angeles;90026;CA;34.081984;-118.261761;1;1;634;2494
2728923785;11016 Ruthelen St;Los Angeles;90047;CA;33.934563;-118.310911;3;1;1070;10463
2464523848;2753 Angelo Dr;Los Angeles;90077;CA;34.122319;-118.444157;4;3;2693;847107
1110070424;2517 Virginia Rd;Los Angeles;90016;CA;34.033255;-118.33918;3;2;1675;6117
1007681284;1380 Mockingbird Pl;Los Angeles;90069;CA;34.095123;-118.389872;6;11;14000;67115
2341500750;13126 Garden Land Rd;Los Angeles;90049;CA;34.121077;-118.508505;4;6;4400;160841
1069545897;2016 W 68th St;Los Angeles;90047;CA;33.977566;-118.313992;3;1;1292;5441
1172453612;4316 W 30th St;Los Angeles;90016;CA;34.027438;-118.340981;3;2;1383;3435
1400483914;3002 Farmdale Ave;Los Angeles;90016;CA;34.027433;-118.345804;3;4;1544;3781
2564067479;736 N Edgemont St;Los Angeles;90029;CA;34.084702;-118.295701;3;2;1400;5626
1182868480;2664 LA Cuesta Dr;Los Angeles;90046;CA;34.11957;-118.353941;4;3;2902;7998
1292653946;2532 Canyon Oak Dr;Los Angeles;90068;CA;34.115914;-118.314466;2;3;2083;12667
2524410218;11798 Kearsarge St;Los Angeles;90049;CA;34.060649;-118.470288;3;3;;22381
2242640502;2100 W 96th St;Los Angeles;90047;CA;33.948869;-118.315673;3;2;1374;5100
2815268973;827 E 116th Pl;Los Angeles;90059;CA;33.928533;-118.259933;4;2;1529;6709
1151527822;7610 Woodrow Wilson Dr;Los Angeles;90046;CA;34.122218;-118.36171;4;3;2630;5397
1497114503;2355 S Dunsmuir Ave;Los Angeles;90016;CA;34.035812;-118.358588;4;3;1730;3505
2069937529;12012 National Blvd;Los Angeles;90064;CA;34.021034;-118.441366;4;2;1933;5767
2244921948;843 N Cherokee Ave;Los Angeles;90038;CA;34.086535;-118.335527;2;1;1342;6255
2669716426;6526 Leland Way;Los Angeles;90028;CA;34.096742;-118.332514;2;1;1192;6399
1280195749;2792 Fyler Pl;Los Angeles;90065;CA;34.131478;-118.227548;6;5;4000;4844
1848735118;6028 Acacia St;Los Angeles;90056;CA;33.984803;-118.363452;3;2;1616;6896
2937285893;8225 Hillside Ave;Los Angeles;90069;CA;34.101823;-118.368228;3;4;3335;9383
9398350703;8790 Appian Way;Los Angeles;90046;CA;34.105344;-118.380999;4;6;5736;11718
1467868962;4242 Beethoven St;Los Angeles;90066;CA;33.991794;-118.433782;4;4;3018;4321
1492911675;4231 Sunnyside Ave;Los Angeles;90066;CA;33.989266;-118.437826;4;4;2646;5750
1954129501;924 Linda Flora Dr;Los Angeles;90049;CA;34.084608;-118.464547;5;6;;81871
1990722730;754 E 94th St;Los Angeles;90002;CA;33.95087;-118.261095;3;1;893;5026
1958526882;755 Sarbonne Rd;Los Angeles;90077;CA;34.084662;-118.45168;6;10;15000;45459
2064206797;6552 4th Ave;Los Angeles;90043;CA;33.979866;-118.321326;2;1;851;4802
1028161350;2025 Pinehurst Rd;Los Angeles;90068;CA;34.106452;-118.341332;3;4;1839;3607
2991631009;2697 Merced St;Los Angeles;90065;CA;34.091543;-118.224201;2;1;1416;4123
2572500954;4132 Clayton Ave;Los Angeles;90027;CA;34.099749;-118.281823;3;2;1380;6569
1770565691;7410 W 85th St;Los Angeles;90045;CA;33.960406;-118.426877;3;2;1761;4948
1980627054;455 S Hamel Rd;Los Angeles;90048;CA;34.070669;-118.381956;4;5;2588;6504
1327809028;8100 Winsford Ave;Los Angeles;90045;CA;33.965024;-118.380869;3;1;981;6213
1933249200;5715 S Mullen Ave;Los Angeles;90043;CA;33.990383;-118.339133;3;2;1497;6403
1410563388;4749 Bonvue Ave;Los Angeles;90027;CA;34.114317;-118.29493;3;3;3425;6800
2246945681;903 Glendale Blvd;Los Angeles;90026;CA;34.074531;-118.26205;3;2;1321;7532
1575625620;6256 Tipton Way;Los Angeles;90042;CA;34.130775;-118.184133;2;1;704;8098
2516984847;10440 Hebron Ln;Los Angeles;90077;CA;34.104251;-118.446455;4;4;2603;5005
2298137714;737 N Formosa Ave;Los Angeles;90046;CA;34.084727;-118.346575;4;3;1880;7700
1119963569;7946 Oceanus Dr;Los Angeles;90046;CA;34.112052;-118.367696;4;6;7500;18879
1341939118;3003 Vineyard Ave;Los Angeles;90016;CA;34.027918;-118.3473;7;7;2661;11813
2225709169;3505 Purdue Ave;Los Angeles;90066;CA;34.015577;-118.425917;3;3;1178;6395
2612491162;4423 Noble Ave;Los Angeles;91403;CA;34.151308;-118.462318;2;2;1521;5000
2938742413;6535 Estrella Ave;Los Angeles;90044;CA;33.979575;-118.285051;3;1;1088;2370
1351918167;4261 Division St;Los Angeles;90065;CA;34.116784;-118.219145;3;2;1667;4754
2025239217;126 N Rossmore Ave;Los Angeles;90004;CA;34.073895;-118.326913;5;4;5955;20003
1169136943;3006 S Norton Ave;Los Angeles;90018;CA;34.027367;-118.332473;3;2;1235;4049
1667207637;3452 Mandeville Canyon Rd;Los Angeles;90049;CA;34.108463;-118.501625;3;3;2615;18848
1739514938;1740 Bel Air Rd;Los Angeles;90077;CA;34.102181;-118.447695;7;10;11246;43821
1068295302;5633 Spokane St;Los Angeles;90016;CA;34.027512;-118.369607;3;2;1347;5502
1910204327;3316 Shelby Dr;Los Angeles;90034;CA;34.031988;-118.401195;4;5;2586;5676
2224003159;7525 8th Ave;Los Angeles;90043;CA;33.971054;-118.326735;3;2;1562;4613
1658571385;442 W 88th Pl;Los Angeles;90003;CA;33.95658;-118.281818;2;1;1368;3598
9991791726;542 N Commonwealth Ave;Los Angeles;90004;CA;34.080663;-118.28527;3;3;2947;7501
1097262312;13317 Westcove Dr;Los Angeles;90049;CA;34.057609;-118.497145;4;5;;12632
1763810406;115 E 88th Pl;Los Angeles;90003;CA;33.956684;-118.273264;3;2;1116;3602
1915851080;3521 W 58th Pl;Los Angeles;90043;CA;33.98837;-118.333818;4;3;1600;6752
2490520955;1623 S Carmelina Ave;Los Angeles;90025;CA;34.035939;-118.463381;2;1;850;6094
1047687236;2522 S Genesee Ave;Los Angeles;90016;CA;34.033676;-118.369341;20;20;15869;6551
2835483561;1545 Cambria St;Los Angeles;90017;CA;34.05316;-118.271155;5;2;2282;5477
2264188440;852 N Vista St;Los Angeles;90046;CA;34.086846;-118.351906;5;6;5472;7000
1587103530;327 N Avenue 61;Los Angeles;90042;CA;34.114859;-118.190152;4;2;1631;10000
1767266693;1601 N Bundy Dr;Los Angeles;90049;CA;34.087025;-118.486264;4;3;2341;35828
1212383106;2163 Outpost Dr;Los Angeles;90068;CA;34.110867;-118.346322;4;5;3916;6042
2838539369;1051 W 18th St;Los Angeles;90015;CA;34.039721;-118.280145;3;1;2374;6205
1756001005;1836 Crenshaw Blvd;Los Angeles;90019;CA;34.040793;-118.330108;3;1;2252;7500
2869341856;210 W 119th St;Los Angeles;90061;CA;33.924398;-118.276575;3;1;1180;6751
1525697481;5904 Dauphin Ave;Los Angeles;90034;CA;34.033773;-118.373469;3;2;1287;4996
1487927485;2125 N Commonwealth Ave;Los Angeles;90027;CA;34.110829;-118.285436;2;1;887;2949
1531982127;6023 Hereford Dr;Los Angeles;90022;CA;34.01041;-118.143501;3;2;1236;4055
1047670789;1653 W 70th St;Los Angeles;90047;CA;33.976427;-118.306464;3;2;1330;5268
2746639873;4354 Coolidge Ave;Los Angeles;90066;CA;33.999874;-118.415016;2;1;990;5868
2943368465;347 N Rampart Blvd;Los Angeles;90026;CA;34.073896;-118.274317;2;1;1224;4000
2795787109;1601 N Orange Grove Ave;Los Angeles;90046;CA;34.100075;-118.360795;4;3;3215;10132
2876310587;11830 Ainsworth St;Los Angeles;90044;CA;33.925571;-118.289916;5;3;2065;6289
1984871977;858 E 102nd St;Los Angeles;90002;CA;33.943818;-118.258721;3;2;1161;5602
2322532385;10650 Somma Way;Los Angeles;90077;CA;34.090871;-118.449842;4;6;4587;32836
1911093635;741 S Orange Dr;Los Angeles;90036;CA;34.061059;-118.342553;3;2;1596;6216
1885846922;5502 S St Andrews Pl;Los Angeles;90062;CA;33.992184;-118.311007;3;2;1096;6049
1337633939;3206 Deronda Dr;Los Angeles;90068;CA;34.125684;-118.320965;4;4;3650;12114
9484743276;433W W 49th St;Los Angeles;90037;CA;33.998535;-118.281624;4;5;1649;6754
1743351404;8755 S San Pedro St;Los Angeles;90003;CA;33.957789;-118.269794;3;2;1898;2519
2806668764;1716 Courtney Ave;Los Angeles;90046;CA;34.102253;-118.357027;4;5;3800;7501
1472690789;712 Woodruff Ave;Los Angeles;90024;CA;34.0692;-118.432653;3;2;2012;9204
1352162827;1261 S Muirfield Rd;Los Angeles;90019;CA;34.050078;-118.33449;3;3;1488;4961
1823340564;3207 W 18th St;Los Angeles;90019;CA;34.041171;-118.319311;3;2;2056;6878
1154530161;8157 Laurel View Dr;Los Angeles;90069;CA;34.101664;-118.367348;4;5;5000;11347
2966204264;1354 N Doheny Dr;Los Angeles;90069;CA;34.095243;-118.391678;5;7;6470;14349
1101780937;1743 W 79th St;Los Angeles;90047;CA;33.96756;-118.308335;3;2;1428;5015
2319818269;542 W 103rd St;Los Angeles;90044;CA;33.942845;-118.284197;3;2;971;4123
2192545629;4410 S Wilton Pl;Los Angeles;90062;CA;34.003327;-118.314601;3;2;1318;5201
2002088843;9413 Clovis Ave;Los Angeles;90002;CA;33.950667;-118.256797;3;1;948;3000
1077110884;1931 W 68th St;Los Angeles;90047;CA;33.978023;-118.312233;2;1;1220;4056
2799607831;3958 Denker Ave;Los Angeles;90062;CA;34.01296;-118.304214;3;2;952;5497
2317796461;4225 Van Buren Pl;Los Angeles;90037;CA;34.006523;-118.297264;4;2;1645;5992
2624375146;1944 Lucile Ave;Los Angeles;90039;CA;34.095709;-118.272342;3;2;1360;5497
1131553277;2200 Hercules Dr;Los Angeles;90046;CA;34.110872;-118.364388;4;4;3404;10515
1220283486;2121 Whitley Ave;Los Angeles;90068;CA;34.109371;-118.332249;3;3;1535;3459
2278134126;837 S Kingsley Dr;Los Angeles;90005;CA;34.056718;-118.30339;8;4;2919;6756
2474118866;1405 Silver Lake Blvd;Los Angeles;90026;CA;34.084603;-118.271662;3;2;1371;4595
1784493004;8902 Hooper Ave;Los Angeles;90002;CA;33.955474;-118.253692;2;1;832;5140
2872520834;6512 Makee Ave;Los Angeles;90001;CA;33.980482;-118.24619;4;2;1628;7240
1189799945;2814 Nichols Canyon Pl;Los Angeles;90046;CA;34.12106;-118.360331;5;5;4266;6978
1877183461;12415 Promontory Rd;Los Angeles;90049;CA;34.103784;-118.483666;7;9;8729;37810
2962219957;6551 Kansas Ave;Los Angeles;90044;CA;33.97973;-118.293896;2;1;777;2183
1105784840;2803 Somerset Dr;Los Angeles;90016;CA;34.030976;-118.337586;2;2;1372;3646
2448795695;10711 Lou Dillon Ave;Los Angeles;90059;CA;33.938568;-118.235115;4;2;1457;5203
2559694768;4401 W 58th Pl;Los Angeles;90043;CA;33.988221;-118.351934;2;2;1429;4986
2541923285;1708 E 112th St;Los Angeles;90059;CA;33.932772;-118.243072;5;2;1481;3419
2435752615;1938 E 113th St;Los Angeles;90059;CA;33.932191;-118.237599;2;1;824;6859
2679173751;1424 W 113th St;Los Angeles;90047;CA;33.931623;-118.301218;4;2;1671;5249
2247773755;1496 W 47th St;Los Angeles;90062;CA;34.000744;-118.303446;4;3;1325;3814
2478739843;1435 Elevado St;Los Angeles;90026;CA;34.0853;-118.273154;3;2;1343;4940
1579243960;9133 Oriole Way;Los Angeles;90069;CA;34.096877;-118.389381;6;10;;19950
1875039798;1436 W 54th St;Los Angeles;90062;CA;33.992975;-118.301541;5;2;1521;5248
2107410620;168 S Ardmore Ave;Los Angeles;90004;CA;34.071781;-118.301286;4;5;2854;8007
1019233726;8655 Appian Way;Los Angeles;90046;CA;34.107529;-118.381177;3;3;1559;18953
1140145507;1853 Sunset Plaza Dr;Los Angeles;90069;CA;34.101217;-118.382925;5;8;5063;28758
1717516659;1404 N Kenter Ave;Los Angeles;90049;CA;34.080544;-118.493451;3;3;2423;36285
1196491612;8818 Thrasher Ave;Los Angeles;90069;CA;34.099961;-118.38485;5;6;4817;13255
2062902489;6418 2nd Ave;Los Angeles;90043;CA;33.981342;-118.319368;2;2;1296;4801
1356644644;107 Delfern Dr;Los Angeles;90077;CA;34.079688;-118.4291;10;19;21000;81915
1807599815;1305 Casiano Rd;Los Angeles;90049;CA;34.086147;-118.471976;6;7;4805;7701
1382129474;2265 Canyon Dr;Los Angeles;90068;CA;34.111943;-118.317378;4;3;2680;5001
9019025507;W Blvd;Los Angeles;90028;CA;34.09829;-118.329756;3;5;6424;26702
2270510260;356 S Hudson Ave;Los Angeles;90020;CA;34.06721;-118.331692;9;14;13300;37056
1624228633;1437 Alvira St;Los Angeles;90035;CA;34.05169;-118.374303;3;2;1400;2601
1145490739;7728 Woodrow Wilson Dr;Los Angeles;90046;CA;34.121432;-118.364898;4;5;;44427
2846732801;1665 E 64th St;Los Angeles;90001;CA;33.981499;-118.243589;2;1;722;5055
1986691711;3937 Van Horne Ave;Los Angeles;90032;CA;34.090278;-118.171651;3;1;793;3065
1924159459;3610 Latrobe St;Los Angeles;90031;CA;34.088007;-118.197995;3;2;1268;4923
2825014980;2923 Acresite St;Los Angeles;90039;CA;34.110622;-118.259467;4;2;1718;6373
1748857317;694 N Tigertail Rd;Los Angeles;90049;CA;34.073329;-118.48173;5;5;4011;16980
1555613809;724 Onarga Ave;Los Angeles;90042;CA;34.12776;-118.189623;5;3;1724;4839
2896069760;1448 Queens Way;Los Angeles;90069;CA;34.096341;-118.375623;4;6;4593;7353
9639152367;7419 Waring Ave;Los Angeles;90046;CA;34.085476;-118.351723;6;3;2712;7663
2017160731;1046 S Victoria Ave;Los Angeles;90019;CA;34.053757;-118.324443;3;3;2770;8590
1175070451;12044 Marshall St;Los Angeles;90230;CA;33.990995;-118.414813;4;2;1645;4469
2213424003;2056 W 94th St;Los Angeles;90047;CA;33.951011;-118.315368;3;2;1745;5001
2683806101;646 W 60th St;Los Angeles;90044;CA;33.984815;-118.285456;2;1;1204;5379
2995942486;1529 Oriole Ln;Los Angeles;90069;CA;34.099974;-118.388792;3;3;2677;5693
2806676988;1151 E 22nd St;Los Angeles;90011;CA;34.022969;-118.254098;7;3;2560;6000
1088115768;2341 Zorada Ct;Los Angeles;90046;CA;34.114072;-118.361367;5;5;6300;40641
1835808207;8917 Bandera St;Los Angeles;90002;CA;33.955269;-118.240008;2;1;880;5362
1028316283;1655 Silverwood Ter;Los Angeles;90026;CA;34.088638;-118.267636;4;3;2115;5815
2193365479;1421 W 45th St;Los Angeles;90062;CA;34.00305;-118.300968;2;1;1129;5669
1194143858;1492 Blue Jay Way;Los Angeles;90069;CA;34.099497;-118.386419;3;3;2413;10568
1749247646;6531 Pollard St;Los Angeles;90042;CA;34.119139;-118.175835;2;1;600;5721
1023261597;6806 S Van Ness Ave;Los Angeles;90047;CA;33.977636;-118.317466;5;2;1717;5001
1559179967;3769 Prestwick Dr;Los Angeles;90027;CA;34.118906;-118.280176;4;4;3160;7858
2183097749;537 N Norton Ave;Los Angeles;90004;CA;34.08138;-118.317282;2;1;1180;4848
9116339449;6561 Pickwick St;Los Angeles;90042;CA;34.123783;-118.174743;3;4;2226;6266
1432480837;10560 Wyton Dr;Los Angeles;90024;CA;34.073741;-118.436942;5;5;4588;8542
1761986301;801 Tarcuto Way;Los Angeles;90077;CA;34.083267;-118.455933;7;7;7473;108621
2635546705;1040 W 60th St;Los Angeles;90044;CA;33.985612;-118.293023;2;1;1399;5754
2331768041;10836 Lawler St;Los Angeles;90034;CA;34.023335;-118.415302;3;3;1386;4917
2271735756;5019 S Budlong Ave;Los Angeles;90037;CA;33.997151;-118.296192;3;2;1206;5940
2503398524;1254 N Cherokee Ave;Los Angeles;90038;CA;34.094144;-118.334936;3;2;1270;5120
2867923641;425 E 92nd St;Los Angeles;90003;CA;33.953182;-118.266391;2;1;936;5128
1858354102;8720 Graham Ave;Los Angeles;90002;CA;33.957702;-118.242766;3;1;1000;5046
1579757065;5937 Northside Dr;Los Angeles;90022;CA;34.014642;-118.144269;3;2;1395;5275
2377058756;10369 Bandera St;Los Angeles;90002;CA;33.941807;-118.239929;4;2;1350;6308
2795302652;1629 N Fairfax Ave;Los Angeles;90046;CA;34.100858;-118.361919;4;2;2317;8189
2726034956;824 W 112th St;Los Angeles;90044;CA;33.933187;-118.289507;2;1;767;3110
1155126416;1622 Sunset Plaza Dr;Los Angeles;90069;CA;34.10095;-118.381187;3;2;1980;4831
1646445432;6401 Elder St;Los Angeles;90042;CA;34.122185;-118.176746;4;2;3158;15098
1793242519;2776 Wright Ln;Los Angeles;90068;CA;34.119496;-118.33984;3;4;2194;2810
1138112083;2460 Achilles Dr;Los Angeles;90046;CA;34.11589;-118.368541;5;3;3344;8237
1303105986;1542 N Easterly Ter;Los Angeles;90026;CA;34.087452;-118.268475;4;4;2015;3751
1664206766;351 Vista Pl;Los Angeles;90042;CA;34.121539;-118.181859;3;2;796;4800
1387985302;271 S Mapleton Dr;Los Angeles;90024;CA;34.078231;-118.432662;8;12;31450;61019
2921998633;12205 S Halldale Ave;Los Angeles;90047;CA;33.921903;-118.302499;3;2;1348;4996
1046018492;11845 Pacific Ave;Los Angeles;90066;CA;34.006862;-118.426091;2;2;1673;7000
1953881479;7862 Crenshaw Blvd;Los Angeles;90043;CA;33.967699;-118.330516;2;2;1557;4857
1572890227;1753 Viewmont Dr;Los Angeles;90069;CA;34.101986;-118.380544;0;0;;35719
2167661425;1125 W 95th St;Los Angeles;90044;CA;33.950058;-118.294795;2;1;894;9231
1047000002;1851 W 71st St;Los Angeles;90047;CA;33.975621;-118.310743;3;2;1206;4549
1461256443;4586 Jessica Dr;Los Angeles;90065;CA;34.112462;-118.218537;3;2;1075;5136
1882726029;9225 Hickory St;Los Angeles;90002;CA;33.952503;-118.23546;5;2;1406;3376
2044551198;1353 Hauser Blvd;Los Angeles;90019;CA;34.049817;-118.356538;3;2;1800;4877
1790386098;3514 Whiteside St;Los Angeles;90063;CA;34.056055;-118.188108;4;2;1696;5857
1007329688;6836 Alta Loma Ter;Los Angeles;90068;CA;34.109304;-118.337532;2;1;1144;4208
9219714618;2181 N Beverly Glen Blvd;Los Angeles;90077;CA;34.108687;-118.446924;4;3;3778;13765
1422823883;4807 Bonvue Ave;Los Angeles;90027;CA;34.113516;-118.29546;6;6;4267;6312
2188781768;4610 5th Ave;Los Angeles;90043;CA;34.001452;-118.322162;4;3;1806;6750
1707232727;1132 Camulos St;Los Angeles;90023;CA;34.026702;-118.212964;2;2;700;5044
2001220599;3712 Broadlawn Dr;Los Angeles;90068;CA;34.130738;-118.358323;6;7;5646;14253
2524868782;10580 Wilkins Ave;Los Angeles;90024;CA;34.057353;-118.430694;3;2;2213;6508
2796010705;1646 N Curson Ave;Los Angeles;90046;CA;34.10122;-118.354786;2;2;1256;4729
1828325976;351 S Wilton Pl;Los Angeles;90020;CA;34.067429;-118.31439;3;1;2063;6630
2145579169;808 S Ridgeley Dr;Los Angeles;90036;CA;34.060312;-118.350978;5;6;4733;6734
2844505068;2643 Glendale Blvd;Los Angeles;90039;CA;34.105778;-118.261112;3;1;1380;15499
2836987039;546 N Martel Ave;Los Angeles;90036;CA;34.081681;-118.350847;2;2;1431;4730
2427481502;10300 Clusterberry Ct;Los Angeles;90077;CA;34.125146;-118.444043;3;3;2095;404250
2933338852;6563 Kansas Ave;Los Angeles;90044;CA;33.979448;-118.293896;2;1;652;2547
2169897382;169 W Colden Ave;Los Angeles;90003;CA;33.949449;-118.276475;3;2;1880;6111
1677846100;357 Marie Ave;Los Angeles;90042;CA;34.121738;-118.18137;2;2;802;7187
1959521690;5415 5th Ave;Los Angeles;90043;CA;33.9926;-118.322848;3;1;1404;5401
2045586421;201 N Rossmore Ave;Los Angeles;90004;CA;34.074638;-118.327808;5;7;6918;19998
2936469191;1201 W 67th St;Los Angeles;90044;CA;33.978697;-118.296018;3;1;792;2875
2925736599;1035 W 66th St;Los Angeles;90044;CA;33.979361;-118.293133;2;2;708;3000
2133244142;1071 S Point View St;Los Angeles;90035;CA;34.056577;-118.368288;3;2;1964;6460
1984859382;3624 Ashwood Ave;Los Angeles;90066;CA;34.002172;-118.447469;3;1;1174;4901
1094493260;5637 W Jefferson Blvd;Los Angeles;90016;CA;34.02671;-118.369932;6;4;3788;7201
2254611093;823 N Citrus Ave;Los Angeles;90038;CA;34.085974;-118.339946;5;6;4795;6003
2367071484;1559 E 108th St;Los Angeles;90059;CA;33.938132;-118.247116;2;1;1144;3846
1267760297;2613 Lake Hollywood Dr;Los Angeles;90068;CA;34.128606;-118.328097;4;3;2893;11966
1918291036;2407 Guthrie Dr;Los Angeles;90034;CA;34.041102;-118.394059;4;4;3321;9448
1432180784;214 E 85th St;Los Angeles;90003;CA;33.960746;-118.271275;2;1;1203;5202
2195686117;3268 Dos Palos Dr;Los Angeles;90068;CA;34.128664;-118.348809;4;3;2059;11787
2170158947;7317 Caverna Dr;Los Angeles;90068;CA;34.121698;-118.352258;5;5;3617;8679
2424414323;1842 W 42nd St;Los Angeles;90062;CA;34.007004;-118.312877;3;2;2136;5750
1237503500;1009 E 76th Pl;Los Angeles;90001;CA;33.970544;-118.257327;3;2;1323;5743
1346833797;1503 Crenshaw Blvd;Los Angeles;90019;CA;34.045826;-118.328215;3;2;2200;7183
1167310912;2523 S Victoria Ave;Los Angeles;90016;CA;34.033155;-118.336623;4;2;2003;6639
1315199841;3095 Hollyridge Dr;Los Angeles;90068;CA;34.125154;-118.317544;3;2;1502;6286
2289492015;517 N Martel Ave;Los Angeles;90036;CA;34.080785;-118.351431;3;1;1210;5597
1351691423;1020 Mark St;Los Angeles;90033;CA;34.057787;-118.211989;4;3;1678;4605
1896146843;1248 N Bonnie Beach Pl;Los Angeles;90063;CA;34.053272;-118.179099;2;2;1451;5716
2251250860;14210 Mulholland Dr;Los Angeles;90077;CA;34.130042;-118.442698;4;3;2200;7144
1073083013;2070 Stanley Hills Dr;Los Angeles;90046;CA;34.108617;-118.377364;2;2;919;2662
2785780514;2522 Zorada Dr;Los Angeles;90046;CA;34.117352;-118.360887;3;2;1550;11008
1552305364;2630 Cullen St;Los Angeles;90034;CA;34.033206;-118.376992;6;3;3040;6000
1390588843;2191 Ponet Dr;Los Angeles;90068;CA;34.110674;-118.309636;3;3;1926;8028
1318375670;3306 Beswick St;Los Angeles;90023;CA;34.024445;-118.205268;2;1;1098;5624
2213419631;7607 8th Ave;Los Angeles;90043;CA;33.970637;-118.326736;3;2;1678;4500
1056611466;8508 Allenwood Rd;Los Angeles;90046;CA;34.118463;-118.38221;4;4;2441;18609
1452448290;828 Cresthaven Dr;Los Angeles;90042;CA;34.121831;-118.177863;3;3;2580;6329
1241424648;4100 Shelburn Ct;Los Angeles;90065;CA;34.093299;-118.210408;5;3;1593;4756
1193614369;6564 Bradley Pl;Los Angeles;90056;CA;33.980342;-118.370975;3;2;1872;5323
2821511982;2501 Silver Lake Ter;Los Angeles;90039;CA;34.103175;-118.262214;3;4;2523;9026
1212494904;7431 Franklin Ave;Los Angeles;90046;CA;34.1037;-118.351669;4;3;3100;9008
1424141490;7901 Beland Ave;Los Angeles;90045;CA;33.970125;-118.404649;3;2;1874;8137
2626977464;1524 Club View Dr;Los Angeles;90024;CA;34.063332;-118.421224;4;3;3033;6904
1154445938;2445 Hines Dr;Los Angeles;90065;CA;34.11221;-118.228071;3;3;1894;5551
1424416873;4275 Moore St;Los Angeles;90066;CA;33.991417;-118.432796;4;4;2342;4434
2558534449;3810 Hauser Blvd;Los Angeles;90008;CA;34.017964;-118.365741;3;2;2226;7022
2920129189;540 Crestline Dr;Los Angeles;90049;CA;34.068583;-118.477382;6;10;11412;23318
1648735102;281 Bentley Cir;Los Angeles;90049;CA;34.076778;-118.45774;9;13;20000;50277
1411833579;701 E 84th St;Los Angeles;90001;CA;33.963001;-118.26277;1;1;537;1700
1034796520;1232 1/8 N Cahuenga Blvd;Los Angeles;90038;CA;34.093511;-118.328569;2;1;760;1228
1398695149;2751 S Harcourt Ave;Los Angeles;90016;CA;34.029338;-118.348719;3;2;1365;5205
2511069011;1106 Sunset Vale Ave;Los Angeles;90069;CA;34.091222;-118.393607;4;4;3437;5493
1731687164;125 E 90th St;Los Angeles;90003;CA;33.954934;-118.272879;1;1;752;5325
2893796538;8240 Mannix Dr;Los Angeles;90046;CA;34.105546;-118.370435;2;1;1232;4099
1377869784;4918 Glacier Dr;Los Angeles;90041;CA;34.136047;-118.191223;4;2;1850;9784
2388987252;2492 Angelo Dr;Los Angeles;90077;CA;34.116197;-118.443091;4;4;4100;179668
2515451871;11708 Tennessee Ave;Los Angeles;90064;CA;34.031862;-118.446394;2;1;1064;3204
1715513745;327 W 92nd St;Los Angeles;90003;CA;33.953028;-118.279295;3;2;995;4263
1001308808;9240 Robin Dr;Los Angeles;90069;CA;34.102098;-118.390722;4;8;7675;13499
2126334198;3537 Multiview Dr;Los Angeles;90068;CA;34.129769;-118.361851;2;3;2530;7749
1905489222;504 Montecito Dr;Los Angeles;90031;CA;34.092957;-118.201905;1;1;966;4391
1195597230;2100 Sunset Plaza Dr;Los Angeles;90069;CA;34.106041;-118.383594;6;11;10466;95279
2705967964;11176 S Manhattan Pl;Los Angeles;90047;CA;33.931661;-118.310583;4;2;1676;7405
2040466466;5301 Huntington Dr N;Los Angeles;90032;CA;34.090769;-118.165622;2;1;852;6056
2527056100;9410 Sierra Mar Pl;Los Angeles;90069;CA;34.096357;-118.394737;3;5;7217;11095
2349647470;1177 E 54th St;Los Angeles;90011;CA;33.994175;-118.254644;3;1;1484;5118
2239481120;7215 Clinton St;Los Angeles;90036;CA;34.082002;-118.346734;3;1;1129;2779
2457412351;807 N Laurel Ave;Los Angeles;90046;CA;34.085754;-118.365139;5;6;4062;6551
2576496633;3840 S Cochran Ave;Los Angeles;90008;CA;34.016817;-118.361225;6;5;4574;6796
1134803637;2725 Folsom St;Los Angeles;90033;CA;34.046608;-118.202104;4;2;1228;5850
1906728352;10731 Grape St;Los Angeles;90059;CA;33.938026;-118.237194;1;1;448;5201
1072872716;5830 Shenandoah Ave;Los Angeles;90056;CA;33.987608;-118.377765;3;3;2290;7998
2906925550;1949 Federal Ave;Los Angeles;90025;CA;34.038878;-118.449171;5;4;3648;7373
1468988163;208 W 126th St;Los Angeles;90061;CA;33.918538;-118.276344;3;2;1495;8999
1007354114;1121 Marietta St;Los Angeles;90023;CA;34.027646;-118.214218;3;1;1058;4999
1392068108;1258 Kipling Ave;Los Angeles;90041;CA;34.140036;-118.193886;4;3;1979;7106
1517111793;10957 Bellagio Rd;Los Angeles;90077;CA;34.079792;-118.456115;4;5;7258;27839
1340168023;2554 Hargrave Dr;Los Angeles;90068;CA;34.115836;-118.324829;5;6;5000;6521
1180459492;6579 Bradley Pl;Los Angeles;90056;CA;33.98018;-118.371508;5;3;2676;5297
2575872559;941 E Imperial Hwy;Los Angeles;90059;CA;33.930249;-118.257004;2;1;1190;5706
1810248845;1882 Heidleman Rd;Los Angeles;90032;CA;34.063676;-118.17494;2;1;726;6398
2725560403;3925 6th Ave;Los Angeles;90008;CA;34.013623;-118.324404;3;3;2886;6003
1951237278;1097 S Plymouth Blvd;Los Angeles;90019;CA;34.052946;-118.328428;4;4;2071;6001
1800407488;10697 Somma Way;Los Angeles;90077;CA;34.090911;-118.452194;8;21;41000;58719
1312892502;8129 Crockett Blvd;Los Angeles;90001;CA;33.964414;-118.237262;4;2;1250;4500
1525044364;4528 Ambrose Ave;Los Angeles;90027;CA;34.10977;-118.288501;2;1;1014;3751
2137827853;1067 Alvira St;Los Angeles;90035;CA;34.057067;-118.371537;3;2;2116;6752
2424161685;5636 S Garth Ave;Los Angeles;90056;CA;33.989329;-118.371766;6;5;4900;8050
9421259369;1512 Sunset Plaza Dr;Los Angeles;90069;CA;34.098126;-118.381328;5;5;3982;10542
1561088754;2357 N Indiana Ave;Los Angeles;90032;CA;34.07286;-118.192057;3;1;1048;51689
1683651364;1456 W 91st St;Los Angeles;90047;CA;33.954057;-118.302284;3;2;1598;4522
2984782300;3007 Obama Blvd;Los Angeles;90018;CA;34.020456;-118.329199;5;2;1889;6455
1586844595;8428 Regis Way;Los Angeles;90045;CA;33.960945;-118.414354;3;2;1458;4800
2413281252;1333 E 107th St;Los Angeles;90002;CA;33.939066;-118.250508;3;2;1169;5699
1047518576;8862 Hollywood Hills Rd;Los Angeles;90046;CA;34.113095;-118.387493;3;2;1746;11021
1339545874;4231 Division St;Los Angeles;90065;CA;34.116229;-118.219727;2;2;1107;5086
2041809966;6061 3rd Ave;Los Angeles;90043;CA;33.983792;-118.320901;2;1;806;4805
2921898207;1128 W 65th Pl;Los Angeles;90044;CA;33.979631;-118.294742;3;1;1470;4003
1875496436;8819 S Fir Ave;Los Angeles;90002;CA;33.956234;-118.237728;2;2;834;6773
2594723070;8469 Franklin Ave;Los Angeles;90069;CA;34.100338;-118.374651;4;4;2585;6334
1094178685;7602 S Hobart Blvd;Los Angeles;90047;CA;33.970775;-118.307548;4;4;1910;5235
1482431721;2421 S Cloverdale Ave;Los Angeles;90016;CA;34.034771;-118.356767;4;3;1916;5041
1546191150;1749 E 106th St;Los Angeles;90002;CA;33.940066;-118.240889;3;2;1310;3123
2225027009;1943 Manning Ave;Los Angeles;90025;CA;34.050185;-118.429477;4;3;2280;6752
2053263205;351 N Laurel Ave;Los Angeles;90048;CA;34.077628;-118.365088;4;5;5087;6556
1064474580;8414 Edwin Dr;Los Angeles;90046;CA;34.120898;-118.384293;5;4;3261;11273
1246586391;5919 Saturn St;Los Angeles;90035;CA;34.050183;-118.36883;3;3;2000;1577
1443051067;12209 S Spring St;Los Angeles;90061;CA;33.921155;-118.277472;3;2;1270;5529
1399761340;510 Warner Ave;Los Angeles;90024;CA;34.072029;-118.436552;4;5;3290;7383
1375962924;2014 Magnolia Ave;Los Angeles;90007;CA;34.037684;-118.28674;3;1;1326;5580
1328615581;6342 Mulholland Hwy;Los Angeles;90068;CA;34.125467;-118.324516;9;6;10513;18517
2981446035;9165 Cordell Dr;Los Angeles;90069;CA;34.094956;-118.391326;5;8;7441;13504
1744133989;157 E 91st St;Los Angeles;90003;CA;33.954031;-118.271857;3;2;1227;5003
2003942693;4119 Charlene Dr;Los Angeles;90043;CA;33.991728;-118.346059;4;2;3130;11343
2008680543;3123 Hyde Park Blvd;Los Angeles;90043;CA;33.980806;-118.327311;3;2;1147;3895
1676123644;8727 S Harvard Blvd;Los Angeles;90047;CA;33.958101;-118.307139;3;2;1157;5394
2926068844;8300 Grand View Dr;Los Angeles;90046;CA;34.103834;-118.37116;6;5;5322;16723
2791650589;7576 Hollywood Blvd;Los Angeles;90046;CA;34.101427;-118.354862;3;3;1774;4941
2202481114;10259 Century Woods Dr;Los Angeles;90067;CA;34.054808;-118.415234;4;5;5207;310374
2156146952;3154 Cadet Ct;Los Angeles;90068;CA;34.125862;-118.346842;2;2;1367;4404
2503696652;1154 N Orange Dr;Los Angeles;90038;CA;34.092245;-118.341445;3;4;2123;1185
2419150223;2852 S West View St;Los Angeles;90016;CA;34.02838;-118.351287;2;1;816;3602
2256746624;1337 Bellevue Ave;Los Angeles;90026;CA;34.06822;-118.255229;3;3;3435;5258
1036852293;1428 W 125th St;Los Angeles;90047;CA;33.918989;-118.301322;3;2;1232;7004
2403482236;3001 Cavendish Dr;Los Angeles;90064;CA;34.037762;-118.405624;6;8;7688;8756
1444068619;120 W 83rd St;Los Angeles;90003;CA;33.9639;-118.274696;3;2;1550;5015
2196819840;96 Fremont Pl;Los Angeles;90005;CA;34.055695;-118.328536;5;3;4112;14471
1448313788;2246 N Edgemont St;Los Angeles;90027;CA;34.111372;-118.29769;5;6;5400;11683
1415270299;729 S Avenue 61;Los Angeles;90042;CA;34.10563;-118.179589;4;3;2960;8399
1802196253;10443 Corfu Ln;Los Angeles;90077;CA;34.102143;-118.446667;3;4;3000;12950
1254028760;2636 S Normandie Ave;Los Angeles;90007;CA;34.031601;-118.299895;9;9;3946;6615
2607548610;11200 Southwest Blvd;Los Angeles;90044;CA;33.933032;-118.288304;2;1;984;5993
2054028120;5215 Onaknoll Ave;Los Angeles;90043;CA;33.995089;-118.346277;3;2;1708;6277
2946304251;8211 Bellgave Pl;Los Angeles;90069;CA;34.102836;-118.367108;3;4;2733;5212
2114297299;3020 Beckman Rd;Los Angeles;90068;CA;34.126189;-118.35287;4;4;2954;8156
1068241589;2127 W 76th St;Los Angeles;90047;CA;33.971236;-118.316559;3;2;1702;6682
1555592990;4338 Campbell Dr;Los Angeles;90066;CA;33.994533;-118.42317;3;3;2079;6007
1949767459;9514 Defiance Ave;Los Angeles;90002;CA;33.950185;-118.245061;3;2;798;4383
1317894362;4844 San Rafael Ave;Los Angeles;90042;CA;34.113376;-118.210211;4;3;1558;5331
2128272027;3224 Oakley Dr;Los Angeles;90068;CA;34.130747;-118.356811;2;2;2102;25287
2976079739;1456 Blue Jay Way;Los Angeles;90069;CA;34.097904;-118.386483;4;6;;16666
1304023208;8131 Morton Ave;Los Angeles;90001;CA;33.964325;-118.238248;3;1;912;3004
1240956638;12625 Milton St;Los Angeles;90066;CA;33.983684;-118.421603;4;3;1800;5105
2675214115;3887 Hepburn Ave;Los Angeles;90008;CA;34.015025;-118.325381;3;2;1564;6003
2686926993;136 N Canyon View Dr;Los Angeles;90049;CA;34.058275;-118.483816;3;3;2351;11678
1683105673;8958 Gibson St;Los Angeles;90034;CA;34.037037;-118.388179;3;1;1199;5872
2931584204;1698 Marmont Ave;Los Angeles;90069;CA;34.102209;-118.372124;3;4;3000;6913
2061983436;120 N Irving Blvd;Los Angeles;90004;CA;34.073698;-118.318082;4;3;3338;7135
2593954764;775 N Heliotrope Dr;Los Angeles;90029;CA;34.085659;-118.295291;5;5;3452;6251
2225121137;3119 W 78th Pl;Los Angeles;90043;CA;33.968437;-118.327284;3;2;1750;6177
1355994676;1220 Valrose Ct;Los Angeles;90041;CA;34.137493;-118.193963;5;5;3129;6960
1152765822;3521 E 3rd St;Los Angeles;90063;CA;34.033915;-118.193669;3;2;950;2995
1096079248;7710 S Halldale Ave;Los Angeles;90047;CA;33.969685;-118.302132;2;1;1142;5241
1994652101;1321 S Keniston Ave;Los Angeles;90019;CA;34.05061;-118.339132;4;2;1646;5920
2766189727;442 E 118th St;Los Angeles;90061;CA;33.926208;-118.26594;2;1;798;6258
2012175318;3537 May St;Los Angeles;90066;CA;34.00637;-118.443343;2;1;1096;5828
2660176344;1432 Gordon St;Los Angeles;90028;CA;34.096645;-118.319792;2;2;1430;6499
2891207518;3725 Dalton Ave;Los Angeles;90018;CA;34.01983;-118.304314;2;1;1452;6835
1940906389;8240 W 4th St;Los Angeles;90048;CA;34.070492;-118.368842;3;2;;6251
2152532156;3209 Bennett Dr;Los Angeles;90068;CA;34.126937;-118.34633;2;1;1065;5837
1298516072;4629 San Andreas Ave;Los Angeles;90065;CA;34.110668;-118.21576;4;4;1827;5929
1047444044;8715 Skyline Dr;Los Angeles;90046;CA;34.115176;-118.384549;2;2;1932;10616
2540180009;761 N Gower St;Los Angeles;90038;CA;34.084925;-118.322508;4;3;1635;3999
2668684352;2117 Redrock Ct;Los Angeles;90039;CA;34.099241;-118.270582;4;5;2928;5117
1218912870;2914 New Jersey St;Los Angeles;90033;CA;34.042877;-118.201817;6;2;1554;4225
2999233262;3516 Tacoma Ave;Los Angeles;90065;CA;34.09777;-118.226226;2;1;891;5628
1959085871;11709 Wetherby Ln;Los Angeles;90077;CA;34.112214;-118.475476;5;7;7070;16705
1126337663;1516 N Beverly Glen Blvd;Los Angeles;90077;CA;34.09873;-118.442054;3;6;4020;5193
1091996442;5639 Blackwelder St;Los Angeles;90016;CA;34.029718;-118.367088;3;2;1166;4797
1104165958;7527 S Denker Ave;Los Angeles;90047;CA;33.971195;-118.304975;3;2;1802;5198
1575617397;1956 W 85th St;Los Angeles;90047;CA;33.960654;-118.313064;2;3;1512;5262
2072568890;8328 Reading Ave;Los Angeles;90045;CA;33.962609;-118.381695;4;2;2089;6481
2663504386;1929 Hollyvista Ave;Los Angeles;90027;CA;34.103521;-118.277393;3;2;1641;3899
1676140091;1516 Carmona Ave;Los Angeles;90019;CA;34.0469;-118.358392;3;1;1217;5083
1921126397;1207 S Harvard Blvd;Los Angeles;90006;CA;34.048768;-118.304464;2;1;1392;5917
2404838331;1237 E 51st St;Los Angeles;90011;CA;33.997367;-118.253355;2;1;912;4796
2158588131;3452 N Plata St;Los Angeles;90026;CA;34.078224;-118.28384;3;3;1402;5060
2832832605;1160 E 67th St;Los Angeles;90001;CA;33.978993;-118.254341;2;1;1011;5098
2070802869;6727 7th Ave;Los Angeles;90043;CA;33.977381;-118.324841;2;1;980;4800
2458099585;2550 Barry Ave;Los Angeles;90064;CA;34.028414;-118.441559;3;3;1271;5401
2448115461;4113 5th Ave;Los Angeles;90008;CA;34.010125;-118.322457;2;2;1308;4606
2023151437;7141 Woodrow Wilson Dr;Los Angeles;90068;CA;34.124552;-118.347984;3;4;2575;8054
1159555224;16405 Mulholland Dr;Los Angeles;90049;CA;34.132303;-118.491298;4;7;8500;306937
1112771242;7561 Hermes Dr;Los Angeles;90046;CA;34.115197;-118.363732;5;5;4644;13408
1687267076;111 N Mapleton Dr;Los Angeles;90077;CA;34.083147;-118.433392;7;13;14259;57386
1626820802;9106 S Gramercy Pl;Los Angeles;90047;CA;33.954219;-118.313085;3;2;1800;5750
2591123499;4572 W Washington Blvd;Los Angeles;90016;CA;34.039537;-118.339728;5;3;2615;6199
2774138745;416 E 60th St;Los Angeles;90003;CA;33.984908;-118.26688;5;2;2156;5400
2011988160;3726 Glenalbyn Dr;Los Angeles;90065;CA;34.092756;-118.215514;4;5;3130;4569
2027765077;858 E 107th St;Los Angeles;90002;CA;33.938979;-118.258825;3;2;1426;6412
2637910907;5735 Brushton St;Los Angeles;90008;CA;34.018741;-118.370642;4;3;2492;6579
2825861275;2623 Exposition Pl;Los Angeles;90018;CA;34.020072;-118.324537;6;4;1582;4528
2170457074;7270 Woodrow Wilson Dr;Los Angeles;90068;CA;34.123469;-118.351009;6;5;3200;3494
1301933166;2980 Belden Dr;Los Angeles;90068;CA;34.123209;-118.321696;4;6;3521;8978
1456047434;2209 West Blvd;Los Angeles;90016;CA;34.036894;-118.339165;3;1;1781;6600
1297892242;2625 Hargrave Dr;Los Angeles;90068;CA;34.116528;-118.324641;4;4;3946;6377
1920292025;10267 Lelia Ln;Los Angeles;90077;CA;34.100801;-118.443093;3;3;2598;2675
1877685680;912 N Kenter Ave;Los Angeles;90049;CA;34.075146;-118.491997;4;5;2849;8002
1345053010;8333 Grape St;Los Angeles;90001;CA;33.962099;-118.236576;5;2;2040;3363
1542303570;1262 Moraga Dr;Los Angeles;90049;CA;34.089136;-118.468635;5;7;8324;91646
2000028088;3115 Ellington Dr;Los Angeles;90068;CA;34.125812;-118.351283;3;4;2550;5885
2163701789;4832 Arlington Ave;Los Angeles;90043;CA;33.999048;-118.317838;2;4;1820;6098
1244145061;139 E Avenue 45;Los Angeles;90031;CA;34.095668;-118.205721;2;1;1188;4857
1489272208;603 85th St W;Los Angeles;90044;CA;33.961418;-118.284149;3;2;2037;6510
1094215951;1958 W 78th St;Los Angeles;90047;CA;33.96881;-118.313183;3;1;1316;6974
2580245972;1416 Pandora Ave;Los Angeles;90024;CA;34.061441;-118.426189;4;4;2146;6782
1005296263;2201 Sunset Plaza Dr;Los Angeles;90069;CA;34.104819;-118.385954;4;5;3627;35275
1707827514;950 Kenfield Ave;Los Angeles;90049;CA;34.076808;-118.483006;6;9;9300;16165
1021750140;3420 Field Ave;Los Angeles;90016;CA;34.024864;-118.346777;3;2;1288;5210
2374369311;927 E 52nd St;Los Angeles;90011;CA;33.996031;-118.259346;5;2;1600;4400
1976629906;4373 Huntington Dr S;Los Angeles;90032;CA;34.081241;-118.190965;3;2;1004;8500
2286436208;737 N Gardner St;Los Angeles;90046;CA;34.084785;-118.353534;5;6;4132;6499
1776408310;3581 Multiview Dr;Los Angeles;90068;CA;34.131003;-118.363071;6;7;9302;14618
1473252927;2115 Gates St;Los Angeles;90031;CA;34.069584;-118.206685;3;2;1050;4077
2018270485;233 S Larchmont Blvd;Los Angeles;90004;CA;34.070129;-118.323996;6;7;3780;8407
1652949302;4913 Lynnfield St;Los Angeles;90032;CA;34.08037;-118.176446;2;2;820;4851
1050734820;3015 Kemper Ct;Los Angeles;90065;CA;34.100169;-118.228964;2;1;724;4874
2766217547;3871 Cimarron St;Los Angeles;90062;CA;34.015327;-118.31636;3;3;1136;4932
2137712906;2512 Aiken Ave;Los Angeles;90064;CA;34.042313;-118.417575;3;2;1475;6499
1523297939;11317 W Sunset Blvd;Los Angeles;90049;CA;34.074422;-118.46369;0;0;;35101
1701939495;795 Lockearn St;Los Angeles;90049;CA;34.073381;-118.479846;2;3;2232;19436
2287815048;812 N Stanley Ave;Los Angeles;90046;CA;34.085781;-118.356046;5;6;5216;6499
2522435123;1314 Sierra Alta Way;Los Angeles;90069;CA;34.094187;-118.393878;5;6;4317;13726
1737769736;5762 Omaha St;Los Angeles;90042;CA;34.105371;-118.190226;3;1;991;2715
1861716261;609 S Highland Ave;Los Angeles;90036;CA;34.064593;-118.338923;4;3;3158;8102
1775972402;9108 W 24th St;Los Angeles;90034;CA;34.039838;-118.389954;2;2;1107;4861
1260253640;1905 Grace Ave;Los Angeles;90068;CA;34.10544;-118.332382;4;3;2851;5885
2834809626;1153 S Clark Dr;Los Angeles;90035;CA;34.055605;-118.385013;4;5;3000;4861
2318246801;1833 Roscomare Rd;Los Angeles;90077;CA;34.103211;-118.46401;4;4;3880;31233
2904449768;1191 N Bundy Dr;Los Angeles;90049;CA;34.080518;-118.482519;5;8;5978;9779
2835784377;5107 Los Hermosos Way;Los Angeles;90027;CA;34.114351;-118.302391;5;7;7667;26223
1301672304;2955 Belden Dr;Los Angeles;90068;CA;34.12258;-118.322273;4;4;3848;9592
1181415108;6526 Cerritos Pl;Los Angeles;90068;CA;34.107112;-118.331779;3;3;2287;6403
2686852462;233 S Medio Dr;Los Angeles;90049;CA;34.053915;-118.481393;4;5;3168;7510
2795492130;1737 E Gage Ave;Los Angeles;90001;CA;33.982292;-118.242002;3;1;1932;4990
1303733304;5260 Aldama St;Los Angeles;90042;CA;34.11312;-118.202225;4;3;2017;7044
2238956248;947 S Vancouver Ave;Los Angeles;90022;CA;34.019749;-118.160391;2;1;772;5241
1804819390;1612 3rd Ave;Los Angeles;90019;CA;34.043207;-118.319741;6;3;2126;7501
2250176446;437 N Windsor Blvd;Los Angeles;90004;CA;34.078681;-118.319877;4;3;2765;4643
1465837005;4115 Superior Ct;Los Angeles;90032;CA;34.077107;-118.195455;2;1;792;4633
1860486485;6336 Lindenhurst Ave;Los Angeles;90048;CA;34.066022;-118.366204;5;6;4052;6177
2765899823;7523 Franklin Ave;Los Angeles;90046;CA;34.10374;-118.353599;5;5;4684;10402
2756517029;3123 S Grand Ave;Los Angeles;90007;CA;34.021783;-118.275593;8;5;3690;7014
2541736955;823 E 111th Pl;Los Angeles;90059;CA;33.93572;-118.260009;3;2;1056;6390
1995282474;3651 Cardiff Ave;Los Angeles;90034;CA;34.027436;-118.398302;4;3;1761;6752
2979172812;1321 Belfast Dr;Los Angeles;90069;CA;34.09582;-118.38229;3;2;2023;8111
1144384133;3851 Cazador St;Los Angeles;90065;CA;34.11242;-118.225557;4;3;3396;14993
2062720531;413 E 95th St;Los Angeles;90003;CA;33.950471;-118.266693;3;2;1378;6130
2200405594;3430 Saint Susan Pl;Los Angeles;90066;CA;34.016225;-118.428898;4;3;2365;7693
2229114891;15440 Hamner Dr;Los Angeles;90077;CA;34.124803;-118.463294;5;4;2732;16688
2080645450;211 E 94th St;Los Angeles;90003;CA;33.951326;-118.271266;3;2;785;4662
2641153044;4201 Don Diablo Dr;Los Angeles;90008;CA;34.009676;-118.347291;3;2;1640;8107
2435921275;1318 N Occidental Blvd;Los Angeles;90026;CA;34.083236;-118.270665;4;3;1326;3742
2643082649;2471 Claremont Ave;Los Angeles;90027;CA;34.104746;-118.275147;5;7;5342;8886
1472722980;5231 Franklin Ave;Los Angeles;90027;CA;34.105815;-118.304571;5;4;4743;18565
1586165584;11630 Bellagio Rd;Los Angeles;90049;CA;34.076447;-118.466519;4;5;3500;27090
1635508841;2864 Budau Ave;Los Angeles;90032;CA;34.078574;-118.17308;3;1;1115;4799
2799960895;7866 Fareholm Dr;Los Angeles;90046;CA;34.102905;-118.361059;4;4;4283;3450
9359244843;6565 Pickwick St;Los Angeles;90042;CA;34.123839;-118.174574;3;4;2320;6898
2980869376;5413 Homeside Ave;Los Angeles;90016;CA;34.027638;-118.362556;3;3;1616;4800
1429021402;4511 Mont Eagle Pl;Los Angeles;90041;CA;34.119454;-118.216966;3;2;708;10028
2661409269;1216 W 61st St;Los Angeles;90044;CA;33.983882;-118.296536;4;2;2086;6722
2040696359;632 E 95th St;Los Angeles;90002;CA;33.949951;-118.263957;3;2;1056;5257
1590792859;6166 Oak Crest Way;Los Angeles;90042;CA;34.124931;-118.185239;2;1;1203;6512
1190806125;6650 Emmet Ter;Los Angeles;90068;CA;34.105772;-118.334852;5;5;4171;5741
1123236763;2595 Riverside Ter;Los Angeles;90039;CA;34.101266;-118.25276;4;2;1666;8330
1076791937;2644 Thurman Ave;Los Angeles;90016;CA;34.031148;-118.368117;4;4;1964;5001
1650828292;6014 Delphi St;Los Angeles;90042;CA;34.123474;-118.189364;3;2;1560;4953
1258145683;3050 Arrowhead Dr;Los Angeles;90068;CA;34.124723;-118.327056;3;3;2449;10028
1029481860;2166 Sunset Crest Dr;Los Angeles;90046;CA;34.110857;-118.38908;3;2;;8912
1231239673;2051 Kendra Ct;Los Angeles;90068;CA;34.108605;-118.333454;3;4;3273;5907
2503824897;1728 Wellesley Ave;Los Angeles;90025;CA;34.035617;-118.460354;2;1;938;5504
2146954860;2812 Manning Ave;Los Angeles;90064;CA;34.037728;-118.417133;5;5;4300;6238
2053329514;9206 S San Pedro St;Los Angeles;90003;CA;33.952598;-118.269212;3;1;1000;5218
1397557574;5811 Valley Oak Dr;Los Angeles;90068;CA;34.109925;-118.3161;3;4;2151;16130
1042338610;8027 Willow Glen Rd;Los Angeles;90046;CA;34.119371;-118.371873;2;2;1251;22642
1946987124;6755 Gill Way;Los Angeles;90068;CA;34.119596;-118.340666;3;4;1859;3025
1930496596;6111 Keniston Ave;Los Angeles;90043;CA;33.984156;-118.342053;4;4;1672;5933
2276081350;2202 Kelton Ave;Los Angeles;90064;CA;34.042784;-118.433116;3;3;2000;6752
1289449075;5549 Green Oak Dr;Los Angeles;90068;CA;34.119626;-118.311733;4;4;2880;13756
1784394505;1600 S Holt Ave;Los Angeles;90035;CA;34.049397;-118.378795;4;5;3525;6046
1590076582;2148 W 84th St;Los Angeles;90047;CA;33.962444;-118.317264;2;2;1551;5728
1618906510;122 N Serrano Ave;Los Angeles;90004;CA;34.074406;-118.306355;5;4;3042;7501
1901398192;1048 Roscomare Rd;Los Angeles;90077;CA;34.08966;-118.460222;3;3;1892;49584
2254585199;1128 W Kensington Rd;Los Angeles;90026;CA;34.070607;-118.259189;4;2;2711;5868
1955775500;8333 W 4th St;Los Angeles;90048;CA;34.071281;-118.371412;3;2;1716;6251
2220649224;3300 W 78th St;Los Angeles;90043;CA;33.968807;-118.329756;3;2;1720;6382
2429623330;1607 N Benton Way;Los Angeles;90026;CA;34.086823;-118.266777;3;2;1816;6926
2360193732;1641 E 50th Pl;Los Angeles;90011;CA;33.997273;-118.244629;1;1;716;2771
2461336647;1341 N Benton Way;Los Angeles;90026;CA;34.083204;-118.269109;3;4;2420;5075
1138711486;817 W 76th St;Los Angeles;90044;CA;33.971012;-118.287739;2;1;1012;5593
